"state","name","iata_code","latitude","longitude","city","zip","color"
"AK","Annette Island Airport","ANN",55.0424003601074,-131.572006225586,"Metlakatla",99926,"#71de56"
"AK","Napaskiak Airport","PKA",60.70289993,-161.7779999,"Napaskiak",99559,"#71de56"
"AK","Toksook Bay Airport","OOK",60.54140091,-165.0870056,"Toksook Bay",99637,"#71de56"
"AK","Icy Bay Airport","ICY",59.96900177,-141.662002563,"Yakutat",NA,"#71de56"
"AK","Klawock Airport","KLW",55.5792007446,-133.076004028,"Klawock",99925,"#71de56"
"AK","Sparrevohn LRRS Airport","SVW",61.09740067,-155.5740051,"Lime Village",99673,"#71de56"
"AK","Saginaw Seaplane Base","SGW",56.8862991333,-134.158004761,"Kake",99830,"#71de56"
"AK","Telida Airport","TLF",63.393901824951,-153.26899719238,"Lake Minchumina",99757,"#71de56"
"AK","Ketchikan Harbor Seaplane Base","WFB",55.349899,-131.677002,"Ketchikan",99901,"#71de56"
"AK","Nunapitchuk Airport","NUP",60.905591,-162.440454,"Nunapitchuk",99641,"#71de56"
"AK","Kobuk Airport","OBU",66.9123001099,-156.897003174,"Kobuk",99751,"#71de56"
"AK","Aleknagik / New Airport","WKK",59.2826004028,-158.617996216,"Aleknagik",99555,"#71de56"
"AK","Indian Mountain LRRS Airport","UTO",65.99279785,-153.7039948,"Hughes",99745,"#71de56"
"AK","Nome Airport","OME",64.5121994018555,-165.445007324219,"Nome",99762,"#71de56"
"AK","Meyers Chuck Seaplane Base","WMK",55.7396011353,-132.255004883,"Meyers Chuck",99903,"#71de56"
"AK","Skwentna Airport","SKW",61.9653015137,-151.190994263,"Skwentna",99667,"#71de56"
"AK","Soldotna Airport","SXQ",60.475700378418,-151.033996582031,"Soldotna",99669,"#71de56"
"AK","Anvik Airport","ANV",62.646702,-160.190994,"Anvik",99558,"#71de56"
"AK","Lime Village Airport","LVD",61.3591003418,-155.440002441,"Lime Village",99673,"#71de56"
"AK","Cordova Municipal Airport","CKU",60.5438995361,-145.727005005,"Cordova",99574,"#71de56"
"AK","Portage Creek Airport","PCA",58.9065,-157.714,"Wood River",99576,"#71de56"
"AK","Beaver Airport","WBQ",66.362197876,-147.406997681,"Beaver",99724,"#71de56"
"AK","Valdez Pioneer Field","VDZ",61.13389969,-146.2480011,"Valdez",99686,"#71de56"
"AK","Bartlett Cove Seaplane Base","BQV",58.4552001953,-135.884994507,"Gustavus",99826,"#71de56"
"AK","Atqasuk Edward Burnell Sr Memorial Airport","ATK",70.4673004150391,-157.436004638672,"Atqasuk",99791,"#71de56"
"AK","Ralph Wien Memorial Airport","OTZ",66.88469696,-162.598999,"Kotzebue",99752,"#71de56"
"AK","Tuntutuliak Airport","WTL",60.3353004456,-162.667007446,"Tuntutuliak",99680,"#71de56"
"AK","Solomon State Field","SOL",64.5605,-164.4457,"Moses Point Fishing Village",99762,"#71de56"
"AK","Whale Pass Seaplane Float Harbor Facility","WWP",56.116299,-133.121994,"Coffman Cove",99918,"#71de56"
"AK","Ugnu-Kuparuk Airport","UUK",70.3308029175,-149.598007202,"Anchorage",99510,"#71de56"
"AK","Crooked Creek Airport","CKD",61.8679008484,-158.134994507,"Crooked Creek",99575,"#71de56"
"AK","Metlakatla Seaplane Base","MTM",55.131001,-131.578003,"Metlakatla",99926,"#71de56"
"AK","Lonely Air Station","LNI",70.91069794,-153.2420044,"North Slope",NA,"#71de56"
"AK","Levelock Airport","KLL",59.1281013489,-156.85899353,"Levelock",99625,"#71de56"
"AK","Amook Bay Seaplane Base","AOS",57.4715003967,-153.815002441,"Larsen Bay",99624,"#71de56"
"AK","Elim Airport","ELI",64.61470032,-162.2720032,"Elim",99739,"#71de56"
"AK","Twin Hills Airport","TWA",59.07559967041,-160.27299499512,"Togiak",99678,"#71de56"
"AK","St Paul Island Airport","SNP",57.1673011779785,-170.220001220703,"Saint Paul Island",99660,"#71de56"
"AK","Amchitka Army Airfield","AHT",51.3777777778,179.259166667,"Aleutians West",NA,"#71de56"
"AK","McKinley National Park Airport","MCL",63.7326011658,-148.910995483,"Denali National Park",99755,"#71de56"
"AK","Summit Airport","UMM",63.3315010071,-149.126998901,"Cantwell",99729,"#71de56"
"AK","Pilot Station Airport","PQS",61.934601,-162.899994,"Pilot Station",99650,"#71de56"
"AK","Robert (Bob) Curtis Memorial Airport","ORV",66.81790161,-161.0189972,"Noorvik",99763,"#71de56"
"AK","Shaktoolik Airport","SKK",64.37110138,-161.223999,"Shaktoolik",99771,"#71de56"
"AK","Eareckson Air Station","SYA",52.71229935,174.1139984,"Aleutians West",NA,"#71de56"
"AK","Loring Seaplane Base","WLR",55.6012992859,-131.636993408,"Ketchikan",99950,"#71de56"
"AK","Thorne Bay Seaplane Base","KTB",55.6879997253,-132.537002563,"Thorne Bay",99919,"#71de56"
"AK","Baranof Warm Springs Float and Seaplane Base","BNF",57.088799,-134.833146,"Sitka",99835,"#71de56"
"AK","Goodnews Airport","GNU",59.117401123,-161.57699585,"Goodnews Bay",99589,"#71de56"
"AK","Talkeetna Airport","TKA",62.320499420166,-150.09399414062,"Talkeetna",99676,"#71de56"
"AK","Kalakaket Creek AS Airport","KKK",64.4166256967,-156.820392609,"Galena",99741,"#71de56"
"AK","Koyuk Alfred Adams Airport","KKA",64.9394989014,-161.154006958,"Koyuk",99753,"#71de56"
"AK","Funter Bay Seaplane Base","FNR",58.2543983459,-134.897994995,"Tee Harbor",99801,"#71de56"
"AK","King Salmon Airport","AKN",58.67679977,-156.6490021,"King Salmon",99613,"#71de56"
"AK","Ellamar Seaplane Base","ELW",60.893818,-146.704038,"Tatitlek",99677,"#71de56"
"AK","Circle Hot Springs Airport","CHP",65.485496521,-144.610992432,"Circle Hot Springs",99730,"#71de56"
"AK","Chomley Seaplane Base","CIV",55.217,-132.21,"Mud Bay",99901,"#71de56"
"AK","Tahneta Pass Airport","HNE",61.9014015198,-147.304000854,"Glennallen",99588,"#71de56"
"AK","Hollis Clark Bay Seaplane Base","HYL",55.4816017151,-132.645996094,"Klawock",99925,"#71de56"
"AK","Ivishak Airport","IVH",69.4066,-148.2881,"Anchorage",99519,"#71de56"
"AK","Entrance Island Seaplane Base","HBH",57.412201,-133.43848,"Kake",99830,"#71de56"
"AK","False Island Seaplane Base","FAK",57.5321998596,-135.212997437,"Tenakee Springs",99841,"#71de56"
"AK","Kalskag Airport","KLG",61.5363006591797,-160.341003417969,"Kalskag",99607,"#71de56"
"AK","Drift River Airport","DRF",60.5889015198,-152.162002563,"Tyonek",99682,"#71de56"
"AK","Chignik Lake Airport","KCQ",56.2550010681,-158.774993896,"Chignik Lake",99548,"#71de56"
"AK","Kulik Lake Airport","LKK",58.9821014404,-155.121002197,"Kokhanok",99606,"#71de56"
"AK","Chena Hot Springs Airport","CEX",65.0518035889,-146.04699707,"Two Rivers",99716,"#71de56"
"AK","Chatham Seaplane Base","CYM",57.5149,-134.945999,"Angoon",99820,"#71de56"
"AK","Herendeen Bay Airport","HED",55.801399231,-160.899002075,"Nelson Lagoon",99571,"#71de56"
"AK","Pedro Bay Airport","PDB",59.7896003723,-154.12399292,"Pedro Bay",99647,"#71de56"
"AK","Tikchik Lodge Seaplane Base","KTH",59.9631996155,-158.477005005,"Lake and Peninsula",99576,"#71de56"
"AK","Tununak Airport","TNK",60.575500488281,-165.27200317383,"Tununak",99681,"#71de56"
"AK","Delta Junction Airport","DJN",64.0503997803,-145.716995239,"Delta Junction",99737,"#71de56"
"AK","Rampart Airport","RMP",65.507896,-150.141007,"Rampart",99767,"#71de56"
"AK","Tokeen Seaplane Base","TKI",55.9370994568,-133.32699585,"Coffman Cove",99918,"#71de56"
"AK","Merrill Field","MRI",61.2135009765625,-149.843994140625,"Anchorage",99501,"#71de56"
"AK","Medfra Airport","MDR",63.1060198183,-154.719429016,"Nikolai",99691,"#71de56"
"AK","Naknek Airport","NNK",58.732898712158,-157.02000427246,"Naknek",99633,"#71de56"
"AK","Cape Lisburne LRRS Airport","LUR",68.87509918,-166.1100006,"Point Hope",99766,"#71de56"
"AK","Girdwood Airport","AQY",60.966099,-149.126007,"Girdwood",99587,"#71de56"
"AK","Excursion Inlet Seaplane Base","EXI",58.420502,-135.449005,"Gustavus",99826,"#71de56"
"AK","Nondalton Airport","NNL",59.980201721191,-154.8390045166,"Nondalton",99640,"#71de56"
"AK","Council Airport","CIL",64.8979034424,-163.70300293,"White Mountain",99784,"#71de56"
"AK","Stony River 2 Airport","SRV",61.7896995544,-156.589004517,"Aniak",99557,"#71de56"
"AK","Wales Airport","WAA",65.622593,-168.095,"Wales",99783,"#71de56"
"AK","Stevens Village Airport","SVS",66.0172,-149.0545,"Stevens Village",99774,"#71de56"
"AK","Nunam Iqua Airport","SXP",62.520599,-164.848006,"Nunam Iqua",99666,"#71de56"
"AK","Port Alice Seaplane Base","PTC",55.803,-133.597,"Klawock",99925,"#71de56"
"AK","New Stuyahok Airport","KNW",59.4499015808,-157.32800293,"New Stuyahok",99636,"#71de56"
"AK","Hoonah Airport","HNH",58.0961,-135.410111,"Hoonah",99829,"#71de56"
"AK","Point Baker Seaplane Base","KPB",56.3518981934,-133.623001099,"Point Baker",99927,"#71de56"
"AK","Kenai Municipal Airport","ENA",60.5731010437012,-151.244995117188,"Kenai",99611,"#71de56"
"AK","Takotna Airport","TCT",62.993206,-156.029026,"Ganes Creek",99675,"#71de56"
"AK","Tenakee Seaplane Base","TKE",57.77970123291,-135.21800231934,"Tenakee Springs",99841,"#71de56"
"AK","Nelson Lagoon Airport","NLG",56.007499694824,-161.16000366211,"Nelson Lagoon",99571,"#71de56"
"AK","Nikolski Air Station","IKO",52.9416007995605,-168.848999023438,"Nikolski",99638,"#71de56"
"AK","Ivanof Bay Seaplane Base","KIB",55.8974990845,-159.488998413,"Anchorage",99695,"#71de56"
"AK","Tanacross Airport","TSG",63.3744010925,-143.335998535,"Tanacross",99776,"#71de56"
"AK","Ugashik Airport","UGS",57.5279006958,-157.399002075,"Pilot Point",99649,"#71de56"
"AK","Port Heiden Airport","PTH",56.959098815918,-158.632995605469,"Port Heiden",99549,"#71de56"
"AK","Beluga Airport","BVU",61.1721992493,-151.044006348,"Anchorage",99695,"#71de56"
"AK","Ugashik Bay Airport","UGB",57.4253997803,-157.740005493,"Pilot Point",99649,"#71de56"
"AK","Buckland Airport","BKC",65.9815979004,-161.149002075,"Buckland",99727,"#71de56"
"AK","Big Mountain Airport","BMX",59.3611984253,-155.259002686,"Kokhanok",99606,"#71de56"
"AK","Wiley Post Will Rogers Memorial Airport","BRW",71.285402,-156.766008,"Barrow",99723,"#71de56"
"AK","Bettles Airport","BTT",66.91390228,-151.529007,"Bettles Field",99726,"#71de56"
"AK","Golden Horn Lodge Seaplane Base","GDH",59.7470016479,-158.875,"Aleknagik",99555,"#71de56"
"AK","Central Airport","CEM",65.57379913,-144.7830048,"Central",99730,"#71de56"
"AK","Chalkyitsik Airport","CIK",66.6449966431,-143.740005493,"Chalkyitsik",99788,"#71de56"
"AK","Chefornak Airport","CYF",60.1492004395,-164.285995483,"Chefornak",99561,"#71de56"
"AK","Ouzinkie Airport","KOZ",57.925362,-152.496715,"Ouzinkie",99644,"#71de56"
"AK","Stebbins Airport","WBB",63.5159988403,-162.277999878,"Stebbins",99671,"#71de56"
"AK","Manley Hot Springs Airport","MLY",64.9975967407,-150.643997192,"Manley Hot Springs",99756,"#71de56"
"AK","Coldfoot Airport","CXF",67.2521972656,-150.203994751,"Fairbanks",99701,"#71de56"
"AK","Candle 2 Airport","CDL",65.907699585,-161.925994873,"Buckland",99727,"#71de56"
"AK","Steamboat Bay Seaplane Base","WSB",55.5295982361,-133.641998291,"Craig",99921,"#71de56"
"AK","Bartletts Airport","BSZ",58.2162017822,-157.352005005,"Egegik",99579,"#71de56"
"AK","Wiseman Airport","WSM",67.4046020508,-150.123001099,"Chena Hot Springs",99701,"#71de56"
"AK","Napakiak Airport","WNA",60.690299987793,-161.97900390625,"Napakiak",99634,"#71de56"
"AK","Brevig Mission Airport","KTS",65.3312988281,-166.466003418,"Brevig Mission",99785,"#71de56"
"AK","Bell Island Hot Springs Seaplane Base","KBE",55.9291000366,-131.572006226,"Ketchikan",99901,"#71de56"
"AK","Akiachak Airport","KKI",60.904800415039,-161.42199707031,"Akiachak",99551,"#71de56"
"AK","Bear Creek 3 Airport","BCC",63.5733160384,-156.149454117,"Ganes Creek",99675,"#71de56"
"AK","Bethel Seaplane Base","JBT",60.7820014954,-161.742996216,"Bethel",99559,"#71de56"
"AK","Cape Pole Seaplane Base","CZP",55.9663009644,-133.79699707,"Point Baker",99927,"#71de56"
"AK","Chignik Bay Seaplane Base","KBW",56.2956008911,-158.401000977,"Chignik",99564,"#71de56"
"AK","Chignik Fisheries Airport","KCG",56.317643,-158.589706,"Chignik Lagoon",99565,"#71de56"
"AK","Seal Bay Seaplane Base","SYB",58.3733,-152.2018,"Port William",99697,"#71de56"
"AK","Nyac Airport","ZNC",60.9807014465,-159.994003296,"Nyac",99642,"#71de56"
"AK","Elfin Cove Seaplane Base","ELV",58.1952018738,-136.347000122,"Elfin Cove",99825,"#71de56"
"AK","Granite Mountain Air Station","GMT",65.40209961,-161.2810059,"Koyuk",99753,"#71de56"
"AK","Port Protection Seaplane Base","PPV",56.328800201416,-133.61000061035,"Point Baker",99927,"#71de56"
"AK","Kake Seaplane Base","KAE",56.973,-133.945999,"Kake",99830,"#71de56"
"AK","Boundary Airport","BYA",64.0783004761,-141.113006592,"Chicken",99732,"#71de56"
"AK","Ladd AAF Airfield","FBK",64.83750153,-147.6139984,"Fort Wainwright",99703,"#71de56"
"AK","Craig Seaplane Base","CGA",55.4788017272949,-133.147994995117,"Craig",99921,"#71de56"
"AK","Bryant Army Heliport","FRN",61.26639938,-149.6529999,"Fort Richardson",99505,"#71de56"
"AK","Nikolai Airport","NIB",63.0186,-154.358002,"Nikolai",99691,"#71de56"
"AK","Five Mile Airport","FMC",65.9270019531,-149.839996338,"Stevens Village",99774,"#71de56"
"AK","Farewell Airport","FWL",62.5065994263,-153.893997192,"Nikolai",99691,"#71de56"
"AK","Edward G. Pitka Sr Airport","GAL",64.73619843,-156.9369965,"Galena",99741,"#71de56"
"AK","Chicken Airport","CKX",64.0712966919,-141.95199585,"Chicken",99732,"#71de56"
"AK","Kwigillingok Airport","KWK",59.876499,-163.169005,"Kwigillingok",99622,"#71de56"
"AK","Seward Airport","SWD",60.1268997192383,-149.419006347656,"Seward",99664,"#71de56"
"AK","Wrangell Airport","WRG",56.48429871,-132.3699951,"Wrangell",99929,"#71de56"
"AK","Wainwright Airport","AIN",70.6380004883,-159.994995117,"Wainwright",99782,"#71de56"
"AK","Cold Bay Airport","CDB",55.2061004638672,-162.725006103516,"Cold Bay",99571,"#71de56"
"AK","Chitina Airport","CXC",61.582901001,-144.427001953,"Chitina",99566,"#71de56"
"AK","Big Lake Airport","BGQ",61.5360984802,-149.813995361,"Big Lake",99652,"#71de56"
"AK","Yakutat Airport","YAK",59.5032997131,-139.660003662,"Yakutat",99689,"#71de56"
"AK","Taylor Airport","TWE",65.6792984009,-164.798995972,"Nome",NA,"#71de56"
"AK","Chistochina Airport","CZO",62.5634994507,-144.669006348,"Gakona",99586,"#71de56"
"AK","Naukati Bay Seaplane Base","NKI",55.849602,-133.227994,"Coffman Cove",99918,"#71de56"
"AK","Huslia Airport","HSL",65.69789886,-156.3509979,"Huslia",99746,"#71de56"
"AK","Dahl Creek Airport","DCK",66.9432983398,-156.904998779,"Kobuk",99751,"#71de56"
"AK","Clarks Point Airport","CLP",58.83369827,-158.529007,"Clarks Point",99569,"#71de56"
"AK","Hooper Bay Airport","HPB",61.52389908,-166.1470032,"Hooper Bay",99604,"#71de56"
"AK","Hughes Airport","HUS",66.04109955,-154.2630005,"Hughes",99745,"#71de56"
"AK","Adak Airport","ADK",51.8779983520508,-176.64599609375,"Adak",99546,"#71de56"
"AK","Lake Brooks Seaplane Base","BKF",58.554798126221,-155.77699279785,"Kodiak",99697,"#71de56"
"AK","Kitoi Bay Seaplane Base","KKB",58.1908988953,-152.369995117,"Ouzinkie",99644,"#71de56"
"AK","Egegik Airport","EGX",58.1855010986,-157.375,"Egegik",99579,"#71de56"
"AK","Karluk Lake Seaplane Base","KKL",57.3670005798,-154.027999878,"Larsen Bay",99624,"#71de56"
"AK","Iliamna Airport","ILI",59.75439835,-154.9109955,"Newhalen",99606,"#71de56"
"AK","Ekuk Airport","KKU",58.8111991882,-158.559005737,"Clarks Point",99569,"#71de56"
"AK","Waterfall Seaplane Base","KWF",55.2962989807,-133.242996216,"Craig",99921,"#71de56"
"AK","Flat Airport","FLT",62.4525985718,-157.988998413,"Turnagain Heights",99503,"#71de56"
"AK","Juneau International Airport","JNU",58.3549995422363,-134.57600402832,"Juneau",99801,"#71de56"
"AK","Koliganek Airport","KGK",59.726600647,-157.259002686,"Koliganek",99576,"#71de56"
"AK","Kodiak Municipal Airport","KDK",57.8059005737,-152.37399292,"Kodiak",99615,"#71de56"
"AK","Teller Airport","TLA",65.2404022217,-166.339004517,"Teller",99778,"#71de56"
"AK","Emmonak Airport","EMK",62.78609848,-164.4909973,"Emmonak",99581,"#71de56"
"AK","Kipnuk Airport","KPN",59.9329986572,-164.031005859,"Kipnuk",99614,"#71de56"
"AK","Haycock Airport","HAY",65.2009963989,-161.156997681,"Koyuk",99753,"#71de56"
"AK","Atka Airport","AKB",52.22029877,-174.2059937,"Atka",99547,"#71de56"
"AK","Port Moller Airport","PML",56.0060005188,-160.561004639,"Nelson Lagoon",99571,"#71de56"
"AK","St George Airport","STG",56.5783004761,-169.662002563,"Saint George Island",99591,"#71de56"
"AK","Healy Lake Airport","HKB",63.9958,-144.6926,"Fairbanks",99706,"#71de56"
"AK","Hog River Airport","HGZ",66.2161026,-155.6690063,"Hughes",99745,"#71de56"
"AK","Ketchikan International Airport","KTN",55.35559845,-131.7140045,"Ketchikan",99901,"#71de56"
"AK","Kaltag Airport","KAL",64.31909943,-158.7409973,"Kaltag",99748,"#71de56"
"AK","Quartz Creek Airport","JLA",60.4827003479,-149.718994141,"Cooper Landing",99572,"#71de56"
"AK","Kasaan Seaplane Base","KXA",55.537399292,-132.397994995,"Ketchikan",99950,"#71de56"
"AK","Larsen Bay Airport","KLN",57.5350990295,-153.977996826,"Larsen Bay",99624,"#71de56"
"AK","Colorado Creek Airport","KCR",63.5676994324,-155.988998413,"Ganes Creek",99675,"#71de56"
"AK","Chandalar Lake Airport","WCR",67.5045013428,-148.483001709,"Chena Hot Springs",99701,"#71de56"
"AK","Prospect Creek Airport","PPC",66.814102172852,-150.64399719238,"Evansville",99726,"#71de56"
"AK","Quinhagak Airport","KWN",59.7551,-161.845,"Quinhagak",99655,"#71de56"
"AK","Atmautluak Airport","ATT",60.866699,-162.272995,"Bethel",99559,"#71de56"
"AK","Zachar Bay Seaplane Base","KZB",57.553001,-153.746052,"Larsen Bay",99624,"#71de56"
"AK","Port Walter Seaplane Base","PWR",56.3810005188,-134.651000977,"Port Alexander",99836,"#71de56"
"AK","Perry Island Seaplane Base","PYL",60.6852989197,-147.919006348,"Whittier",99693,"#71de56"
"AK","St Michael Airport","SMK",63.49010086,-162.1100006,"Saint Michael",99659,"#71de56"
"AK","Red Devil Airport","RDV",61.7881011963,-157.350006104,"Red Devil",99656,"#71de56"
"AK","Sand Point Airport","SDP",55.314998626709,-160.522994995117,"Sand Point",99661,"#71de56"
"AK","Shishmaref Airport","SHH",66.249604,-166.089112,"Shishmaref",99772,"#71de56"
"AK","Mountain Village Airport","MOU",62.095401763916,-163.682006835938,"Mountain Village",99632,"#71de56"
"AK","Mc Carthy Airport","MXY",61.4370994568,-142.904006958,"Chitina",99566,"#71de56"
"AK","Mekoryuk Airport","MYU",60.3713989257812,-166.27099609375,"Mekoryuk",99630,"#71de56"
"AK","Boswell Bay Airport","BSW",60.4230995178,-146.145996094,"Cordova",99574,"#71de56"
"AK","Dillingham Airport","DLG",59.04470062,-158.5050049,"Dillingham",99576,"#71de56"
"AK","Nenana Municipal Airport","ENN",64.5473022460938,-149.074005126953,"Nenana",99760,"#71de56"
"AK","Sitkinak Airport","SKJ",56.5378,-154.1412,"Kodiak",99615,"#71de56"
"AK","May Creek Airport","MYK",61.3357009888,-142.68699646,"May Creek",99566,"#71de56"
"AK","Kongiganak Airport","KKH",59.9608001709,-162.880996704,"Bethel",99559,"#71de56"
"AK","Elmendorf Air Force Base","EDF",61.2509994506836,-149.807006835938,"Elmendorf Afb",99506,"#71de56"
"AK","Yes Bay Lodge Seaplane Base","WYB",55.9163017273,-131.800994873,"Ketchikan",99901,"#71de56"
"AK","Nulato Airport","NUL",64.729301,-158.074005,"Nulato",99765,"#71de56"
"AK","Tatitlek Airport","TEK",60.871449,-146.690297,"Tatitlek",99677,"#71de56"
"AK","Eielson Air Force Base","EIL",64.66570282,-147.102005,"Eielson Afb",99702,"#71de56"
"AK","Port Graham Airport","PGM",59.348300933838,-151.83200073242,"Homer",99603,"#71de56"
"AK","False Pass Airport","KFP",54.8474006652832,-163.410003662109,"False Pass",99583,"#71de56"
"AK","Togiak Airport","TOG",59.0527992248535,-160.397003173828,"Togiak",99678,"#71de56"
"AK","Newtok Airport","WWT",60.939098358154,-164.64100646973,"Newtok",99559,"#71de56"
"AK","Fairbanks International Airport","FAI",64.81510162,-147.8560028,"Fairbanks",99709,"#71de56"
"AK","Alakanuk Airport","AUK",62.6800422668,-164.659927368,"Alakanuk",99554,"#71de56"
"AK","Ambler Airport","ABL",67.1063,-157.856989,"Ambler",99786,"#71de56"
"AK","Warren ""Bud"" Woods Palmer Municipal Airport","PAQ",61.594898,-149.08901,"Palmer",99645,"#71de56"
"AK","Casco Cove Coast Guard Station","ATU",52.8283996582,173.179992676,"Navy Town",NA,"#71de56"
"AK","Barter Island LRRS Airport","BTI",70.1340026855,-143.582000732,"Kaktovik",99747,"#71de56"
"AK","Port Bailey Seaplane Base","KPY",57.9300994873,-153.041000366,"Port Lions",99550,"#71de56"
"AK","Tyonek Airport","TYE",61.076698303223,-151.13800048828,"Tyonek",99682,"#71de56"
"AK","Akutan Seaplane Base","KQA",54.1337704415,-165.778895617,"Akutan",99553,"#71de56"
"AK","Platinum Airport","PTU",59.0113983154297,-161.820007324219,"Platinum",99651,"#71de56"
"AK","Pilot Point Airport","PIP",57.5803985596,-157.572006226,"Pilot Point",99649,"#71de56"
"AK","Coffman Cove Seaplane Base","KCC",56.003200531,-132.841995239,"Coffman Cove",99918,"#71de56"
"AK","Golovin Airport","GLV",64.5504989624,-163.007003784,"Golovin",99762,"#71de56"
"AK","Gambell Airport","GAM",63.7667999267578,-171.733001708984,"Gambell",99742,"#71de56"
"AK","Nuiqsut Airport","NUI",70.2099990845,-151.005996704,"Nuiqsut",99789,"#71de56"
"AK","Arctic Village Airport","ARC",68.1147,-145.578995,"Arctic Village",99722,"#71de56"
"AK","Russian Mission Airport","RSH",61.7788848877,-161.319458008,"Russian Mission",99657,"#71de56"
"AK","Ruby Airport","RBY",64.72720337,-155.4700012,"Ruby",99768,"#71de56"
"AK","Circle City /New/ Airport","IRC",65.830498,-144.076008,"Circle",99733,"#71de56"
"AK","Merle K (Mudhole) Smith Airport","CDV",60.4917984,-145.4779968,"Eyak",99574,"#71de56"
"AK","Holy Cross Airport","HCR",62.1883010864258,-159.774993896484,"Holy Cross",99602,"#71de56"
"AK","Pelican Seaplane Base","PEC",57.955200195312,-136.23599243164,"Pelican",99832,"#71de56"
"AK","Cape Romanzof LRRS Airport","CZF",61.78030014,-166.0390015,"Scammon Bay",99662,"#71de56"
"AK","Deering Airport","DRG",66.0696029663,-162.76600647,"Deering",99736,"#71de56"
"AK","Red Dog Airport","RDB",68.0320968628,-162.899002075,"Noatak",99761,"#71de56"
"AK","Kasigluk Airport","KUK",60.87440109,-162.5240021,"Kasigluk",99609,"#71de56"
"AK","Edna Bay Seaplane Base","EDA",55.949653,-133.661012,"Point Baker",99927,"#71de56"
"AK","Alitak Seaplane Base","ALZ",56.8995018005,-154.248001099,"Kodiak",99615,"#71de56"
"AK","Kodiak Airport","ADQ",57.75,-152.4940033,"Kodiak",99615,"#71de56"
"AK","Unalaska Airport","DUT",53.900100708,-166.544006348,"Unalaska",99685,"#71de56"
"AK","Chernofski Harbor Seaplane Base","KCN",53.4028993416,-167.52027154,"Chernofski",NA,"#71de56"
"AK","Kwethluk Airport","KWT",60.7902984619,-161.444000244,"Kwethluk",99621,"#71de56"
"AK","Eek Airport","EEK",60.21367264,-162.0438843,"Eek",99578,"#71de56"
"AK","Eagle Airport","EAA",64.77639771,-141.151001,"Eagle Village",99738,"#71de56"
"AK","Cape Newenham LRRS Airport","EHM",58.6464004517,-162.06300354,"Platinum",99651,"#71de56"
"AK","Fort Yukon Airport","FYU",66.5715026855469,-145.25,"Fort Yukon",99740,"#71de56"
"AK","Tin City Long Range Radar Station Airport","TNC",65.56310272,-167.9219971,"Wales",99783,"#71de56"
"AK","Copper Center 2 Airport","CZC",61.9412002563,-145.294006348,"Tazlina",99588,"#71de56"
"AK","West Point Village Seaplane Base","KWP",57.7700996399,-153.548995972,"Kodiak",99615,"#71de56"
"AK","Nanwalek Airport","KEB",59.3521003723,-151.925003052,"Homer",99603,"#71de56"
"AK","Tatalina LRRS Airport","TLJ",62.8944015503,-155.977005005,"Mc Grath",99627,"#71de56"
"AK","Northway Airport","ORT",62.9612999,-141.9290009,"Northway",99764,"#71de56"
"AK","Noatak Airport","WTK",67.5661010742188,-162.975006103516,"Noatak",99761,"#71de56"
"AK","Glacier Creek Airport","KGZ",61.4551010132,-142.380996704,"May Creek",99566,"#71de56"
"AK","Willow Airport","WOW",61.7541999817,-150.052001953,"Willow",99688,"#71de56"
"AK","Chevak Airport","VAK",61.5409,-165.6005,"Chevak",99563,"#71de56"
"AK","King Cove Airport","KVC",55.1162986755371,-162.266006469727,"King Cove",99612,"#71de56"
"AK","Petersburg James A Johnson Airport","PSG",56.80170059,-132.9450073,"Petersburg",99833,"#71de56"
"AK","Galbraith Lake Airport","GBH",68.4796981812,-149.490005493,"North Slope",NA,"#71de56"
"AK","Kivalina Airport","KVL",67.736198425293,-164.563003540039,"Kivalina",99750,"#71de56"
"AK","Allen Army Airfield","BIG",63.9944992065,-145.722000122,"Delta Junction",99737,"#71de56"
"AK","Gulkana Airport","GKN",62.1548996,-145.4570007,"Tazlina",99588,"#71de56"
"AK","Alpine Airstrip","DQH",70.3442993164,-150.945007324,"Nuiqsut",99789,"#71de56"
"AK","Point Hope Airport","PHO",68.3488006591797,-166.79899597168,"Point Hope",99766,"#71de56"
"AK","Angoon Seaplane Base","AGN",57.503601,-134.585007,"Angoon",99820,"#71de56"
"AK","Metro Field","MTX",64.8068008423,-147.761993408,"Fairbanks",99701,"#71de56"
"AK","Gustavus Airport","GST",58.4253006,-135.7070007,"Gustavus",99826,"#71de56"
"AK","Wasilla Airport","WWA",61.5717010498,-149.539993286,"Wasilla",99654,"#71de56"
"AK","Skagway Airport","SGY",59.4600982666016,-135.315994262695,"Skagway",99840,"#71de56"
"AK","Allakaket Airport","AET",66.5518035889,-152.621994019,"Allakaket",99720,"#71de56"
"AK","Deadhorse Airport","SCC",70.19470215,-148.4649963,"Deadhorse",99734,"#71de56"
"AK","South Naknek Nr 2 Airport","WSN",58.7033996582,-157.007995605,"South Naknek",99670,"#71de56"
"AK","Homer Airport","HOM",59.6455993652344,-151.477005004883,"Homer",99603,"#71de56"
"AK","Sitka Rocky Gutierrez Airport","SIT",57.0471000671387,-135.361999511719,"Sitka",99835,"#71de56"
"AK","Selawik Airport","WLK",66.60009766,-159.9859924,"Selawik",99770,"#71de56"
"AK","Sleetmute Airport","SLQ",61.7005004883,-157.166000366,"Sleetmute",99668,"#71de56"
"AK","San Juan /Uganik/ Seaplane Base","UGI",57.7304,-153.320999,"Kodiak",99615,"#71de56"
"AK","Igiugig Airport","IGG",59.3240013122559,-155.901992797852,"King Salmon",99613,"#71de56"
"AK","St Mary's Airport","KSM",62.0605011,-163.302002,"Pitkas Point",99658,"#71de56"
"AK","Bob Baker Memorial Airport","IAN",66.9759979248,-160.43699646,"Kiana",99749,"#71de56"
"AK","Koyukuk Airport","KYU",64.8760986328,-157.727005005,"Koyukuk",99754,"#71de56"
"AK","Seldovia Airport","SOV",59.442401885986,-151.70399475098,"Seldovia",99663,"#71de56"
"AK","Port Clarence Coast Guard Station","KPC",65.2537002563,-166.85899353,"Brevig Mission",99785,"#71de56"
"AK","Chuathbaluk Airport","CHU",61.579102,-159.216003,"Chuathbaluk",99557,"#71de56"
"AK","Akiak Airport","AKI",60.9029006958,-161.231002808,"Akiak",99552,"#71de56"
"AK","Ralph M Calhoun Memorial Airport","TAL",65.1744003296,-152.10899353,"Tanana",99777,"#71de56"
"AK","Birch Creek Airport","KBC",66.2740020752,-145.824005127,"Fort Yukon",99740,"#71de56"
"AK","Chenega Bay Airport","NCN",60.0773010254,-147.992004395,"Port Ashton",99574,"#71de56"
"AK","Grayling Airport","KGX",62.895187,-160.066289,"Grayling",99590,"#71de56"
"AK","Shungnak Airport","SHG",66.88809967041,-157.16200256348,"Shungnak",99773,"#71de56"
"AK","Akhiok Airport","AKK",56.9387016296,-154.182998657,"Kodiak",99615,"#71de56"
"AK","Minchumina Airport","LMA",63.886002,-152.302002,"Lake Minchumina",99757,"#71de56"
"AK","Manokotak Airport","KMO",58.9902000427,-159.050003052,"Manokotak",99628,"#71de56"
"AK","Taku Lodge Seaplane Base","TKL",58.4897003174,-133.942993164,"Funter",99801,"#71de56"
"AK","Anaktuvuk Pass Airport","AKP",68.13359833,-151.7429962,"Anaktuvuk Pass",99721,"#71de56"
"AK","Karluk Airport","KYK",57.5671005249,-154.449996948,"Karluk",99608,"#71de56"
"AK","Savoonga Airport","SVA",63.6864013671875,-170.49299621582,"Savoonga",99769,"#71de56"
"AK","Port Alsworth Airport","PTA",60.201681,-154.325863,"Port Alsworth",99653,"#71de56"
"AK","Bethel Airport","BET",60.77980042,-161.8379974,"Bethel Airport",99559,"#71de56"
"AK","Olga Bay Seaplane Base","KOY",57.1614990234,-154.229995728,"Kodiak",99615,"#71de56"
"AK","Venetie Airport","VEE",67.0086975098,-146.365997314,"Venetie",99781,"#71de56"
"AK","Yakataga Airport","CYT",60.080974,-142.494541,"Yakutat",NA,"#71de56"
"AK","Haines Airport","HNS",59.2438011169434,-135.524002075195,"Haines",99827,"#71de56"
"AK","Livengood Camp Airport","LIV",65.467,-148.6534,"Fairbanks",99790,"#71de56"
"AK","Tuluksak Airport","TLT",61.0968017578,-160.968994141,"Tuluksak",99679,"#71de56"
"AK","Kotlik Airport","KOT",63.0306015015,-163.533004761,"Kotlik",99620,"#71de56"
"AK","McGrath Airport","MCG",62.95289993,-155.6060028,"Mc Grath",99627,"#71de56"
"AK","Scammon Bay Airport","SCM",61.8452987671,-165.570999146,"Scammon Bay",99662,"#71de56"
"AK","Tok Junction Airport","TKJ",63.32949829,-142.9539948,"Tok",99780,"#71de56"
"AK","Unalakleet Airport","UNK",63.88840103,-160.798996,"Unalakleet",99684,"#71de56"
"AK","Chisana Airport","CZN",62.0712013245,-142.04800415,"Kennicott",99566,"#71de56"
"AK","Aniak Airport","ANI",61.581600189209,-159.542999267578,"Aniak",99557,"#71de56"
"AK","Marshall Don Hunter Sr Airport","MLL",61.8642997742,-162.026000977,"Marshall",99585,"#71de56"
"AK","Chignik Lagoon Airport","KCL",56.31119919,-158.5359955,"Chignik Lagoon",99565,"#71de56"
"AK","Shageluk Airport","SHX",62.6922988892,-159.569000244,"Shageluk",99665,"#71de56"
"AK","Port Alexander Seaplane Base","PTD",56.246799469,-134.647994995,"Port Alexander",99836,"#71de56"
"AK","Middleton Island Airport","MDO",59.4499015808,-146.307006836,"Valdez-Cordova",NA,"#71de56"
"AK","Perryville Airport","KPV",55.905998,-159.162993,"Perryville",99648,"#71de56"
"AK","Point Lay LRRS Airport","PIZ",69.73290253,-163.0050049,"Barrow",99723,"#71de56"
"AK","Umiat Airport","UMT",69.37110138,-152.1360016,"Umiat",NA,"#71de56"
"AK","White Mountain Airport","WMO",64.689201355,-163.412994385,"White Mountain",99784,"#71de56"
"AK","Sheep Mountain Airport","SMU",61.8120002747,-147.507003784,"Sutton",99674,"#71de56"
"AK","Kokhanok Airport","KNK",59.4332008362,-154.804000854,"Kokhanok",99606,"#71de56"
"AK","Ted Stevens Anchorage International Airport","ANC",61.1744003295898,-149.996002197266,"Anchorage",99502,"#71de56"
"AK","Ekwok Airport","KEK",59.3568000793457,-157.470993041992,"Ekwok",99580,"#71de56"
"AK","Hydaburg Seaplane Base","HYG",55.206298828125,-132.828002929688,"Hydaburg",99922,"#71de56"
"AK","Nightmute Airport","NME",60.471000671387,-164.70100402832,"Nightmute",99690,"#71de56"
"AK","Port Williams Seaplane Base","KPR",58.4901008606,-152.582000732,"Port William",99697,"#71de56"
"AL","Tuscaloosa Regional Airport","TCL",33.220600128174,-87.611396789551,"Tuscaloosa",35401,"#8d4b4c"
"AL","Weedon Field","EUF",31.9512996674,-85.1288986206,"Eufaula",36027,"#8d4b4c"
"AL","St Clair County Airport","PLR",33.558799743652,-86.249099731445,"Pell City",35128,"#8d4b4c"
"AL","Monroe County Aeroplex Airport","MVC",31.458,-87.350996,"Monroeville",36460,"#8d4b4c"
"AL","Talladega Municipal Airport","ASN",33.5699005127,-86.0509033203,"Eastaboga",36260,"#8d4b4c"
"AL","Hanchey Army (Fort Rucker) Heliport","HEY",31.34600067,-85.65429688,"Kelly",36322,"#8d4b4c"
"AL","Enterprise Municipal Airport","ETS",31.29969978,-85.89990234,"Enterprise",36330,"#8d4b4c"
"AL","Mobile Downtown Airport","BFM",30.6268005371,-88.0680999756,"Mobile",36615,"#8d4b4c"
"AL","Pryor Field Regional Airport","DCU",34.6526985168,-86.9453964233,"Tanner",35671,"#8d4b4c"
"AL","Northwest Alabama Regional Airport","MSL",34.74530029,-87.61019897,"Muscle Shoals",35661,"#8d4b4c"
"AL","Lowe AHP (Fort Rucker) Heliport","LOR",31.35580063,-85.75119781,"Enterprise",36330,"#8d4b4c"
"AL","Montgomery Regional (Dannelly Field) Airport","MGM",32.30059814,-86.39399719,"Montgomery",36108,"#8d4b4c"
"AL","Sharpe Field","TGE",32.4919013977,-85.7755966187,"Tuskegee",36083,"#8d4b4c"
"AL","Anniston Regional Airport","ANB",33.5882,-85.8581,"Anniston",36203,"#8d4b4c"
"AL","Auburn University Regional Airport","AUO",32.615101,-85.433998,"Auburn",36830,"#8d4b4c"
"AL","Huntsville International Carl T Jones Field","HSV",34.637199401855,-86.775100708008,"Huntsville",35824,"#8d4b4c"
"AL","Northeast Alabama Regional Airport","GAD",33.972599,-86.088996,"Gadsden",35904,"#8d4b4c"
"AL","Jack Edwards Airport","GUF",30.29050064,-87.67179871,"Gulf Shores",36542,"#8d4b4c"
"AL","Maxwell Air Force Base","MXF",32.3829,-86.365799,"Montgomery",36113,"#8d4b4c"
"AL","George Downer Airport","AIV",33.106499,-88.1978,"Aliceville",35442,"#8d4b4c"
"AL","Dothan Regional Airport","DHN",31.3213005065918,-85.4496002197266,"Dothan",36303,"#8d4b4c"
"AL","Marion County Rankin Fite Airport","HAB",34.11759949,-87.99819946,"Hamilton",35570,"#8d4b4c"
"AL","Thomas C Russell Field","ALX",32.9146995544,-85.9629974365,"Alexander City",35010,"#8d4b4c"
"AL","Naval Outlying Field Barin","NHX",30.3890991211,-87.6352996826,"Foley",36535,"#8d4b4c"
"AL","Mobile Regional Airport","MOB",30.691200256348,-88.242797851562,"Mobile",36608,"#8d4b4c"
"AL","Cairns AAF (Fort Rucker) Air Field","OZR",31.27569962,-85.71340179,"Daleville",36322,"#8d4b4c"
"AL","Birmingham-Shuttlesworth International Airport","BHM",33.56290054,-86.75350189,"Birmingham",35212,"#8d4b4c"
"AL","Troy Municipal Airport at N Kenneth Campbell Field","TOI",31.860399,-86.012101,"Troy",36081,"#8d4b4c"
"AL","Redstone Army Air Field","HUA",34.67869949,-86.68479919,"Redstone Arsenal",35809,"#8d4b4c"
"AL","Craig Field","SEM",32.343898773193,-86.987800598145,"Selma",36701,"#8d4b4c"
"AR","Bill & Hillary Clinton National Airport/Adams Field","LIT",34.7294006348,-92.2242965698,"Little Rock",72206,"#aabc00"
"AR","Marion County Regional Airport","FLP",36.29090118,-92.59030151,"Flippin",72634,"#aabc00"
"AR","Sharp County Regional Airport","CKK",36.26490021,-91.56259918,"Highland",72542,"#aabc00"
"AR","Ralph C Weiser Field","AGO",33.228001,-93.217002,"Magnolia",71753,"#aabc00"
"AR","Boone County Airport","HRO",36.2615013122559,-93.1547012329102,"Harrison",72601,"#aabc00"
"AR","Kirk Field","PGR",36.06290054,-90.50779724,"Paragould",72450,"#aabc00"
"AR","Springdale Municipal Airport","SPZ",36.176399231,-94.1193008423,"Springdale",72764,"#aabc00"
"AR","Drake Field","FYV",36.0051002502441,-94.1700973510742,"Fayetteville",72701,"#aabc00"
"AR","Thompson-Robbins Airport","HEE",34.576571,-90.67616,"West Helena",72390,"#aabc00"
"AR","Arkansas International Airport","BYH",35.9642982483,-89.9440002441,"Blytheville",72315,"#aabc00"
"AR","Memorial Field","HOT",34.4780006408691,-93.0961990356445,"Hot Springs National Park",71913,"#aabc00"
"AR","Stuttgart Municipal Airport / Carl Humphrey Field","SGT",34.599499,-91.574997,"Stuttgart",72160,"#aabc00"
"AR","Harrell Field","CDH",33.6227989197,-92.7633972168,"Camden",71701,"#aabc00"
"AR","Fort Smith Regional Airport","FSM",35.3366012573242,-94.3674011230469,"Fort Smith",72903,"#aabc00"
"AR","Rogers Municipal Airport-Carter Field","ROG",36.37229919,-94.10690308,"Rogers",72756,"#aabc00"
"AR","Forrest City Municipal Airport","FCY",34.9420013428,-90.7750015259,"Forrest City",72335,"#aabc00"
"AR","Northwest Arkansas Regional Airport","XNA",36.281898,-94.306801,"Bentonville",72712,"#aabc00"
"AR","Pine Bluff Regional Airport, Grider Field","PBF",34.1731,-91.9356,"Pine Bluff",71601,"#aabc00"
"AR","Blytheville Municipal Airport","HKA",35.9403991699,-89.8308029175,"Blytheville",72315,"#aabc00"
"AR","Manila Municipal Airport","MXA",35.894402,-90.154602,"Manila",72442,"#aabc00"
"AR","Z M Jack Stell Field","CRT",33.1782989502,-91.8802032471,"Hamburg",71646,"#aabc00"
"AR","Petit Jean Park Airport","MPJ",35.138901,-92.909202,"Morrilton",72110,"#aabc00"
"AR","Little Rock Air Force Base","LRF",34.9169006348,-92.1496963501,"Jacksonville",72076,"#aabc00"
"AR","Batesville Regional Airport","BVX",35.7262001,-91.64730072,"Batesville",72501,"#aabc00"
"AR","South Arkansas Regional At Goodwin Field","ELD",33.2210006713867,-92.8133010864258,"El Dorado",71730,"#aabc00"
"AR","Jonesboro Municipal Airport","JBR",35.8316993713379,-90.6464004516602,"Jonesboro",72401,"#aabc00"
"AR","Texarkana Regional Webb Field","TXK",33.4537010192871,-93.9909973144531,"Texarkana",71854,"#aabc00"
"AR","Smith Field","SLG",36.19189835,-94.48999786,"Siloam Springs",72761,"#aabc00"
"AR","Walnut Ridge Regional Airport","ARG",36.124667,-90.925111,"Walnut Ridge",72476,"#aabc00"
"AR","West Memphis Municipal Airport","AWM",35.1351013184,-90.2343978882,"West Memphis",72301,"#aabc00"
"AR","Ozark Regional Airport","WMH",36.3689002991,-92.4704971313,"Midway",72651,"#aabc00"
"AZ","Yuma MCAS/Yuma International Airport","YUM",32.65660095,-114.6060028,"Yuma",85365,"#803dc3"
"AZ","Safford Regional Airport","SAD",32.85480118,-109.6350021,"Safford",85546,"#803dc3"
"AZ","Laughlin Bullhead International Airport","IFP",35.15739822,-114.5599976,"Bullhead City",86429,"#803dc3"
"AZ","Kingman Airport","IGM",35.2594985961914,-113.938003540039,"Kingman",86401,"#803dc3"
"AZ","Taylor Airport","TYZ",34.45280075,-110.1149979,"Taylor",85939,"#803dc3"
"AZ","Grand Canyon West Airport","GCW",35.990398407,-113.816001892,"Meadview",86444,"#803dc3"
"AZ","Lake Havasu City Airport","HII",34.571098,-114.358002,"Lake Havasu City",86404,"#803dc3"
"AZ","Flagstaff Pulliam Airport","FLG",35.13850021,-111.6709976,"Flagstaff",86001,"#803dc3"
"AZ","Phoenix-Mesa-Gateway Airport","AZA",33.30780029,-111.6549988,"Mesa",85212,"#803dc3"
"AZ","Marana Regional Airport","AVW",32.4095993042,-111.218002319,"Marana",85653,"#803dc3"
"AZ","Payson Airport","PJB",34.256801605225,-111.33899688721,"Payson",85541,"#803dc3"
"AZ","Phoenix Deer Valley Airport","DVT",33.6883010864,-112.083000183,"Phoenix",85027,"#803dc3"
"AZ","Bagdad Airport","BGT",34.5959014893,-113.169998169,"Bagdad",86321,"#803dc3"
"AZ","Nogales International Airport","OLS",31.4177,-110.848,"Nogales",85621,"#803dc3"
"AZ","Pinal Airpark","MZJ",32.5106010437,-111.32800293,"Red Rock",85145,"#803dc3"
"AZ","Kayenta Airport","MVM",36.716444,-110.228444,"Kayenta",86033,"#803dc3"
"AZ","Sierra Vista Municipal Libby Army Air Field","FHU",31.5884990692139,-110.34400177002,"Fort Huachuca",85613,"#803dc3"
"AZ","Bisbee Douglas International Airport","DUG",31.4689998627,-109.603996277,"Douglas",85607,"#803dc3"
"AZ","St Johns Industrial Air Park","SJN",34.51860046,-109.3789978,"Saint Johns",85936,"#803dc3"
"AZ","Douglas Municipal Airport","DGL",31.3425998688,-109.505996704,"Douglas",85607,"#803dc3"
"AZ","Prescott Regional Airport - Ernest A. Love Field","PRC",34.654499,-112.419998,"Prescott",86301,"#803dc3"
"AZ","Whiteriver Airport","WTR",33.8125,-109.9869995,"Whiteriver",85941,"#803dc3"
"AZ","Falcon Field","MSC",33.4608001709,-111.727996826,"Mesa",85215,"#803dc3"
"AZ","Tuba City Airport","TBC",36.0928001404,-111.383003235,"Moenave",86045,"#803dc3"
"AZ","Davis Monthan Air Force Base","DMA",32.1665000916,-110.883003235,"Tucson",85707,"#803dc3"
"AZ","Phoenix Goodyear Airport","GYR",33.4225006104,-112.375999451,"Goodyear",85338,"#803dc3"
"AZ","Show Low Regional Airport","SOW",34.265499115,-110.005996704,"Show Low",85901,"#803dc3"
"AZ","Laguna Army Airfield","LGF",32.86000061,-114.3970032,"Laguna",85369,"#803dc3"
"AZ","Cochise County Airport","CWX",32.24539948,-109.8949966,"Willcox",85643,"#803dc3"
"AZ","Phoenix Sky Harbor International Airport","PHX",33.4342994689941,-112.012001037598,"Phoenix",85034,"#803dc3"
"AZ","Grand Canyon National Park Airport","GCN",35.9524002075195,-112.147003173828,"Grand Canyon",86023,"#803dc3"
"AZ","Holbrook Municipal Airport","HBK",34.940700531,-110.138000488,"Holbrook",86025,"#803dc3"
"AZ","Casa Grande Municipal Airport","CGZ",32.954899,-111.766998,"Casa Grande",85222,"#803dc3"
"AZ","Tucson International Airport","TUS",32.1161003112793,-110.94100189209,"Tucson",85706,"#803dc3"
"AZ","Sedona Airport","SDX",34.848598480225,-111.78800201416,"Sedona",86336,"#803dc3"
"AZ","Winslow Lindbergh Regional Airport","INW",35.021900177,-110.722999573,"Winslow",86047,"#803dc3"
"AZ","Lava Falls Heliport","HAE",36.1916007996,-113.092002869,"Supai",86435,"#803dc3"
"AZ","Page Municipal Airport","PGA",36.92610168,-111.447998,"Page",86040,"#803dc3"
"AZ","Greenlee County Airport","CFT",32.95280075,-109.2099991,"Guthrie",85533,"#803dc3"
"AZ","Luke Air Force Base","LUF",33.5349998474,-112.383003235,"Luke Afb",85309,"#803dc3"
"AZ","Valle Airport","VLE",35.65060043335,-112.14800262451,"Williams",86046,"#803dc3"
"AZ","Scottsdale Airport","SCF",33.622898101807,-111.91100311279,"Scottsdale",85260,"#803dc3"
"AZ","Bisbee Municipal Airport","BSQ",31.3640003204,-109.883003235,"Bisbee",85603,"#803dc3"
"AZ","Buckeye Municipal Airport","BXK",33.42039871,-112.685997,"Buckeye",85326,"#803dc3"
"AZ","Grand Canyon Bar Ten Airstrip","GCT",36.259701,-113.231003,"Supai",86435,"#803dc3"
"AZ","San Carlos Apache Airport","GLB",33.353099823,-110.666999817,"Little Acres",85501,"#803dc3"
"AZ","Polacca Airport","PXL",35.7916984558,-110.422996521,"Walpi",86042,"#803dc3"
"CA","Riverside Municipal Airport","RAL",33.95190048,-117.4449997,"Riverside",92504,"#c479ff"
"CA","Coalinga Airport","CLG",36.1580433385,-120.360116959,"Coalinga",93210,"#c479ff"
"CA","Century City Heliport","CCD",34.060798645,-118.417999268,"Los Angeles",90067,"#c479ff"
"CA","Fort Bragg Airport","FOB",39.4743003845,-123.79599762,"Fort Bragg",95437,"#c479ff"
"CA","Cable Airport","CCB",34.1115989685,-117.68800354,"Upland",91786,"#c479ff"
"CA","Susanville Municipal Airport","SVE",40.375701904297,-120.57299804688,"Susanville",96130,"#c479ff"
"CA","Van Nuys Airport","VNY",34.209800720215,-118.48999786377,"Van Nuys",91406,"#c479ff"
"CA","Blue Canyon Nyack Airport","BLU",39.2750015259,-120.709999084,"Emigrant Gap",95715,"#c479ff"
"CA","Beale Air Force Base","BAB",39.136100769,-121.43699646,"Marysville",95901,"#c479ff"
"CA","Mc Clellan-Palomar Airport","CLD",33.12829971,-117.2799988,"Carlsbad",92011,"#c479ff"
"CA","Oceanside Municipal Airport","OCN",33.217300415039,-117.35399627686,"Oceanside",92058,"#c479ff"
"CA","Hollister Municipal Airport","HLI",36.8932991028,-121.410003662,"Hollister",95023,"#c479ff"
"CA","Madera Municipal Airport","MAE",36.9886016846,-120.111999512,"Madera",93637,"#c479ff"
"CA","Compton Woodley Airport","CPM",33.8899993896,-118.244003296,"Compton",90220,"#c479ff"
"CA","Montague-Yreka Rohrer Field","ROF",41.7304000854,-122.54599762,"Montague",96064,"#c479ff"
"CA","Alameda Naval Air Station","NGZ",37.7888984680176,-122.319999694824,"Oakland",94625,"#c479ff"
"CA","Murray Field","EKA",40.8033981323,-124.112998962,"Eureka",95501,"#c479ff"
"CA","Cliff Hatfield Memorial Airport","CLR",33.1315002441,-115.521003723,"Calipatria",92233,"#c479ff"
"CA","Benton Field","BZF",40.5749015808,-122.407997131,"Redding",96001,"#c479ff"
"CA","Moffett Federal Airfield","NUQ",37.4161,-122.049004,"Mountain View",94043,"#c479ff"
"CA","Oxnard Airport","OXR",34.200801849365,-119.20700073242,"Oxnard",93030,"#c479ff"
"CA","Catalina Airport","AVX",33.4049,-118.416,"Avalon",90704,"#c479ff"
"CA","Red Bluff Municipal Airport","RBL",40.1506996155,-122.251998901,"Red Bluff",96080,"#c479ff"
"CA","Lompoc Airport","LPC",34.665599823,-120.468002319,"Lompoc",93436,"#c479ff"
"CA","Santa Paula Airport","SZP",34.34719849,-119.060997,"Santa Paula",93060,"#c479ff"
"CA","Eastern Sierra Regional Airport","BIH",37.3731002808,-118.363998413,"Bishop",93514,"#c479ff"
"CA","Los Angeles International Airport","LAX",33.94250107,-118.4079971,"Los Angeles",90045,"#c479ff"
"CA","California Redwood Coast-Humboldt County Airport","ACV",40.978101,-124.109,"McKinleyville",95519,"#c479ff"
"CA","Big Bear City Airport","RBF",34.2638015747,-116.856002808,"Big Bear City",92314,"#c479ff"
"CA","Santa Cruz Island Airport","SZN",34.0606002808,-119.915000916,"Carpinteria",93014,"#c479ff"
"CA","Placerville Airport","PVF",38.724201202393,-120.75299835205,"Placerville",95667,"#c479ff"
"CA","San Luis County Regional Airport","SBP",35.2368011475,-120.641998291,"San Luis Obispo",93401,"#c479ff"
"CA","Apple Valley Airport","APV",34.5752983093,-117.185997009,"Apple Valley",92307,"#c479ff"
"CA","Fresno Yosemite International Airport","FAT",36.7761993408203,-119.718002319336,"Fresno",93727,"#c479ff"
"CA","Amedee Army Air Field","AHC",40.26620102,-120.1529999,"Herlong",96113,"#c479ff"
"CA","Tusi AHP (Hunter Liggett) Heliport","HGT",35.99349976,-121.2369995,"Jolon",93928,"#c479ff"
"CA","Dunsmuir Muni-Mott Airport","MHS",41.263199,-122.272003,"Dunsmuir",96025,"#c479ff"
"CA","Columbia Airport","COA",38.0303993225,-120.415000916,"Columbia",95310,"#c479ff"
"CA","Paso Robles Municipal Airport","PRB",35.67290115,-120.6269989,"Paso Robles",93446,"#c479ff"
"CA","Twentynine Palms Airport","TNP",34.13159943,-115.9459991,"Twentynine Palms",92277,"#c479ff"
"CA","Needles Airport","EED",34.7663002014,-114.623001099,"Needles",92363,"#c479ff"
"CA","Metropolitan Oakland International Airport","OAK",37.721298,-122.221001,"Oakland",94621,"#c479ff"
"CA","Quartz Hill Airport","RZH",34.65,-118.206,"Lancaster",93536,"#c479ff"
"CA","Shafter Airport - Minter Field","MIT",35.507401,-119.192002,"Shafter",93263,"#c479ff"
"CA","Sacramento International Airport","SMF",38.6954002380371,-121.591003417969,"Sacramento",95837,"#c479ff"
"CA","Blythe Airport","BLH",33.6192016602,-114.717002869,"Blythe",92225,"#c479ff"
"CA","Jacqueline Cochran Regional Airport","TRM",33.62670135498,-116.16000366211,"Thermal",92274,"#c479ff"
"CA","Lampson Field","CKE",38.9906005859,-122.901000977,"Lakeport",95453,"#c479ff"
"CA","Sacramento Executive Airport","SAC",38.5125007629,-121.492996216,"Sacramento",95822,"#c479ff"
"CA","Oroville Municipal Airport","OVE",39.487800598145,-121.62200164795,"Oroville",95965,"#c479ff"
"CA","Sacramento Mather Airport","MHR",38.55390167,-121.2979965,"Mather",95655,"#c479ff"
"CA","Auburn Municipal Airport","AUN",38.95479965,-121.0820007,"Auburn",95602,"#c479ff"
"CA","Porterville Municipal Airport","PTV",36.029598236084,-119.06300354004,"Porterville",93257,"#c479ff"
"CA","Zamperini Field","TOA",33.803398132324,-118.33999633789,"Torrance",90505,"#c479ff"
"CA","Furnace Creek Airport","DTH",36.463799,-116.880997,"Death Valley",92328,"#c479ff"
"CA","Calexico International Airport","CXL",32.6694984436,-115.513000488,"Calexico",92231,"#c479ff"
"CA","NASA Crows Landing Airport","NRC",37.408000946045,-121.10900115967,"Patterson",95363,"#c479ff"
"CA","Roberts Army Heliport","SYL",35.8149986267,-120.744003296,"Paso Robles",93447,"#c479ff"
"CA","Carmel Valley","O62",36.4814843441,-121.72911644,"Carmel Valley",93924,"#c479ff"
"CA","Santa Ynez Airport","SQA",34.60680008,-120.0759964,"Santa Ynez",93460,"#c479ff"
"CA","Castle Airport","MER",37.38050079,-120.5680008,"Atwater",95301,"#c479ff"
"CA","Palm Springs International Airport","PSP",33.8297004699707,-116.50700378418,"Palm Springs",92262,"#c479ff"
"CA","John Wayne Airport-Orange County Airport","SNA",33.67570114,-117.8679962,"Santa Ana",92707,"#c479ff"
"CA","Modesto City Co-Harry Sham Field","MOD",37.62580109,-120.9540024,"Modesto",95354,"#c479ff"
"CA","New Coalinga Municipal Airport","CLG",36.1631011962891,-120.293998718262,"Coalinga",93210,"#c479ff"
"CA","Watsonville Municipal Airport","WVI",36.9356994629,-121.790000916,"Watsonville",95076,"#c479ff"
"CA","Nervino Airport","NVN",39.8185005188,-120.352996826,"Beckwourth",96129,"#c479ff"
"CA","Lake Tahoe Airport","TVL",38.8939018249512,-119.995002746582,"South Lake Tahoe",96150,"#c479ff"
"CA","Truckee Tahoe Airport","TKF",39.3199996948,-120.13999939,"Truckee",96161,"#c479ff"
"CA","Santa Barbara Municipal Airport","SBA",34.42620087,-119.8399963,"Goleta",93117,"#c479ff"
"CA","Visalia Municipal Airport","VIS",36.3186988831,-119.392997742,"Visalia",93291,"#c479ff"
"CA","Yuba County Airport","MYV",39.09780121,-121.5699997,"Olivehurst",95961,"#c479ff"
"CA","Kneeland Airport","NLN",40.719299316406,-123.92800140381,"Kneeland",95549,"#c479ff"
"CA","Palo Alto Airport of Santa Clara County","PAO",37.461101532,-122.114997864,"Palo Alto",94303,"#c479ff"
"CA","Hemet Ryan Airport","HMT",33.7340011597,-117.023002625,"Hemet",92545,"#c479ff"
"CA","Willows Glenn County Airport","WLW",39.51639938,-122.2180023,"Willows",95988,"#c479ff"
"CA","Hughes Airport","CVR",33.975,-118.417,"Los Angeles",90094,"#c479ff"
"CA","Buchanan Field","CCR",37.9897003174,-122.056999207,"Concord",94520,"#c479ff"
"CA","Corcoran Airport","CRO",36.102502,-119.595001,"Corcoran",93212,"#c479ff"
"CA","Monterey Peninsula Airport","MRY",36.5870018005371,-121.843002319336,"Monterey",93940,"#c479ff"
"CA","Brown Field Municipal Airport","SDM",32.572299957275,-116.98000335693,"San Ysidro",92173,"#c479ff"
"CA","Chico Municipal Airport","CIC",39.79539871,-121.8580017,"Chico",95973,"#c479ff"
"CA","Sharpe AAF","LRO",37.8379166667,-121.272805556,"Lathrop",95330,"#c479ff"
"CA","Berkley Municipal Heliport","JBK",37.8666,-122.3065,"Berkeley",94710,"#c479ff"
"CA","Merced Regional Macready Field","MCE",37.28469849,-120.5139999,"Merced",95340,"#c479ff"
"CA","Barstow Daggett Airport","DAG",34.85369873,-116.7870026,"Newberry Springs",92365,"#c479ff"
"CA","Marina Municipal Airport","OAR",36.68190002,-121.762001,"Marina",93933,"#c479ff"
"CA","Point Mugu Naval Air Station (Naval Base Ventura Co)","NTD",34.120300293,-119.121002197,"Oxnard",93033,"#c479ff"
"CA","Jack Mc Namara Field Airport","CEC",41.78020096,-124.2369995,"Crescent City",95531,"#c479ff"
"CA","San Gabriel Valley Airport","EMT",34.086102,-118.035004,"El Monte",91731,"#c479ff"
"CA","San Francisco International Airport","SFO",37.6189994812012,-122.375,"South San Francisco",94080,"#c479ff"
"CA","Santa Cruz Sky Park","SRU",37.0503,-122.0315,"Scotts Valley",95066,"#c479ff"
"CA","Imperial County Airport","IPL",32.8342018127,-115.57900238,"Imperial",92251,"#c479ff"
"CA","Borrego Valley Airport","BXS",33.2589988708,-116.320999146,"Borrego Springs",92004,"#c479ff"
"CA","Gansner Field","GNF",39.943902,-120.945,"Quincy",95971,"#c479ff"
"CA","March ARB Airport","RIV",33.880699,-117.259003,"March Air Force Base",92518,"#c479ff"
"CA","General WM J Fox Airfield","WJF",34.74110031,-118.2190018,"Lancaster",93536,"#c479ff"
"CA","Tehachapi Municipal Airport","TSP",35.134998321533,-118.43900299072,"Tehachapi",93561,"#c479ff"
"CA","Redding Municipal Airport","RDD",40.50899887,-122.2929993,"Redding",96002,"#c479ff"
"CA","Meadows Field","BFL",35.43360138,-119.0569992,"Bakersfield",93308,"#c479ff"
"CA","Montgomery-Gibbs Executive Airport","MYF",32.8157,-117.139999,"San Diego",92123,"#c479ff"
"CA","Palmdale Regional/USAF Plant 42 Airport","PMD",34.62939835,-118.0849991,"Palmdale",93550,"#c479ff"
"CA","Salton Sea Airport","SAS",33.2414016724,-115.952003479,"Salton City",92275,"#c479ff"
"CA","Vandenberg Air Force Base","VBG",34.7373008728,-120.583999634,"Tangair",93437,"#c479ff"
"CA","Ontario International Airport","ONT",34.0559997558594,-117.600997924805,"Ontario",91761,"#c479ff"
"CA","Napa County Airport","APC",38.2132,-122.280998,"Napa",94558,"#c479ff"
"CA","Southern California Logistics Airport","VCV",34.5974998474,-117.383003235,"Victorville",92394,"#c479ff"
"CA","Mariposa Yosemite Airport","RMY",37.5108985901,-120.040000916,"Mariposa",95338,"#c479ff"
"CA","San Bernardino International Airport","SBD",34.0954017639,-117.23500061,"San Bernardino",92408,"#c479ff"
"CA","Inyokern Airport","IYK",35.65879822,-117.8300018,"Inyokern",93527,"#c479ff"
"CA","Half Moon Bay Airport","HAF",37.5134010315,-122.500999451,"Moss Beach",94038,"#c479ff"
"CA","Mammoth Yosemite Airport","MMH",37.62409973,-118.8379974,"Mammoth Lakes",93546,"#c479ff"
"CA","Two Harbors Amphibious Terminal","TWH",33.4322222222,-118.508611111,"Avalon",90704,"#c479ff"
"CA","Trona Airport","TRH",35.8125,-117.327003479,"Trona",93562,"#c479ff"
"CA","Bicycle Lake Army Air Field","BYS",35.2804985046,-116.629997253,"Fort Irwin",92310,"#c479ff"
"CA","Chino Airport","CNO",33.97470093,-117.637001,"Chino",91708,"#c479ff"
"CA","Mefford Field","TLR",36.15629959,-119.3259964,"Tulare",93274,"#c479ff"
"CA","Charles M. Schulz Sonoma County Airport","STS",38.50899887,-122.8130035,"Windsor",95492,"#c479ff"
"CA","El Centro NAF Airport (Vraciu Field)","NJK",32.829201,-115.671996,"El Centro",92243,"#c479ff"
"CA","Mojave Airport","MHV",35.05939865,-118.1520004,"Mojave",93501,"#c479ff"
"CA","Salinas Municipal Airport","SNS",36.662799835205,-121.60600280762,"Salinas",93905,"#c479ff"
"CA","Gillespie Field","SEE",32.826198577881,-116.97200012207,"Santee",92071,"#c479ff"
"CA","Marin County Airport - Gnoss Field","NOT",38.143600463867,-122.55599975586,"Novato",94945,"#c479ff"
"CA","Travis Air Force Base","SUU",38.262699127197,-121.92700195312,"Travis Afb",94535,"#c479ff"
"CA","Brackett Field","POC",34.091598510742,-117.78199768066,"La Verne",91750,"#c479ff"
"CA","Whiteman Airport","WHP",34.2593002319,-118.413002014,"Pacoima",91331,"#c479ff"
"CA","Hamilton Field","SRF",38.06,-122.51,"Novato",94949,"#c479ff"
"CA","Long Beach /Daugherty Field/ Airport","LGB",33.81769943,-118.1520004,"Long Beach",90846,"#c479ff"
"CA","Naval Outlying Field Imperial Beach (Ream Field)","NRS",32.56669998,-117.1169968,"Imperial Beach",91932,"#c479ff"
"CA","Catalina Air-Sea Terminal Heliport","SPQ",33.7491989136,-118.275001526,"San Pedro",90731,"#c479ff"
"CA","Livermore Municipal Airport","LVK",37.6934013367,-121.819999695,"Livermore",94550,"#c479ff"
"CA","Banning Municipal Airport","BNG",33.9230995178,-116.850997925,"Banning",92220,"#c479ff"
"CA","Lemoore Naval Air Station (Reeves Field) Airport","NLC",36.33300018,-119.9520035,"Lemoore Naval Air Station",93245,"#c479ff"
"CA","North Island Naval Air Station-Halsey Field","NZY",32.69919968,-117.2149963,"San Diego",92135,"#c479ff"
"CA","Mc Clellan Airfield","MCC",38.66759872,-121.401001,"McClellan Afb",95652,"#c479ff"
"CA","Ukiah Municipal Airport","UKI",39.125999450684,-123.20099639893,"Ukiah",95482,"#c479ff"
"CA","Hayward Executive Airport","HWD",37.659198761,-122.122001648,"Hayward",94545,"#c479ff"
"CA","Bermuda Dunes Airport","UDD",33.748401641846,-116.27500152588,"Indio",92203,"#c479ff"
"CA","Stockton Metropolitan Airport","SCK",37.894199371338,-121.2379989624,"Stockton",95206,"#c479ff"
"CA","Fullerton Municipal Airport","FUL",33.8720016479,-117.980003357,"Fullerton",92833,"#c479ff"
"CA","Brawley Municipal Airport","BWC",32.99290085,-115.5169983,"Brawley",92227,"#c479ff"
"CA","San Fernando Airport","SFR",34.289,-118.422,"San Fernando",91340,"#c479ff"
"CA","Jack Northrop Field Hawthorne Municipal Airport","HHR",33.922798,-118.334999,"Hawthorne",90250,"#c479ff"
"CA","Mesa Del Rey Airport","KIC",36.2280006409,-121.122001648,"King City",93930,"#c479ff"
"CA","Edwards Air Force Base","EDW",34.905399,-117.884003,"Edwards",93524,"#c479ff"
"CA","Oakdale Airport","ODC",37.75630188,-120.8000031,"Oakdale",95361,"#c479ff"
"CA","Los Banos Municipal Airport","LSN",37.06290054,-120.8690033,"Los Banos",93635,"#c479ff"
"CA","Norman Y. Mineta San Jose International Airport","SJC",37.362598,-121.929001,"San Jose",95110,"#c479ff"
"CA","Reid-Hillview Airport of Santa Clara County","RHV",37.332901001,-121.819000244,"San Jose",95122,"#c479ff"
"CA","Bob Hope Airport","BUR",34.2006988525391,-118.359001159668,"Sun Valley",91352,"#c479ff"
"CA","French Valley Airport","RBK",33.5741996765,-117.127998352,"Murrieta",92563,"#c479ff"
"CA","San Carlos Airport","SQL",37.511901855469,-122.25,"Belmont",94002,"#c479ff"
"CA","Santa Maria Pub/Capt G Allan Hancock Field","SMX",34.89889908,-120.4570007,"Santa Maria",93455,"#c479ff"
"CA","Santa Monica Municipal Airport","SMO",34.0158,-118.450996,"Santa Monica",90405,"#c479ff"
"CA","Fresno Chandler Executive Airport","FCH",36.73239899,-119.8199997,"Fresno",93706,"#c479ff"
"CA","San Diego International Airport","SAN",32.7336006165,-117.190002441,"San Diego",92101,"#c479ff"
"CA","Miramar Marine Corps Air Station - Mitscher Field","NKX",32.86840057,-117.1429977,"San Diego",92137,"#c479ff"
"CO","Rocky Mountain Metropolitan Airport","BJC",39.90879822,-105.1169968,"Broomfield",80021,"#7fac00"
"CO","Lamar Municipal Airport","LAA",38.0696983337,-102.68800354,"Lamar",81052,"#7fac00"
"CO","Eagle County Regional Airport","EGE",39.64260101,-106.9179993,"Gypsum",81637,"#7fac00"
"CO","City of Colorado Springs Municipal Airport","COS",38.805801,-104.700996,"Colorado Springs",80916,"#7fac00"
"CO","Animas Air Park","AMK",37.2032012939,-107.869003296,"Durango",81303,"#7fac00"
"CO","Yampa Valley Airport","HDN",40.48120117,-107.2180023,"Hayden",81639,"#7fac00"
"CO","Sterling Municipal Airport","STK",40.61529922,-103.2649994,"Sterling",80751,"#7fac00"
"CO","GreeleyWeld County Airport","GXY",40.4374008179,-104.633003235,"Greeley",80631,"#7fac00"
"CO","Stevens Field","PGO",37.28630066,-107.0559998,"Pagosa Springs",81147,"#7fac00"
"CO","Glenwood Springs Municipal Airport","GWS",39.5083007812,-107.310997009,"Glenwood Springs",81601,"#7fac00"
"CO","Fremont County Airport","CNE",38.4280014038,-105.106002808,"Penrose",81240,"#7fac00"
"CO","Perry Stokes Airport","TAD",37.2593994141,-104.341003418,"Trinidad",81082,"#7fac00"
"CO","Northern Colorado Regional Airport","FNL",40.451804,-105.011,"Loveland",80538,"#7fac00"
"CO","North Fork Valley Airport","WPO",38.8316993713,-107.646003723,"Paonia",81428,"#7fac00"
"CO","Steamboat Springs Bob Adams Field","SBS",40.5163002,-106.8659973,"Steamboat Springs",80487,"#7fac00"
"CO","Harriet Alexander Field","SLT",38.538299560547,-106.04900360107,"Salida",81201,"#7fac00"
"CO","Limon Municipal Airport","LIC",39.2747993469,-103.666000366,"Limon",80828,"#7fac00"
"CO","Baca Grande Airfield","BCJ",37.9647777778,-105.776666667,"Crestone",81131,"#7fac00"
"CO","Centennial Airport","APA",39.57009888,-104.848999,"Englewood",80112,"#7fac00"
"CO","Boulder Municipal Airport","WBU",40.0393981934,-105.225997925,"Boulder",80301,"#7fac00"
"CO","Garfield County Regional Airport","RIL",39.526299,-107.726997,"Silt",81652,"#7fac00"
"CO","San Luis Valley Regional Bergman Field","ALS",37.434898,-105.866997,"Alamosa",81101,"#7fac00"
"CO","Grand Junction Regional Airport","GJT",39.1223983765,-108.527000427,"Grand Junction",81506,"#7fac00"
"CO","Telluride Regional Airport","TEX",37.9538002,-107.9079971,"Telluride",81435,"#7fac00"
"CO","Colorado Plains Regional Airport","AKO",40.1755981445,-103.222000122,"Akron",80720,"#7fac00"
"CO","Butts AAF (Fort Carson) Air Field","FCS",38.67839813,-104.7570038,"Colorado Springs",80902,"#7fac00"
"CO","Denver International Airport","DEN",39.861698150635,-104.672996521,"Denver",80249,"#7fac00"
"CO","Crested Butte Airpark","CSE",38.851918,-106.928341,"Crested Butte",81224,"#7fac00"
"CO","Lake County Airport","LXV",39.2202987671,-106.317001343,"Leadville",80461,"#7fac00"
"CO","Craig Moffat Airport","CIG",40.4952011108,-107.522003174,"Craig",81625,"#7fac00"
"CO","Pueblo Memorial Airport","PUB",38.2891006469727,-104.497001647949,"Pueblo",81001,"#7fac00"
"CO","Montrose Regional Airport","MTJ",38.5097999573,-107.893997192,"Montrose",81401,"#7fac00"
"CO","Cortez Municipal Airport","CEZ",37.3030014038,-108.627998352,"Cortez",81321,"#7fac00"
"CO","Gunnison Crested Butte Regional Airport","GUC",38.53390121,-106.9329987,"Gunnison",81230,"#7fac00"
"CO","Aspen-Pitkin Co/Sardy Field","ASE",39.22320175,-106.8690033,"Aspen",81611,"#7fac00"
"CO","Durango La Plata County Airport","DRO",37.1515007019,-107.753997803,"Durango",81303,"#7fac00"
"CO","USAF Academy Airfield","AFF",38.96969986,-104.8130035,"Colorado Springs",80920,"#7fac00"
"CO","Buckley Air Force Base","BFK",39.7016983032,-104.751998901,"Aurora",80017,"#7fac00"
"CT","Groton New London Airport","GON",41.3301010131836,-72.0450973510742,"Groton",6340,"#5f3fa3"
"CT","Griswold Airport","MPE",41.2711982727,-72.549697876,"Madison",6443,"#5f3fa3"
"CT","Bradley International Airport","BDL",41.9388999939,-72.6831970215,"Windsor Locks",6096,"#5f3fa3"
"CT","Igor I Sikorsky Memorial Airport","BDR",41.163501739502,-73.1261978149414,"Stratford",6615,"#5f3fa3"
"CT","Waterbury Oxford Airport","OXC",41.47859954834,-73.135200500488,"Oxford",6478,"#5f3fa3"
"CT","Hartford Brainard Airport","HFD",41.736698150635,-72.649398803711,"Hartford",6114,"#5f3fa3"
"CT","Tweed New Haven Airport","HVN",41.26369858,-72.88680267,"East Haven",6512,"#5f3fa3"
"CT","Danbury Municipal Airport","DXR",41.3714981079,-73.4822006226,"Danbury",6810,"#5f3fa3"
"CT","Rentschler Heliport","EHT",41.7517,-72.6253,"East Hartford",6118,"#5f3fa3"
"DC","Buzzards Point Seaplane Base","BZS",38.863,-77.011,"Washington",20024,"#976e00"
"DC","Bolling Air Force Base","BOF",38.8428993225,-77.0160980225,"Washington",20032,"#976e00"
"DE","New Castle Airport","ILG",39.67869949,-75.60649872,"New Castle",19720,"#acd44a"
"DE","Rehoboth Airport","REH",38.72,-75.122,"Rehoboth Beach",19971,"#acd44a"
"DE","Sussex County Airport","GED",38.68920135,-75.35890198,"Georgetown",19947,"#acd44a"
"DE","Dover Air Force Base","DOV",39.12950134,-75.46600342,"Dover",19901,"#acd44a"
"FL","Ocean Reef Club Airport","OCA",25.325399398804,-80.274803161621,"Key Largo",33037,"#ad007d"
"FL","Perry-Foley Airport","FPY",30.0692997,-83.58059692,"Perry",32348,"#ad007d"
"FL","Naval Air Station Key West/Boca Chica Field","NQX",24.57579994,-81.68890381,"Key West",33040,"#ad007d"
"FL","Northeast Florida Regional Airport","UST",29.9592,-81.339798,"Saint Augustine",32095,"#ad007d"
"FL","Fort Lauderdale Executive Airport","FXE",26.1972999573,-80.1707000732,"Fort Lauderdale",33309,"#ad007d"
"FL","Tyndall Air Force Base","PAM",30.0695991516,-85.5754013062,"Panama City",32403,"#ad007d"
"FL","Naval Station Mayport (Admiral David L. Mcdonald Field)","NRB",30.39109993,-81.42469788,"Atlantic Beach",32233,"#ad007d"
"FL","Lakeland Linder International Airport","LAL",27.988899,-82.018602,"Lakeland",33811,"#ad007d"
"FL","Patrick Air Force Base","COF",28.2348995209,-80.6100997925,"Patrick Afb",32925,"#ad007d"
"FL","Merritt Island Airport","COI",28.3416004181,-80.6855010986,"Merritt Island",32952,"#ad007d"
"FL","Northwest Florida Beaches International Airport","ECP",30.357106,-85.795414,"Panama City Beach",32413,"#ad007d"
"FL","Pensacola Naval Air Station/Forrest Sherman Field","NPA",30.35269928,-87.31860352,"Pensacola",32508,"#ad007d"
"FL","Miami International Airport","MIA",25.7931995391846,-80.2906036376953,"Miami",33126,"#ad007d"
"FL","Zephyrhills Municipal Airport","ZPH",28.2282009125,-82.1558990479,"Zephyrhills",33542,"#ad007d"
"FL","Gainesville Regional Airport","GNV",29.6900997162,-82.2717971802,"Gainesville",32609,"#ad007d"
"FL","Daytona Beach International Airport","DAB",29.179899,-81.058098,"Daytona Beach",32114,"#ad007d"
"FL","Orlando Executive Airport","ORL",28.5455,-81.332901,"Orlando",32803,"#ad007d"
"FL","Whiting Field Naval Air Station - North","NSE",30.7241993,-87.02189636,"Milton",32570,"#ad007d"
"FL","Okeechobee County Airport","OBE",27.2628002167,-80.8498001099,"Okeechobee",34972,"#ad007d"
"FL","Ocala International Airport - Jim Taylor Field","OCF",29.17259979,-82.22419739,"Ocala",34474,"#ad007d"
"FL","Space Coast Regional Airport","TIX",28.514799118042,-80.799201965332,"Titusville",32780,"#ad007d"
"FL","Jacksonville Executive at Craig Airport","CRG",30.3362998962,-81.5143966675,"Jacksonville",32225,"#ad007d"
"FL","Tallahassee Regional Airport","TLH",30.3964996337891,-84.3503036499023,"Tallahassee",32310,"#ad007d"
"FL","Lake City Gateway Airport","LCQ",30.1819992065,-82.5768966675,"Lake City",32025,"#ad007d"
"FL","Homestead ARB Airport","HST",25.48859978,-80.38359833,"Homestead",33033,"#ad007d"
"FL","Peter O Knight Airport","TPF",27.915599822998,-82.44930267334,"Tampa",33606,"#ad007d"
"FL","Sarasota Bradenton International Airport","SRQ",27.3953990936279,-82.5543975830078,"Sarasota",34243,"#ad007d"
"FL","Leesburg International Airport","LEE",28.82309914,-81.80870056,"Leesburg",34788,"#ad007d"
"FL","Dade Collier Training and Transition Airport","TNT",25.861799240112,-80.897003173828,"Ochopee",34141,"#ad007d"
"FL","Immokalee Regional Airport","IMM",26.43320084,-81.40100098,"Immokalee",34142,"#ad007d"
"FL","Tampa North Aero Park Airport","KYO",28.2213001251,-82.37449646,"Wesley Chapel",33559,"#ad007d"
"FL","Sebring Regional Airport","SEF",27.45639992,-81.3423996,"Sebring",33870,"#ad007d"
"FL","St Petersburg Clearwater International Airport","PIE",27.91020012,-82.68740082,"Clearwater",33762,"#ad007d"
"FL","Apalachicola Regional Airport","AAF",29.72750092,-85.02749634,"Apalachicola",32320,"#ad007d"
"FL","Cross City Airport","CTY",29.6354999542,-83.1047973633,"Cross City",32628,"#ad007d"
"FL","Marco Island Executive Airport","MRK",25.995001,-81.672501,"Naples",34114,"#ad007d"
"FL","Melbourne International Airport","MLB",28.1028003692627,-80.6453018188477,"Melbourne",32901,"#ad007d"
"FL","Tampa International Airport","TPA",27.9755001068115,-82.533203125,"Tampa",33607,"#ad007d"
"FL","Pensacola Regional Airport","PNS",30.473400115967,-87.186599731445,"Pensacola",32504,"#ad007d"
"FL","Port Largo Airport","KYL",25.09334,-80.42992,"Key Largo",33037,"#ad007d"
"FL","Palm Beach County Park Airport","LNA",26.59300041,-80.08509827,"Lake Worth",33462,"#ad007d"
"FL","Winter Haven Regional Airport - Gilbert Field","GIF",28.062901,-81.753304,"Winter Haven",33881,"#ad007d"
"FL","North Perry Airport","HWO",26.0012,-80.2407,"Hollywood",33025,"#ad007d"
"FL","Kissimmee Gateway Airport","ISM",28.2898006439,-81.4371032715,"Kissimmee",34741,"#ad007d"
"FL","Albert Whitted Airport","SPG",27.7651,-82.626999,"Saint Petersburg",33701,"#ad007d"
"FL","Charlotte County Airport","PGD",26.92020035,-81.9905014,"Punta Gorda",33982,"#ad007d"
"FL","Bartow Municipal Airport","BOW",27.9433994293,-81.7834014893,"Bartow",33830,"#ad007d"
"FL","Pompano Beach Airpark","PPM",26.247100830078,-80.111099243164,"Pompano Beach",33060,"#ad007d"
"FL","Jacksonville International Airport","JAX",30.4941005706787,-81.6878967285156,"Jacksonville",32218,"#ad007d"
"FL","Destin Executive Airport","DSI",30.40010071,-86.47149658,"Destin",32541,"#ad007d"
"FL","Palm Beach International Airport","PBI",26.6832008361816,-80.0955963134766,"West Palm Beach",33406,"#ad007d"
"FL","Palm Beach County Glades Airport","PHK",26.78499985,-80.69339752,"Pahokee",33476,"#ad007d"
"FL","Orlando Sanford International Airport","SFB",28.7775993347168,-81.2375030517578,"Sanford",32773,"#ad007d"
"FL","Destin-Ft Walton Beach Airport","VPS",30.4832,-86.525398,"Eglin Afb",32542,"#ad007d"
"FL","Naples Municipal Airport","APF",26.1525993347,-81.7752990723,"Naples",34104,"#ad007d"
"FL","Cecil Airport","VQQ",30.2187004089,-81.876701355,"Jacksonville",32215,"#ad007d"
"FL","Vero Beach Regional Airport","VRB",27.6556,-80.417901,"Vero Beach",32960,"#ad007d"
"FL","Page Field","FMY",26.58659935,-81.8632965088,"Fort Myers",33907,"#ad007d"
"FL","Boca Raton Airport","BCT",26.3784999847,-80.1076965332,"Boca Raton",33431,"#ad007d"
"FL","Mac Dill Air Force Base","MCF",27.84930038,-82.52120209,"Tampa",33616,"#ad007d"
"FL","Fort Lauderdale Hollywood International Airport","FLL",26.072599,-80.152702,"Fort Lauderdale",33315,"#ad007d"
"FL","The Florida Keys Marathon Airport","MTH",24.726101,-81.051399,"Marathon",33050,"#ad007d"
"FL","Lake Buena Vista STOLport","DWS",28.3994444444,-81.5712777778,"Orlando",32830,"#ad007d"
"FL","Witham Field","SUA",27.18169975,-80.22109985,"Stuart",34994,"#ad007d"
"FL","Miami Seaplane Base","MPB",25.778299331665,-80.170303344727,"Miami",33132,"#ad007d"
"FL","Miami-Opa Locka Executive Airport","OPF",25.907,-80.278397,"Opa-Locka",33054,"#ad007d"
"FL","Venice Municipal Airport","VNC",27.071599960327,-82.440299987793,"Venice",34285,"#ad007d"
"FL","Key West International Airport","EYW",24.5561008453369,-81.7595977783203,"Key West",33040,"#ad007d"
"FL","Whitehouse Naval Outlying Field","NEN",30.353900909424,-81.87190246582,"Jacksonville",32220,"#ad007d"
"FL","Southwest Florida International Airport","RSW",26.5361995697021,-81.7552032470703,"Fort Myers",33913,"#ad007d"
"FL","Clearwater Air Park","CLW",27.9766998291,-82.7586975098,"Clearwater",33765,"#ad007d"
"FL","Bob Sikes Airport","CEW",30.778799057,-86.522102356,"Crestview",32539,"#ad007d"
"FL","Avon Park Executive Airport","AVO",27.59119987,-81.52780151,"Avon Park",33825,"#ad007d"
"FL","Jacksonville Naval Air Station (Towers Field)","NIP",30.2358,-81.680603,"Jacksonville",32210,"#ad007d"
"FL","Kendall-Tamiami Executive Airport","TMB",25.6478996277,-80.432800293,"Miami",33196,"#ad007d"
"FL","St Lucie County International Airport","FPR",27.49510002,-80.36830139,"Fort Pierce",34946,"#ad007d"
"FL","Orlando International Airport","MCO",28.4293994903564,-81.3089981079102,"Orlando",32827,"#ad007d"
"FL","Duke Field","EGI",30.65040016,-86.52290344,"Destin",32540,"#ad007d"
"GA","Dobbins Air Reserve Base","MGE",33.91540146,-84.51629639,"Marietta",30069,"#019f43"
"GA","Decatur County Industrial Air Park","BGE",30.9715004,-84.63739777,"Bainbridge",39817,"#019f43"
"GA","Brunswick Golden Isles Airport","BQK",31.2588005065918,-81.4664993286133,"Brunswick",31525,"#019f43"
"GA","Valdosta Regional Airport","VLD",30.7824993133545,-83.2767028808594,"Valdosta",31601,"#019f43"
"GA","Waycross Ware County Airport","AYS",31.2490997314,-82.3955001831,"Waycross",31501,"#019f43"
"GA","Hartsfield Jackson Atlanta International Airport","ATL",33.6367,-84.428101,"Atlanta",30349,"#019f43"
"GA","Moultrie Municipal Airport","MGR",31.0848999023,-83.8032989502,"Moultrie",31768,"#019f43"
"GA","Barrow County Airport","WDR",33.98289871,-83.66739655,"Winder",30680,"#019f43"
"GA","Lee Gilmer Memorial Airport","GVL",34.27259827,-83.8302002,"Gainesville",30501,"#019f43"
"GA","Columbus Metropolitan Airport","CSG",32.516300201416,-84.9389038085938,"Columbus",31909,"#019f43"
"GA","Thomasville Regional Airport","TVI",30.901599884033,-83.881301879883,"Thomasville",31792,"#019f43"
"GA","W H 'Bud' Barron Airport","DBN",32.56439972,-82.98529816,"Dublin",31021,"#019f43"
"GA","Fulton County Airport Brown Field","FTY",33.7790985107,-84.5214004517,"Atlanta",30336,"#019f43"
"GA","Daniel Field","DNL",33.4664993286,-82.0393981934,"Augusta",30909,"#019f43"
"GA","Richard B Russell Airport","RMG",34.3506011963,-85.1579971313,"Rome",30165,"#019f43"
"GA","Harris County Airport","PIM",32.8406982422,-84.8824005127,"Pine Mountain",31822,"#019f43"
"GA","DeKalb Peachtree Airport","PDK",33.8755989075,-84.3020019531,"Atlanta",30341,"#019f43"
"GA","Macon Downtown Airport","MAC",32.82210159,-83.56199646,"Macon",31217,"#019f43"
"GA","Southwest Georgia Regional Airport","ABY",31.5354995727539,-84.1945037841797,"Albany",31721,"#019f43"
"GA","Augusta Regional At Bush Field","AGS",33.3698997497559,-81.9645004272461,"Augusta",30906,"#019f43"
"GA","Robins Air Force Base","WRB",32.6400985718,-83.5919036865,"Warner Robins",31098,"#019f43"
"GA","Athens Ben Epps Airport","AHN",33.948600769043,-83.326301574707,"Athens",30605,"#019f43"
"GA","Wright AAF (Fort Stewart)/Midcoast Regional Airport","LIY",31.889099,-81.562303,"Hinesville",31313,"#019f43"
"GA","Moody Air Force Base","VAD",30.9678001404,-83.1930007935,"Valdosta",31699,"#019f43"
"GA","Henry Tift Myers Airport","TMA",31.4290008545,-83.4885025024,"Tifton",31794,"#019f43"
"GA","Vidalia Regional Airport","VDI",32.192699432373,-82.371200561523,"Vidalia",30474,"#019f43"
"GA","Statesboro Bulloch County Airport","TBR",32.4827003479,-81.7369003296,"Statesboro",30461,"#019f43"
"GA","Middle Georgia Regional Airport","MCN",32.692798614502,-83.6492004394531,"Macon",31216,"#019f43"
"GA","Lawson Army Air Field (Fort Benning)","LSF",32.3372993469,-84.9913024902,"Fort Benning",31905,"#019f43"
"GA","Gwinnett County Briscoe Field","LZU",33.97809982,-83.96240234,"Lawrenceville",30045,"#019f43"
"GA","St Simons Island Airport","SSI",31.1518,-81.391296,"Saint Simons Island",31522,"#019f43"
"GA","Hunter Army Air Field","SVN",32.00999832,-81.14569855,"Savannah",31406,"#019f43"
"GA","Toccoa Airport - R.G. Letourneau Field","TOC",34.59379959,-83.29579926,"Toccoa",30577,"#019f43"
"GA","Dalton Municipal Airport","DNN",34.72290039,-84.87020111,"Dalton",30721,"#019f43"
"GA","Savannah Hilton Head International Airport","SAV",32.12760162,-81.20210266,"Savannah",31408,"#019f43"
"GA","LaGrange Callaway Airport","LGC",33.0089,-85.072601,"Lagrange",30240,"#019f43"
"GA","Sylvester Airport","SYV",31.558500289917,-83.895698547363,"Sylvester",31791,"#019f43"
"HI","Kaneohe Bay MCAS (Marion E. Carl Field) Airport","NGF",21.4505004883,-157.768005371,"Kailua",96734,"#e40087"
"HI","Kahului Airport","OGG",20.8986,-156.429993,"Kahului",96732,"#e40087"
"HI","Barking Sands Airport","BKH",22.0228004456,-159.785003662,"Kekaha",96752,"#e40087"
"HI","Kaanapali Airport","HKP",20.945,-156.69,"Lahaina",96761,"#e40087"
"HI","Molokai Airport","MKK",21.1529006958008,-157.095993041992,"Hoolehua",96729,"#e40087"
"HI","Wheeler Army Airfield","HHI",21.48349953,-158.0399933,"Wahiawa",96786,"#e40087"
"HI","Lihue Airport","LIH",21.9759998321533,-159.339004516602,"Lihue",96766,"#e40087"
"HI","Hana Airport","HNM",20.7956008911133,-156.014007568359,"Hana",96713,"#e40087"
"HI","Dillingham Airfield","HDH",21.5795001984,-158.197006226,"Waialua",96791,"#e40087"
"HI","Waimea Kohala Airport","MUE",20.0013008117676,-155.667999267578,"Kamuela",96743,"#e40087"
"HI","Bradshaw Army Airfield","BSF",19.760099411,-155.554000854,"Waikoloa Village",96743,"#e40087"
"HI","Hilo International Airport","ITO",19.721399307251,-155.048004150391,"Hilo",96720,"#e40087"
"HI","Kalaupapa Airport","LUP",21.21100044,-156.973999,"Kalaupapa",96742,"#e40087"
"HI","Daniel K Inouye International Airport","HNL",21.32062,-157.924228,"Honolulu",96819,"#e40087"
"HI","Waikoloa Heliport","WKL",19.9205,-155.8607,"Kamuela",96743,"#e40087"
"HI","Kalaeloa Airport","JRF",21.3074,-158.070009,"Kapolei",96707,"#e40087"
"HI","Upolu Airport","UPP",20.2653007507324,-155.860000610352,"Kapaau",96755,"#e40087"
"HI","Ellison Onizuka Kona International At Keahole Airport","KOA",19.738783,-156.045603,"Kailua Kona",96740,"#e40087"
"HI","Lanai Airport","LNY",20.7856006622314,-156.95100402832,"Lanai City",96763,"#e40087"
"HI","Kapalua Airport","JHM",20.9629001617432,-156.673004150391,"Lahaina",96761,"#e40087"
"HI","Port Allen Airport","PAK",21.896900177,-159.602996826,"Hanapepe",96716,"#e40087"
"HI","Princeville Airport","HPV",22.2091999054,-159.445999146,"Kilauea",96754,"#e40087"
"IA","Jefferson Municipal Airport","EFW",42.0102005,-94.34259796,"Jefferson",50129,"#3d4b9f"
"IA","Keokuk Municipal Airport","EOK",40.4598999023,-91.4284973145,"Keokuk",52632,"#3d4b9f"
"IA","Spencer Municipal Airport","SPW",43.165500640869,-95.202796936035,"Spencer",51301,"#3d4b9f"
"IA","Storm Lake Municipal Airport","SLB",42.5973014832,-95.2406997681,"Storm Lake",50588,"#3d4b9f"
"IA","Boone Municipal Airport","BNW",42.0495986938,-93.8476028442,"Boone",50036,"#3d4b9f"
"IA","Hampton Municipal Airport","HPT",42.7237014771,-93.2263031006,"Hampton",50441,"#3d4b9f"
"IA","Southeast Iowa Regional Airport","BRL",40.7831993103027,-91.1255035400391,"Burlington",52601,"#3d4b9f"
"IA","Spirit Lake Municipal Airport","RTL",43.387500762939,-95.139198303223,"Okoboji",51355,"#3d4b9f"
"IA","Forest City Municipal Airport","FXY",43.23469925,-93.62409973,"Forest City",50436,"#3d4b9f"
"IA","Davenport Municipal Airport","DVN",41.61029816,-90.58830261,"Davenport",52806,"#3d4b9f"
"IA","Des Moines International Airport","DSM",41.5340003967285,-93.6631011962891,"Des Moines",50315,"#3d4b9f"
"IA","Fort Madison Municipal Airport","FMS",40.6593017578,-91.3267974854,"Fort Madison",52627,"#3d4b9f"
"IA","Denison Municipal Airport","DNS",41.9864006,-95.38069916,"Denison",51442,"#3d4b9f"
"IA","Humboldt Municipal Airport","HUD",42.7360992432,-94.2452011108,"Humboldt",50548,"#3d4b9f"
"IA","Fairfield Municipal Airport","FFL",41.0532989502,-91.9788970947,"Fairfield",52556,"#3d4b9f"
"IA","Decorah Municipal Airport","DEH",43.27550125,-91.73940277,"Decorah",52101,"#3d4b9f"
"IA","Clinton Municipal Airport","CWI",41.8311004639,-90.3291015625,"Clinton",52732,"#3d4b9f"
"IA","Mount Pleasant Municipal Airport","MPZ",40.94660187,-91.51110077,"Mount Pleasant",52641,"#3d4b9f"
"IA","Le Mars Municipal Airport","LRJ",42.77799988,-96.1937027,"Le Mars",51031,"#3d4b9f"
"IA","Ames Municipal Airport","AMW",41.992001,-93.621803,"Ames",50010,"#3d4b9f"
"IA","Council Bluffs Municipal Airport","CBF",41.2592010498,-95.760597229,"Council Bluffs",51503,"#3d4b9f"
"IA","Webster City Municipal Airport","EBS",42.43659973,-93.86889648,"Webster City",50595,"#3d4b9f"
"IA","Iowa Falls Municipal Airport","IFA",42.4707984924,-93.2699966431,"Iowa Falls",50126,"#3d4b9f"
"IA","Ottumwa Regional Airport","OTM",41.10660172,-92.44789886,"Ottumwa",52501,"#3d4b9f"
"IA","Atlantic Municipal Airport","AIO",41.40729904,-95.04689789,"Atlantic",50022,"#3d4b9f"
"IA","Muscatine Municipal Airport","MUT",41.367803,-91.148201,"Muscatine",52761,"#3d4b9f"
"IA","Newton Municipal Airport","TNU",41.67440032959,-93.021697998047,"Newton",50208,"#3d4b9f"
"IA","Estherville Municipal Airport","EST",43.40739822,-94.74639893,"Estherville",51334,"#3d4b9f"
"IA","The Eastern Iowa Airport","CID",41.8847007751465,-91.7108001708984,"Swisher",52338,"#3d4b9f"
"IA","Perry Municipal Airport","PRO",41.82799911,-94.15989685,"Perry",50220,"#3d4b9f"
"IA","Arthur N Neu Airport","CIN",42.0461997986,-94.7890014648,"Carroll",51401,"#3d4b9f"
"IA","Schenck Field","ICL",40.72180176,-95.02639771,"Clarinda",51632,"#3d4b9f"
"IA","Fort Dodge Regional Airport","FOD",42.55149841,-94.19259644,"Fort Dodge",50501,"#3d4b9f"
"IA","Mason City Municipal Airport","MCW",43.1577987671,-93.3312988281,"Clear Lake",50428,"#3d4b9f"
"IA","Creston Municipal Airport","CSQ",41.0214004517,-94.3632965088,"Creston",50801,"#3d4b9f"
"IA","Dubuque Regional Airport","DBQ",42.40200043,-90.70950317,"Dubuque",52003,"#3d4b9f"
"IA","Sioux Gateway Airport/Brigadier General Bud Day Field","SUX",42.402599,-96.384399,"Sioux City",51111,"#3d4b9f"
"IA","Algona Municipal Airport","AXG",43.0778999329,-94.2720031738,"Algona",50511,"#3d4b9f"
"IA","Iowa City Municipal Airport","IOW",41.6391983032,-91.5465011597,"Iowa City",52246,"#3d4b9f"
"IA","Northeast Iowa Regional Airport","CCY",43.0726013184,-92.6108016968,"Charles City",50616,"#3d4b9f"
"IA","Waukon Municipal Airport","UKN",43.280498504639,-91.469497680664,"Waukon",52172,"#3d4b9f"
"IA","Waterloo Regional Airport","ALO",42.5570983886719,-92.4002990722656,"Waterloo",50703,"#3d4b9f"
"ID","Dubois Municipal Airport","DBS",44.1665992737,-112.225997925,"Dubois",83423,"#8bd976"
"ID","Lemhi County Airport","SMN",45.1237983704,-113.880996704,"Salmon",83467,"#8bd976"
"ID","Mountain Home Air Force Base","MUO",43.043598,-115.872002,"Mountain Home A F B",83648,"#8bd976"
"ID","Idaho Falls Regional Airport","IDA",43.514599,-112.070999,"Idaho Falls",83402,"#8bd976"
"ID","Challis Airport","CHL",44.522999,-114.218002,"Challis",83226,"#8bd976"
"ID","Coeur D'Alene - Pappy Boyington Field","COE",47.77429962,-116.8199997,"Hayden",83835,"#8bd976"
"ID","Friedman Memorial Airport","SUN",43.50439835,-114.2959976,"Hailey",83333,"#8bd976"
"ID","Gooding Municipal Airport","GNG",42.91719818,-114.7649994,"Gooding",83330,"#8bd976"
"ID","Pocatello Regional Airport","PIH",42.9098014831543,-112.596000671387,"Pocatello",83204,"#8bd976"
"ID","McCall Municipal Airport","MYL",44.88970184,-116.1009979,"McCall",83638,"#8bd976"
"ID","Lewiston Nez Perce County Airport","LWS",46.3745002746582,-117.014999389648,"Lewiston",83501,"#8bd976"
"ID","Idaho County Airport","IDH",45.9426,-116.123001,"Grangeville",83530,"#8bd976"
"ID","Burley Municipal Airport","BYI",42.5425987244,-113.772003174,"Burley",83318,"#8bd976"
"ID","Boise Air Terminal/Gowen Field","BOI",43.5644,-116.223,"Boise",83705,"#8bd976"
"ID","Cascade Airport","ICS",44.4938011169,-116.01599884,"Cascade",83611,"#8bd976"
"ID","Rexburg Madison County Airport","RXE",43.8339,-111.805002,"Rexburg",83440,"#8bd976"
"ID","Joslin Field Magic Valley Regional Airport","TWF",42.4818,-114.487999,"Twin Falls",83301,"#8bd976"
"IL","Aurora Municipal Airport","AUZ",41.771900177,-88.4757003784,"Sugar Grove",60554,"#852b8a"
"IL","Lewis University Airport","LOT",41.6072998,-88.09619904,"Romeoville",60446,"#852b8a"
"IL","Abraham Lincoln Capital Airport","SPI",39.84410095,-89.67790222,"Springfield",62707,"#852b8a"
"IL","St Louis Regional Airport","ALN",38.8903007507,-90.0459976196,"Bethalto",62010,"#852b8a"
"IL","Sky Harbor Airport","OBK",42.1438888889,-87.8555555556,"Northbrook",60062,"#852b8a"
"IL","Decatur Airport","DEC",39.8345985412598,-88.8656997680664,"Decatur",62521,"#852b8a"
"IL","Haley Army Airfield","FSN",42.221,-87.817,"Lake Forest",60045,"#852b8a"
"IL","Vandalia Municipal Airport","VLA",38.991500854492,-89.166198730469,"Shafter",62471,"#852b8a"
"IL","Illinois Valley Regional Airport-Walter A Duncan Field","VYS",41.351898,-89.153099,"Peru",61354,"#852b8a"
"IL","O'Neal Airport","OEA",38.6913986206,-87.5522003174,"Westport",62439,"#852b8a"
"IL","Williamson County Regional Airport","MWA",37.75500107,-89.01110077,"Marion",62959,"#852b8a"
"IL","Cairo Regional Airport","CIR",37.0644989014,-89.2195968628,"Cairo",62914,"#852b8a"
"IL","Greater Kankakee Airport","IKK",41.0713996887,-87.8462982178,"Kankakee",60901,"#852b8a"
"IL","Vermilion Regional Airport","DNV",40.19919968,-87.59590149,"Danville",61834,"#852b8a"
"IL","Galesburg Municipal Airport","GBG",40.9379997253,-90.431098938,"Galesburg",61401,"#852b8a"
"IL","St Louis Downtown Airport","CPS",38.5707015991,-90.1561965942,"East Saint Louis",62206,"#852b8a"
"IL","Rinkenberger Restricted Landing Area","BDF",41.2308998108,-89.6156997681,"Bradford",61421,"#852b8a"
"IL","Quad City International Airport","MLI",41.4485015869141,-90.5074996948242,"Milan",61264,"#852b8a"
"IL","Lawrenceville Vincennes International Airport","LWV",38.7643013,-87.6054992676,"Pinkstaff",62439,"#852b8a"
"IL","Harrisburg-Raleigh Airport","HSB",37.81129837,-88.5503006,"Raleigh",62977,"#852b8a"
"IL","Greenville Airport","GRE",38.8362007141,-89.37840271,"Greenville",62246,"#852b8a"
"IL","General Wayne A. Downing Peoria International Airport","PIA",40.6641998291,-89.6932983398,"Peoria",61607,"#852b8a"
"IL","Macomb Municipal Airport","MQB",40.5200996399,-90.6523971558,"Macomb",61455,"#852b8a"
"IL","Chicago Meigs Airport","CGX",41.8587989807129,-87.6079025268555,"Chicago",60605,"#852b8a"
"IL","Joliet Regional Airport","JOT",41.51779938,-88.17549896,"Joliet",60435,"#852b8a"
"IL","Albertus Airport","FEP",42.2462005615,-89.5820007324,"Freeport",61032,"#852b8a"
"IL","Sparta Community Hunter Field","SAR",38.1488990784,-89.6986999512,"Sparta",62286,"#852b8a"
"IL","Waukegan National Airport","UGN",42.422199249268,-87.867897033691,"Waukegan",60087,"#852b8a"
"IL","Quincy Regional Baldwin Field","UIN",39.94269943,-91.19460297,"Quincy",62305,"#852b8a"
"IL","Salem Leckrone Airport","SLO",38.64289855957,-88.964202880859,"Salem",62881,"#852b8a"
"IL","Chicago Midway International Airport","MDW",41.785999,-87.752403,"Palatine",60038,"#852b8a"
"IL","Chicago Rockford International Airport","RFD",42.1954002380371,-89.0971984863281,"Rockford",61109,"#852b8a"
"IL","Central Illinois Regional Airport at Bloomington-Normal","BMI",40.47710037,-88.91590118,"Bloomington",61704,"#852b8a"
"IL","Chicago O'Hare International Airport","ORD",41.9786,-87.9048,"Amf Ohare",60666,"#852b8a"
"IL","Centralia Municipal Airport","ENL",38.5150985718,-89.0911026001,"Centralia",62801,"#852b8a"
"IL","Dupage Airport","DPA",41.90779877,-88.24859619,"West Chicago",60185,"#852b8a"
"IL","Coles County Memorial Airport","MTO",39.477901,-88.279198,"Mattoon",61938,"#852b8a"
"IL","Scott AFB/Midamerica Airport","BLV",38.5452,-89.835197,"Scott Air Force Base",62225,"#852b8a"
"IL","Southern Illinois Airport","MDH",37.7780990600586,-89.2519989013672,"Murphysboro",62966,"#852b8a"
"IL","Whiteside County Airport-Joseph H Bittorf Field","SQI",41.74280167,-89.67630005,"Rock Falls",61071,"#852b8a"
"IL","University of Illinois Willard Airport","CMI",40.03919983,-88.27809906,"Savoy",61874,"#852b8a"
"IL","Chicago Executive Airport","PWK",42.114222,-87.901494,"Wheeling",60090,"#852b8a"
"IN","Pope Field","GFD",39.7902984619,-85.7360992432,"Greenfield",46140,"#d9c837"
"IN","Purdue University Airport","LAF",40.4123001098633,-86.936897277832,"West Lafayette",47906,"#d9c837"
"IN","Evansville Regional Airport","EVV",38.0369987488,-87.5324020386,"Evansville",47711,"#d9c837"
"IN","Virgil I Grissom Municipal Airport","BFR",38.84000015,-86.44539642,"Bedford",47421,"#d9c837"
"IN","Plymouth Municipal Airport","PLY",41.365100860596,-86.300498962402,"Plymouth",46563,"#d9c837"
"IN","Tri State Steuben County Airport","ANQ",41.639702,-85.083504,"Angola",46703,"#d9c837"
"IN","Anderson Municipal Darlington Field","AID",40.1086006165,-85.6129989624,"Anderson",46017,"#d9c837"
"IN","Porter County Municipal Airport","VPZ",41.45399857,-87.00710297,"Valparaiso",46383,"#d9c837"
"IN","Huntingburg Airport","HNB",38.2490005493,-86.9536972046,"Huntingburg",47542,"#d9c837"
"IN","Marion Municipal Airport","MZZ",40.4898986816,-85.6797027588,"Marion",46953,"#d9c837"
"IN","Decatur HI-Way Airfield","DCR",40.837548,-84.862464,"Decatur",46733,"#d9c837"
"IN","Indianapolis International Airport","IND",39.7173,-86.294403,"Indianapolis",46231,"#d9c837"
"IN","Madison Municipal Airport","MDN",38.75889969,-85.46549988,"Madison",47250,"#d9c837"
"IN","South Bend Regional Airport","SBN",41.7086982727051,-86.3172988891602,"South Bend",46628,"#d9c837"
"IN","Mettel Field","CEV",39.6985015869,-85.129699707,"Connersville",47331,"#d9c837"
"IN","Grissom Air Reserve Base","GUS",40.6481018066,-86.1520996094,"Bunker Hill",46914,"#d9c837"
"IN","La Porte Municipal Airport","LPO",41.5724983215,-86.7344970703,"La Porte",46350,"#d9c837"
"IN","Elkhart Municipal Airport","EKI",41.7193984985,-86.0031967163,"Elkhart",46514,"#d9c837"
"IN","Terre Haute Regional Airport, Hulman Field","HUF",39.4515,-87.307602,"Terre Haute",47803,"#d9c837"
"IN","Michigan City Municipal Airport","MGC",41.7033004761,-86.8211975098,"Michigan City",46360,"#d9c837"
"IN","Columbus Municipal Airport","CLU",39.2619018555,-85.8963012695,"Columbus",47203,"#d9c837"
"IN","Goshen Municipal Airport","GSH",41.5264015198,-85.7929000854,"Goshen",46526,"#d9c837"
"IN","Ed-Air Airport","OTN",38.851398468,-87.4997024536,"Oaktown",47561,"#d9c837"
"IN","Freeman Municipal Airport","SER",38.923599243164,-85.907402038574,"Seymour",47274,"#d9c837"
"IN","Fulton County Airport","RCR",41.0656013489,-86.1817016602,"Rochester",46975,"#d9c837"
"IN","Smith Field","SMD",41.14339828,-85.15280151,"Fort Wayne",46825,"#d9c837"
"IN","Fort Wayne International Airport","FWA",40.97850037,-85.19509888,"Fort Wayne",46809,"#d9c837"
"IN","Kentland Municipal Airport","KKT",40.7587013245,-87.4281997681,"Kentland",47951,"#d9c837"
"IN","Delaware County Johnson Field","MIE",40.2422981262207,-85.3958969116211,"Muncie",47303,"#d9c837"
"IN","Sullivan County Airport","SIV",39.114700317383,-87.448303222656,"Sullivan",47882,"#d9c837"
"IN","Monroe County Airport","BMG",39.1459999084473,-86.61669921875,"Bloomington",47403,"#d9c837"
"IN","Hillenbrand Industries Airport","HLB",39.3445014954,-85.2583007812,"Batesville",47006,"#d9c837"
"IN","Gary Chicago International Airport","GYY",41.6162986755371,-87.4128036499023,"Gary",46406,"#d9c837"
"IN","Kokomo Municipal Airport","OKK",40.528198242188,-86.05899810791,"Kokomo",46901,"#d9c837"
"IN","Jasper County Airport","RNZ",40.9478988647,-87.1826019287,"Rensselaer",47978,"#d9c837"
"IN","French Lick Municipal Airport","FRH",38.5061988831,-86.6369018555,"French Lick",47432,"#d9c837"
"KS","Strother Field","WLD",37.168598175,-97.0375976562,"Winfield",67156,"#f1a800"
"KS","Chanute Martin Johnson Airport","CNU",37.668800354,-95.4850997925,"Chanute",66720,"#f1a800"
"KS","New Century Aircenter Airport","JCI",38.8308982849,-94.890296936,"New Century",66031,"#f1a800"
"KS","Lawrence Municipal Airport","LWC",39.01119995,-95.21659851,"Lawrence",66044,"#f1a800"
"KS","Fort Scott Municipal Airport","FSK",37.7984008789,-94.7694015503,"Fort Scott",66701,"#f1a800"
"KS","Dodge City Regional Airport","DDC",37.7634010314941,-99.9655990600586,"Dodge City",67801,"#f1a800"
"KS","Wichita Eisenhower National Airport","ICT",37.649899,-97.433098,"Wichita",67209,"#f1a800"
"KS","Blosser Municipal Airport","CNK",39.5493011475,-97.6522979736,"Concordia",66901,"#f1a800"
"KS","Shalz Field","CBK",39.42750168,-101.0469971,"Colby",67701,"#f1a800"
"KS","Lyons-Rice County Municipal Airport","LYO",38.34280014,-98.22689819,"Lyons",67554,"#f1a800"
"KS","Coffeyville Municipal Airport","CFV",37.09400177,-95.5718994141,"Liberty",67351,"#f1a800"
"KS","Hill City Municipal Airport","HLC",39.37879944,-99.83149719,"Hill City",67642,"#f1a800"
"KS","Newton City-County Airport","EWK",38.0582008362,-97.2744979858,"Newton",67114,"#f1a800"
"KS","Philip Billard Municipal Airport","TOP",39.068698883057,-95.622497558594,"Topeka",66616,"#f1a800"
"KS","Sherman Army Air Field","FLV",39.3683013916,-94.9147033691,"Fort Leavenworth",66027,"#f1a800"
"KS","Liberal Mid-America Regional Airport","LBL",37.0442009,-100.9599991,"Liberal",67901,"#f1a800"
"KS","Tri-City Airport","PPF",37.32989883,-95.5062027,"Cherryvale",67335,"#f1a800"
"KS","Garden City Regional Airport","GCK",37.9275016785,-100.723999023,"Garden City",67846,"#f1a800"
"KS","Salina Municipal Airport","SLN",38.7910003662109,-97.6521987915039,"Salina",67401,"#f1a800"
"KS","Renner Field-Goodland Municipal Airport","GLD",39.37060165,-101.6989975,"Goodland",67735,"#f1a800"
"KS","Pratt Regional Airport","PTT",37.70159912,-98.74690247,"Pratt",67124,"#f1a800"
"KS","Anthony Municipal Airport","ANY",37.158501,-98.079597,"Anthony",67003,"#f1a800"
"KS","Mc Connell Air Force Base","IAB",37.62189865,-97.26820374,"Wichita",67216,"#f1a800"
"KS","Hutchinson Municipal Airport","HUT",38.0654983521,-97.8606033325,"Hutchinson",67501,"#f1a800"
"KS","Independence Municipal Airport","IDP",37.1584014893,-95.7783966064,"Independence",67301,"#f1a800"
"KS","Marshall Army Air Field","FRI",39.05530167,-96.76450348,"Junction City",66441,"#f1a800"
"KS","Beech Factory Airport","BEC",37.6944999695,-97.2149963379,"Wichita",67206,"#f1a800"
"KS","Russell Municipal Airport","RSL",38.872100830078,-98.811798095703,"Russell",67665,"#f1a800"
"KS","Hays Regional Airport","HYS",38.84220123,-99.27320099,"Hays",67601,"#f1a800"
"KS","Johnson County Executive Airport","OJC",38.84759903,-94.73760223,"Shawnee Mission",66221,"#f1a800"
"KS","Manhattan Regional Airport","MHK",39.140998840332,-96.6707992553711,"Manhattan",66503,"#f1a800"
"KS","Emporia Municipal Airport","EMP",38.3320999146,-96.1912002563,"Emporia",66801,"#f1a800"
"KS","Topeka Regional Airport - Forbes Field","FOE",38.9509010315,-95.6635971069,"Topeka",66609,"#f1a800"
"KS","Captain Jack Thomas El Dorado Airport","EDK",37.7741012573,-96.8175964355,"El Dorado",67042,"#f1a800"
"KS","Cessna Aircraft Field","CEA",37.648601532,-97.2506027222,"Wichita",67210,"#f1a800"
"KS","Great Bend Municipal Airport","GBD",38.3442993164,-98.8591995239,"Great Bend",67530,"#f1a800"
"KY","Louisville International Standiford Field","SDF",38.1744,-85.736,"Louisville",40213,"#72a4ff"
"KY","Samuels Field","BRY",37.8143005371,-85.4996032715,"Bardstown",40004,"#72a4ff"
"KY","Whitesburg Municipal Airport","BRG",37.2219,-82.8742,"Whitesburg",41858,"#72a4ff"
"KY","Barkley Regional Airport","PAH",37.0607986450195,-88.7738037109375,"West Paducah",42086,"#72a4ff"
"KY","Godman Army Air Field","FTK",37.9071006775,-85.9720993042,"Fort Knox",40121,"#72a4ff"
"KY","Addington Field","EKX",37.686000824,-85.9250030518,"Elizabethtown",42701,"#72a4ff"
"KY","Owensboro Daviess County Airport","OWB",37.74010086,-87.16680145,"Owensboro",42301,"#72a4ff"
"KY","Kyle Oakley Field","CEY",36.66460037,-88.37280273,"Murray",42071,"#72a4ff"
"KY","Pike County-Hatcher Field","PVL",37.5617981,-82.56639862,"Pikeville",41501,"#72a4ff"
"KY","London-Corbin Airport/Magee Field","LOZ",37.0821990967,-84.0848999023,"London",40744,"#72a4ff"
"KY","Campbell AAF (Fort Campbell) Air Field","HOP",36.668598175,-87.4962005615,"Fort Campbell",42223,"#72a4ff"
"KY","Glasgow Municipal Airport","GLW",37.03179932,-85.9536972,"Glasgow",42141,"#72a4ff"
"KY","Capital City Airport","FFT",38.18249893,-84.90470123,"Frankfort",40601,"#72a4ff"
"KY","Bowman Field","LOU",38.2280006409,-85.6636962891,"Louisville",40205,"#72a4ff"
"KY","Blue Grass Airport","LEX",38.0364990234375,-84.6059036254883,"Lexington",40510,"#72a4ff"
"KY","Lake Cumberland Regional Airport","SME",37.0533981323,-84.6158981323,"Somerset",42501,"#72a4ff"
"KY","Cincinnati Northern Kentucky International Airport","CVG",39.0488014221,-84.6678009033,"Union",41091,"#72a4ff"
"KY","Bowling Green Warren County Regional Airport","BWG",36.9645004272,-86.4197006226,"Bowling Green",42103,"#72a4ff"
"LA","Shreveport Downtown Airport","DTN",32.5401992798,-93.7450027466,"Shreveport",71107,"#e67700"
"LA","Ruston Regional Airport","RSN",32.514400482178,-92.591697692871,"Ruston",71270,"#e67700"
"LA","Lakefront Airport","NEW",30.042400360107,-90.028297424316,"New Orleans",70126,"#e67700"
"LA","Shreveport Regional Airport","SHV",32.446602,-93.8256,"Shreveport",71109,"#e67700"
"LA","Polk Army Air Field","POE",31.0447998,-93.1917038,"Leesville",71459,"#e67700"
"LA","New Orleans NAS JRB/Alvin Callender Field","NBG",29.82530022,-90.03500366,"Belle Chasse",70037,"#e67700"
"LA","Lake Charles Regional Airport","LCH",30.1261005401611,-93.2232971191406,"Lake Charles",70607,"#e67700"
"LA","Alexandria International Airport","AEX",31.3274002075195,-92.5497970581055,"Alexandria",71303,"#e67700"
"LA","Harry P Williams Memorial Airport","PTN",29.709499359131,-91.338996887207,"Patterson",70392,"#e67700"
"LA","Houma Terrebonne Airport","HUM",29.5664997101,-90.6604003906,"Houma",70363,"#e67700"
"LA","Lafayette Regional Airport","LFT",30.20529938,-91.98760223,"Lafayette",70508,"#e67700"
"LA","Barksdale Air Force Base","BAD",32.5018005371,-93.6626968384,"Barksdale Afb",71110,"#e67700"
"LA","Southern Seaplane Airport","BCS",29.8661003113,-90.0222015381,"Belle Chasse",70037,"#e67700"
"LA","Acadiana Regional Airport","ARA",30.0378,-91.883904,"New Iberia",70560,"#e67700"
"LA","Esler Regional Airport","ESF",31.3948993683,-92.2957992554,"Pineville",71360,"#e67700"
"LA","Beauregard Regional Airport","DRI",30.8316993713,-93.3398971558,"Deridder",70634,"#e67700"
"LA","Eunice Airport","UCE",30.466299057007,-92.423797607422,"Eunice",70535,"#e67700"
"LA","George R Carr Memorial Air Field","BXA",30.8136997223,-89.8649978638,"Bogalusa",70427,"#e67700"
"LA","Chennault International Airport","CWF",30.2105998993,-93.1432037354,"Lake Charles",70615,"#e67700"
"LA","Louis Armstrong New Orleans International Airport","MSY",29.9934005737305,-90.2580032348633,"Kenner",70062,"#e67700"
"LA","Baton Rouge Metropolitan Airport","BTR",30.533199,-91.149597,"Baton Rouge",70807,"#e67700"
"LA","Monroe Regional Airport","MLU",32.5108985900879,-92.0376968383789,"Monroe",71203,"#e67700"
"MA","Plymouth Municipal Airport","PYM",41.909,-70.728798,"Plymouth",2360,"#5bdac9"
"MA","Walter J. Koladza Airport","GBR",42.18420029,-73.40319824,"Great Barrington",1230,"#5bdac9"
"MA","Ware Airport","UWA",42.282001495361,-72.214797973633,"Ware",1082,"#5bdac9"
"MA","Beverly Municipal Airport","BVY",42.5842018127,-70.9164962769,"Danvers",1923,"#5bdac9"
"MA","General Edward Lawrence Logan International Airport","BOS",42.36429977,-71.00520325,"Winthrop",2152,"#5bdac9"
"MA","Marlboro Airport","MXG",42.343201,-71.509002,"Marlborough",1752,"#5bdac9"
"MA","Provincetown Municipal Airport","PVC",42.0718994141,-70.2213973999,"Provincetown",2657,"#5bdac9"
"MA","Cape Air Seaplanes on Boston Harbor Seaplane Base","BNH",42.352502,-71.025832,"Boston",2210,"#5bdac9"
"MA","Ft Devens Moore Army Air Field","AYE",42.5699996948242,-71.6027984619141,"Ayer",1432,"#5bdac9"
"MA","Westfield-Barnes Regional Airport","BAF",42.157799,-72.715599,"Westfield",1085,"#5bdac9"
"MA","New Bedford Regional Airport","EWB",41.6761016845703,-70.956901550293,"New Bedford",2745,"#5bdac9"
"MA","Gardner Municipal Airport","GDM",42.5499992371,-72.0160980225,"Gardner",1440,"#5bdac9"
"MA","Lawrence Municipal Airport","LWM",42.7172012329,-71.1233978271,"North Andover",1845,"#5bdac9"
"MA","Norwood Memorial Airport","OWD",42.1904983521,-71.1728973389,"Norwood",2062,"#5bdac9"
"MA","Martha's Vineyard Airport","MVY",41.3931007385,-70.6143035889,"West Tisbury",2575,"#5bdac9"
"MA","Barnstable Municipal Boardman Polando Field","HYA",41.66930008,-70.28040314,"Hyannis",2601,"#5bdac9"
"MA","Pittsfield Municipal Airport","PSF",42.4268,-73.2929,"Pittsfield",1201,"#5bdac9"
"MA","Nantucket Memorial Airport","ACK",41.25310135,-70.06020355,"Nantucket",2554,"#5bdac9"
"MA","Cape Cod Coast Guard Air Station","FMH",41.6584014893,-70.5214004517,"Buzzards Bay",2542,"#5bdac9"
"MA","Metropolitan Airport","PMX",42.2233009338,-72.3114013672,"Palmer",1069,"#5bdac9"
"MA","Worcester Regional Airport","ORH",42.2672996520996,-71.8757019042969,"Cherry Valley",1611,"#5bdac9"
"MA","Laurence G Hanscom Field","BED",42.47000122,-71.28900146,"Hanscom Afb",1731,"#5bdac9"
"MA","Westover ARB/Metropolitan Airport","CEF",42.19400024,-72.53479767,"Chicopee",1022,"#5bdac9"
"MD","Lee Airport","ANP",38.942902,-76.568398,"Edgewater",21037,"#b31800"
"MD","Hagerstown Regional Richard A Henson Field","HGR",39.707901,-77.72949982,"Hagerstown",21742,"#b31800"
"MD","Joint Base Andrews","ADW",38.810799,-76.866997,"Andrews Air Force Base",20762,"#b31800"
"MD","Frederick Municipal Airport","FDK",39.4175987244,-77.3742980957,"Frederick",21701,"#b31800"
"MD","Patuxent River Naval Air Station (Trapnell Field)","NHK",38.285999,-76.411797,"Patuxent River",20670,"#b31800"
"MD","Montgomery County Airpark","GAI",39.1683006287,-77.1660003662,"Gaithersburg",20879,"#b31800"
"MD","Cambridge Dorchester Airport","CGE",38.53929901,-76.03040314,"Cambridge",21613,"#b31800"
"MD","Phillips Army Air Field","APG",39.466202,-76.1688,"Perryman",21130,"#b31800"
"MD","Martin State Airport","MTN",39.325699,-76.413803,"Middle River",21220,"#b31800"
"MD","Ocean City Municipal Airport","OCE",38.310398101807,-75.124000549316,"Berlin",21811,"#b31800"
"MD","Salisbury Ocean City Wicomico Regional Airport","SBY",38.3404998779297,-75.5102996826172,"Salisbury",21804,"#b31800"
"MD","St. Mary's County Regional Airport","LTW",38.3153991699,-76.5501022339,"California",20619,"#b31800"
"MD","Easton Newnam Field","ESN",38.8041992188,-76.0690002441,"Easton",21601,"#b31800"
"MD","Baltimore/Washington International Thurgood Marshall Airport","BWI",39.1754,-76.668297,"Baltimore",21240,"#b31800"
"MD","College Park Airport","CGS",38.9805984497,-76.9223022461,"College Park",20740,"#b31800"
"MD","Tipton Airport","FME",39.0853996277,-76.7593994141,"Fort George G. Meade",20755,"#b31800"
"ME","Eastern Slopes Regional Airport","FRY",43.9911003113,-70.9478988647,"Fryeburg",4037,"#009bd7"
"ME","Caribou Municipal Airport","CAR",46.8714981079,-68.0178985596,"Caribou",4736,"#009bd7"
"ME","Central Maine Airport of Norridgewock","OWK",44.71549988,-69.86650085,"Norridgewock",4957,"#009bd7"
"ME","Hancock County-Bar Harbor Airport","BHB",44.45000076,-68.3615036,"Ellsworth",4605,"#009bd7"
"ME","Presque Isle International Airport","PQI",46.688999,-68.0448,"Presque Isle",4769,"#009bd7"
"ME","Portland International Jetport","PWM",43.646198,-70.309303,"Portland",4102,"#009bd7"
"ME","Knox County Regional Airport","RKD",44.06010056,-69.09919739,"Owls Head",4854,"#009bd7"
"ME","Bangor International Airport","BGR",44.8073997497559,-68.8281021118164,"Bangor",4401,"#009bd7"
"ME","Waterville Robert Lafleur Airport","WVL",44.5331993103,-69.6754989624,"Waterville",4901,"#009bd7"
"ME","Sanford Seacoast Regional Airport","SFM",43.393901824951,-70.708000183105,"Sanford",4073,"#009bd7"
"ME","Princeton Municipal Airport","PNN",45.200698852539,-67.564399719238,"Princeton",4668,"#009bd7"
"ME","Brunswick Executive Airport","NHZ",43.89220047,-69.93859863,"Brunswick",4011,"#009bd7"
"ME","Houlton International Airport","HUL",46.1231002808,-67.792098999,"Houlton",4730,"#009bd7"
"ME","Loring International Airport","LIZ",46.950401,-67.885902,"Loring Air Force Base",4751,"#009bd7"
"ME","Auburn Lewiston Municipal Airport","LEW",44.048500061,-70.2835006714,"Auburn",4210,"#009bd7"
"ME","Northern Aroostook Regional Airport","WFK",47.2854995728,-68.3127975464,"Saint Agatha",4772,"#009bd7"
"ME","Wiscasset Airport","ISS",43.9613990784,-69.712600708,"Wiscasset",4578,"#009bd7"
"ME","Augusta State Airport","AUG",44.3205986023,-69.7973022461,"Augusta",4330,"#009bd7"
"ME","Dewitt Field,Old Town Municipal Airport","OLD",44.95280075,-68.67430115,"Old Town",4468,"#009bd7"
"MI","Schoolcraft County Airport","ISQ",45.97460175,-86.17179871,"Manistique",49854,"#cd0033"
"MI","Roben Hood Airport","WBR",43.7225990295,-85.5040969849,"Big Rapids",49307,"#cd0033"
"MI","Ann Arbor Municipal Airport","ARB",42.2229995728,-83.7455978394,"Ann Arbor",48108,"#cd0033"
"MI","W K Kellogg Airport","BTL",42.3073005676,-85.2515029907,"Battle Creek",49015,"#cd0033"
"MI","Alpena County Regional Airport","APN",45.0780983,-83.56030273,"Alpena",49707,"#cd0033"
"MI","Oscoda Wurtsmith Airport","OSC",44.451599,-83.394096,"Oscoda",48750,"#cd0033"
"MI","Lenawee County Airport","ADG",41.8676986694,-84.0773010254,"Adrian",49221,"#cd0033"
"MI","Tuscola Area Airport","TZC",43.458801269531,-83.445503234863,"Caro",48723,"#cd0033"
"MI","Jerry Tyler Memorial Airport","NLE",41.835899353027,-86.225196838379,"Niles",49120,"#cd0033"
"MI","Sawyer International Airport","MQT",46.3535995483,-87.395401001,"Gwinn",49841,"#cd0033"
"MI","Southwest Michigan Regional Airport","BEH",42.1286010742,-86.4284973145,"Benton Harbor",49022,"#cd0033"
"MI","Chippewa County International Airport","CIU",46.2508010864258,-84.4723968505859,"Kincheloe",49788,"#cd0033"
"MI","Willow Run Airport","YIP",42.23789978,-83.53040314,"Belleville",48111,"#cd0033"
"MI","Capital City Airport","LAN",42.7787017822266,-84.58740234375,"Lansing",48906,"#cd0033"
"MI","Oakland County International Airport","PTK",42.665500640869,-83.420097351074,"Waterford",48327,"#cd0033"
"MI","Gaylord Regional Airport","GLR",45.0135002136,-84.7035980225,"Gaylord",49735,"#cd0033"
"MI","Bishop International Airport","FNT",42.9654006958008,-83.7435989379883,"Flint",48507,"#cd0033"
"MI","Kalamazoo Battle Creek International Airport","AZO",42.2349014282227,-85.5521011352539,"Portage",49002,"#cd0033"
"MI","Mackinac Island Airport","MCD",45.86489868,-84.63729858,"Mackinac Island",49757,"#cd0033"
"MI","Roscommon County - Blodgett Memorial Airport","HTL",44.359798,-84.671095,"Houghton Lake",48629,"#cd0033"
"MI","Coleman A. Young Municipal Airport","DET",42.40919876,-83.00990295,"Detroit",48234,"#cd0033"
"MI","Nartron Field","RCT",43.9000015259,-85.5167007446,"Reed City",49677,"#cd0033"
"MI","Drummond Island Airport","DRE",46.0093002319,-83.7438964844,"Drummond Island",49726,"#cd0033"
"MI","Menominee Regional Airport","MNM",45.126701,-87.638397,"Menominee",49858,"#cd0033"
"MI","Gerald R. Ford International Airport","GRR",42.88079834,-85.52279663,"Grand Rapids",49512,"#cd0033"
"MI","Three Rivers Municipal Dr Haines Airport","HAI",41.9598007202,-85.5933990479,"Three Rivers",49093,"#cd0033"
"MI","Kirsch Municipal Airport","IRS",41.81330109,-85.43900299,"Sturgis",49091,"#cd0033"
"MI","Pellston Regional Airport of Emmet County Airport","PLN",45.57089996,-84.79669952,"Pellston",49769,"#cd0033"
"MI","Detroit Metropolitan Wayne County Airport","DTW",42.2123985290527,-83.353401184082,"Romulus",48174,"#cd0033"
"MI","Selfridge Air National Guard Base Airport","MTC",42.613463,-82.836919,"Harrison Township",48045,"#cd0033"
"MI","MBS International Airport","MBS",43.532901763916,-84.0795974731445,"Freeland",48623,"#cd0033"
"MI","Delta County Airport","ESC",45.7226982117,-87.0936965942,"Escanaba",49829,"#cd0033"
"MI","Gratiot Community Airport","AMN",43.322101593,-84.68800354,"Alma",48801,"#cd0033"
"MI","Antrim County Airport","ACB",44.988602,-85.198402,"Bellaire",49615,"#cd0033"
"MI","Muskegon County Airport","MKG",43.16949844,-86.23819733,"Muskegon",49441,"#cd0033"
"MI","St Clair County International Airport","PHN",42.9109993,-82.52890015,"Saint Clair",48079,"#cd0033"
"MI","Gladwin Zettel Memorial Airport","GDW",43.9706001282,-84.4749984741,"Gladwin",48624,"#cd0033"
"MI","Gogebic Iron County Airport","IWD",46.5275001526,-90.131401062,"Ironwood",49938,"#cd0033"
"MI","Berz-Macomb Airport","UIZ",42.6638984680176,-82.9654006958008,"Macomb",48044,"#cd0033"
"MI","Ford Airport","IMT",45.8184013367,-88.1145019531,"Kingsford",49802,"#cd0033"
"MI","Wexford County Airport","CAD",44.2752990723,-85.4188995361,"Cadillac",49601,"#cd0033"
"MI","Park Township Airport","HLM",42.7958984375,-86.1620025635,"Holland",49424,"#cd0033"
"MI","Cherry Capital Airport","TVC",44.7414016723633,-85.5821990966797,"Traverse City",49686,"#cd0033"
"MI","Iosco County Airport","ECA",44.312801,-83.422302,"East Tawas",48730,"#cd0033"
"MI","Mason County Airport","LDM",43.96250153,-86.40789795,"Ludington",49431,"#cd0033"
"MI","Houghton County Memorial Airport","CMX",47.168399810791,-88.4890975952148,"Calumet",49913,"#cd0033"
"MI","Jackson County Reynolds Field","JXN",42.2597999573,-84.4593963623,"Jackson",49202,"#cd0033"
"MI","Manistee Co Blacker Airport","MBL",44.2723999,-86.24690247,"Manistee",49660,"#cd0033"
"MN","Eveleth Virginia Municipal Airport","EVM",47.42509842,-92.49849701,"Eveleth",55734,"#02b4aa"
"MN","Flying Cloud Airport","FCM",44.8272018433,-93.4570999146,"Eden Prairie",55347,"#02b4aa"
"MN","Grand Marais Cook County Airport","GRM",47.8382987976,-90.3828964233,"Grand Marais",55604,"#02b4aa"
"MN","Southwest Minnesota Regional Airport - Marshall/Ryan Field","MML",44.45050049,-95.82189941,"Marshall",56258,"#02b4aa"
"MN","Montevideo Chippewa County Airport","MVE",44.969101,-95.710297,"Montevideo",56265,"#02b4aa"
"MN","Bemidji Regional Airport","BJI",47.50939941,-94.93370056,"Bemidji",56601,"#02b4aa"
"MN","St Paul Downtown Holman Field","STP",44.9345016479492,-93.0599975585938,"Saint Paul",55107,"#02b4aa"
"MN","Roseau Municipal Rudy Billberg Field","ROX",48.85599899,-95.6969986,"Roseau",56751,"#02b4aa"
"MN","Brainerd Lakes Regional Airport","BRD",46.39830017,-94.13809967,"Brainerd",56401,"#02b4aa"
"MN","Austin Municipal Airport","AUM",43.66500092,-92.93340302,"Austin",55912,"#02b4aa"
"MN","Grand Rapids Itasca Co-Gordon Newstrom field","GPZ",47.21110153,-93.50980377,"Grand Rapids",55744,"#02b4aa"
"MN","Range Regional Airport","HIB",47.38660049,-92.83899689,"Hibbing",55746,"#02b4aa"
"MN","Faribault Municipal Airport-Liz Wall Strohfus Field","FBL",44.32844,-93.312534,"Faribault",55021,"#02b4aa"
"MN","Stanton Airfield","SYN",44.4754981995,-93.0162963867,"Dennison",55018,"#02b4aa"
"MN","Willmar Municipal -John L Rice Field","ILL",45.11769867,-95.13040161,"Willmar",56201,"#02b4aa"
"MN","Crookston Municipal Kirkwood Field","CKN",47.8417015076,-96.62159729,"Crookston Junction",56716,"#02b4aa"
"MN","Park Rapids Municipal Konshok Field","PKD",46.9006,-95.073095,"Park Rapids",56470,"#02b4aa"
"MN","St Cloud Regional Airport","STC",45.5466003417969,-94.0598983764648,"Saint Cloud",56304,"#02b4aa"
"MN","Slayton Municipal Airport","NSL",43.986801147461,-95.782600402832,"Slayton",56172,"#02b4aa"
"MN","Duluth International Airport","DLH",46.8420982361,-92.1936035156,"Duluth",55811,"#02b4aa"
"MN","Detroit Lakes Airport - Wething Field","DTL",46.82519913,-95.88569641,"Detroit Lakes",56501,"#02b4aa"
"MN","Owatonna Degner Regional Airport","OWA",44.12340164,-93.26059723,"Owatonna",55060,"#02b4aa"
"MN","Baudette International Airport","BDE",48.7284011841,-94.612197876,"Baudette",56623,"#02b4aa"
"MN","Chandler Field","AXN",45.8662986755,-95.3946990967,"Alexandria",56308,"#02b4aa"
"MN","Fergus Falls Municipal Airport - Einar Mickelson Field","FFM",46.28440094,-96.15670013,"Fergus Falls",56537,"#02b4aa"
"MN","Falls International Airport","INL",48.5662002563477,-93.4030990600586,"International Falls",56649,"#02b4aa"
"MN","Minneapolis-St Paul International/Wold-Chamberlain Airport","MSP",44.882,-93.221802,"Minneapolis",55450,"#02b4aa"
"MN","Rochester International Airport","RST",43.9082984924316,-92.5,"Rochester",55902,"#02b4aa"
"MN","Fairmont Municipal Airport","FRM",43.643901825,-94.4156036377,"Fairmont",56031,"#02b4aa"
"MN","Redwood Falls Municipal Airport","RWF",44.54719925,-95.08229828,"Redwood Falls",56283,"#02b4aa"
"MN","Benson Municipal Airport","BBB",45.3319015503,-95.6505966187,"Benson",56215,"#02b4aa"
"MN","Thief River Falls Regional Airport","TVF",48.06570053,-96.18499756,"Thief River Falls",56701,"#02b4aa"
"MN","New Ulm Municipal Airport","ULM",44.319599151611,-94.502296447754,"New Ulm",56073,"#02b4aa"
"MN","Warroad International Memorial Airport","RRT",48.94139862,-95.3483963,"Warroad",56763,"#02b4aa"
"MN","Albert Lea Municipal Airport","AEL",43.68149948,-93.36720276,"Albert Lea",56007,"#02b4aa"
"MN","Ely Municipal Airport","LYU",47.82450104,-91.83070374,"Ely",55731,"#02b4aa"
"MO","Waynesville-St. Robert Regional Forney field","TBN",37.74160004,-92.14070129,"Fort Leonard Wood",65473,"#045494"
"MO","St Louis Lambert International Airport","STL",38.748697,-90.370003,"Saint Louis",63134,"#045494"
"MO","Rosecrans Memorial Airport","STJ",39.771900177002,-94.909698486328,"Saint Joseph",64503,"#045494"
"MO","Kansas City International Airport","MCI",39.2976,-94.713898,"Kansas City",64153,"#045494"
"MO","Jefferson City Memorial Airport","JEF",38.5912017822,-92.1560974121,"Holts Summit",65043,"#045494"
"MO","Omar N Bradley Airport","MBY",39.4639015198,-92.4270019531,"Moberly",65270,"#045494"
"MO","Malden Regional Airport","MAW",36.6006012,-89.99220276,"Malden",63863,"#045494"
"MO","Farmington Regional Airport","FAM",37.76110077,-90.4285965,"Farmington",63640,"#045494"
"MO","Kirksville Regional Airport","IRK",40.0934982299805,-92.5448989868164,"Kirksville",63501,"#045494"
"MO","Kennett Memorial Airport","KNT",36.2258987427,-90.0365982056,"Kennett",63857,"#045494"
"MO","Branson Airport","BKG",36.532082,-93.200544,"Hollister",65672,"#045494"
"MO","Cape Girardeau Regional Airport","CGI",37.2252998352051,-89.57080078125,"Scott City",63780,"#045494"
"MO","Joplin Regional Airport","JLN",37.151798248291,-94.4982986450195,"Webb City",64870,"#045494"
"MO","Columbia Regional Airport","COU",38.8181,-92.219597,"Columbia",65201,"#045494"
"MO","Lee C Fine Memorial Airport","AIZ",38.0960006714,-92.5494995117,"Brumley",65017,"#045494"
"MO","Sedalia Memorial Airport","DMO",38.7074012756,-93.1759033203,"Sedalia",65301,"#045494"
"MO","Charles B. Wheeler Downtown Airport","MKC",39.1231994628906,-94.5927963256836,"Kansas City",64116,"#045494"
"MO","Springfield Branson National Airport","SGF",37.24570084,-93.38860321,"Springfield",65803,"#045494"
"MO","Roy Otten Memorial Airfield","VRS",38.427799224854,-92.875198364258,"Versailles",65084,"#045494"
"MO","Spirit of St Louis Airport","SUS",38.662101745605,-90.652000427246,"Chesterfield",63005,"#045494"
"MO","Marshall Memorial Municipal Airport","MHL",39.0957984924,-93.2029037476,"Marshall",65340,"#045494"
"MO","Rolla National Airport","VIH",38.1273994446,-91.7695007324,"Vichy",65580,"#045494"
"MO","Butler Memorial Airport","BUM",38.2897987366,-94.3401031494,"Butler",64730,"#045494"
"MO","Poplar Bluff Municipal Airport","POF",36.773899078369,-90.324897766113,"Poplar Bluff",63901,"#045494"
"MO","Whiteman Air Force Base","SZL",38.73030090332,-93.547897338867,"Whiteman Air Force Base",65305,"#045494"
"MO","Richards-Gebaur Air Force Base","GVW",38.8442001342773,-94.5599975585938,"Belton",64012,"#045494"
"MO","M. Graham Clark Downtown Airport","PLK",36.62590027,-93.22889709,"Hollister",65672,"#045494"
"MO","Sikeston Memorial Municipal Airport","SIK",36.898899078369,-89.561798095703,"Sikeston",63801,"#045494"
"MO","Rolla Downtown Airport","RLA",37.9356994628906,-91.8134994506836,"Rolla",65401,"#045494"
"MS","Olive Branch Airport","OLV",34.9786987305,-89.7869033813,"Olive Branch",38654,"#de3f20"
"MS","Selfs Airport","MMS",34.2314987183,-90.2895965576,"Marks",38646,"#de3f20"
"MS","Hattiesburg Bobby L Chain Municipal Airport","HBG",31.26479912,-89.25279999,"Hattiesburg",39401,"#de3f20"
"MS","Key Field","MEI",32.3325996398926,-88.7518997192383,"Meridian",39307,"#de3f20"
"MS","Columbus Lowndes County Airport","UBS",33.4654006958,-88.3803024292,"Columbus",39702,"#de3f20"
"MS","Louisville Winston County Airport","LMS",33.1461982727,-89.0625,"Louisville",39339,"#de3f20"
"MS","Keesler Air Force Base","BIX",30.4104003906,-88.9244003296,"Biloxi",39531,"#de3f20"
"MS","Tunica Municipal Airport","UTM",34.680999755859,-90.346702575684,"Tunica",38676,"#de3f20"
"MS","Hattiesburg Laurel Regional Airport","PIB",31.4671001434326,-89.3370971679688,"Moselle",39459,"#de3f20"
"MS","University Oxford Airport","UOX",34.384300231934,-89.536796569824,"Oxford",38655,"#de3f20"
"MS","Jackson-Medgar Wiley Evers International Airport","JAN",32.3111991882,-90.0758972168,"Pearl",39208,"#de3f20"
"MS","Poplarville Pearl River County Airport","PCU",30.785999298096,-89.504501342773,"Poplarville",39470,"#de3f20"
"MS","Mid Delta Regional Airport","GLH",33.4828987121582,-90.9856033325195,"Metcalfe",38760,"#de3f20"
"MS","Fletcher Field","CKM",34.2997016907,-90.512298584,"Lyon",38645,"#de3f20"
"MS","Bruce Campbell Field","DXE",32.438702,-90.103104,"Madison",39110,"#de3f20"
"MS","Vicksburg Municipal Airport","VKS",32.23929977417,-90.928398132324,"Vicksburg",39180,"#de3f20"
"MS","Hardy-Anders Field / Natchez-Adams County Airport","HEZ",31.613738,-91.297313,"Natchez",39120,"#de3f20"
"MS","Mc Comb/Pike County Airport/John E Lewis Field","MCB",31.17849922,-90.47190094,"McComb",39648,"#de3f20"
"MS","Trent Lott International Airport","PGL",30.462799072266,-88.529197692871,"Moss Point",39563,"#de3f20"
"MS","Hesler Noble Field","LUL",31.6725997925,-89.172203064,"Laurel",39440,"#de3f20"
"MS","GreenwoodLeflore Airport","GWO",33.4943008423,-90.0847015381,"Greenwood",38930,"#de3f20"
"MS","Columbus Air Force Base","CBM",33.6437988281,-88.4438018799,"Columbus",39701,"#de3f20"
"MS","Golden Triangle Regional Airport","GTR",33.4502983093,-88.5914001465,"Columbus",39701,"#de3f20"
"MS","Hawkins Field","HKS",32.33449936,-90.22219849,"Jackson",39213,"#de3f20"
"MS","Tupelo Regional Airport","TUP",34.2681007385254,-88.7698974609375,"Tupelo",38801,"#de3f20"
"MS","Gulfport Biloxi International Airport","GPT",30.4073009490967,-89.0700988769531,"Gulfport",39501,"#de3f20"
"MS","Roscoe Turner Airport","CRX",34.9150009155,-88.6035003662,"Corinth",38834,"#de3f20"
"MT","Frank Wiley Field","MLS",46.4280014038086,-105.886001586914,"Miles City",59301,"#ff9d2f"
"MT","Lewistown Municipal Airport","LWT",47.0493011474609,-109.467002868652,"Lewistown",59457,"#ff9d2f"
"MT","Bert Mooney Airport","BTM",45.9547996520996,-112.497001647949,"Butte",59701,"#ff9d2f"
"MT","Dillon Airport","DLN",45.2554016113,-112.553001404,"Dillon",59725,"#ff9d2f"
"MT","Wokal Field Glasgow International Airport","GGW",48.212502,-106.614998,"Glasgow",59230,"#ff9d2f"
"MT","Roundup Airport","RPX",46.475095,-108.541497,"Roundup",59072,"#ff9d2f"
"MT","Gallatin Field","BZN",45.77750015,-111.1529999,"Belgrade",59714,"#ff9d2f"
"MT","Billings Logan International Airport","BIL",45.8077011108398,-108.542999267578,"Billings",59105,"#ff9d2f"
"MT","L M Clayton Airport","OLF",48.0945014954,-105.574996948,"Wolf Point",59201,"#ff9d2f"
"MT","Havre City County Airport","HVR",48.54299927,-109.762001,"Havre",59501,"#ff9d2f"
"MT","Malta Airport","MLK",48.3669013977,-107.918998718,"Malta",59538,"#ff9d2f"
"MT","Jordan Airport","JDN",47.3288002014,-106.95300293,"Jordan",59337,"#ff9d2f"
"MT","Shelby Airport","SBX",48.5406990051,-111.871002197,"Ethridge",59435,"#ff9d2f"
"MT","Mission Field","LVM",45.6994018555,-110.447998047,"Livingston",59047,"#ff9d2f"
"MT","Glacier Park International Airport","FCA",48.3105010986328,-114.255996704102,"Kalispell",59901,"#ff9d2f"
"MT","Missoula International Airport","MSO",46.91630173,-114.0910034,"Missoula",59808,"#ff9d2f"
"MT","Broadus Airport","BDX",45.47249985,-105.4540024,"Broadus",59317,"#ff9d2f"
"MT","Thompson Falls Airport","THM",47.573501586914,-115.28099822998,"Thompson Falls",59873,"#ff9d2f"
"MT","Helena Regional Airport","HLN",46.6068000793457,-111.983001708984,"Helena",59601,"#ff9d2f"
"MT","Sidney - Richland Regional Airport","SDY",47.706902,-104.193001,"Sidney",59270,"#ff9d2f"
"MT","Drummond Airport","DRU",46.6208,-113.205002,"Drummond",59832,"#ff9d2f"
"MT","Great Falls International Airport","GTF",47.48199844,-111.3710022,"Great Falls",59404,"#ff9d2f"
"MT","Malmstrom Air Force Base","GFA",47.504699707,-111.18699646,"Great Falls",59405,"#ff9d2f"
"MT","Yellowstone Airport","WYS",44.68840027,-111.1179962,"West Yellowstone",59758,"#ff9d2f"
"MT","Sher-Wood Airport","PWD",48.790298461914,-104.53399658203,"Plentywood",59254,"#ff9d2f"
"MT","Cut Bank International Airport","CTB",48.6083984375,-112.375999451,"Cut Bank",59427,"#ff9d2f"
"MT","Dawson Community Airport","GDV",47.13869858,-104.8069992,"Glendive",59330,"#ff9d2f"
"NC","Seymour Johnson Air Force Base","GSB",35.33940125,-77.96060181,"Goldsboro",27534,"#ff588c"
"NC","Wilmington International Airport","ILM",34.2705993652344,-77.9026031494141,"Wilmington",28405,"#ff588c"
"NC","Warren Field","OCW",35.570499420166,-77.049797058105,"Washington",27889,"#ff588c"
"NC","Pitt Greenville Airport","PGV",35.6352005,-77.38529968,"Greenville",27834,"#ff588c"
"NC","Kinston Regional Jetport At Stallings Field","ISO",35.331401825,-77.6088027954,"Kinston",28504,"#ff588c"
"NC","First Flight Airport","FFA",36.0181999207,-75.6713027954,"Kill Devil Hills",27948,"#ff588c"
"NC","Elizabeth City Regional Airport & Coast Guard Air Station","ECG",36.26060104,-76.17459869,"Elizabeth City",27909,"#ff588c"
"NC","Raleigh Durham International Airport","RDU",35.8776016235352,-78.7874984741211,"Raleigh",27617,"#ff588c"
"NC","Laurinburg Maxton Airport","MXE",34.791901,-79.365799,"Laurinburg",28352,"#ff588c"
"NC","Charlotte Douglas International Airport","CLT",35.2140007019043,-80.9430999755859,"Charlotte",28208,"#ff588c"
"NC","Sampson County Airport","CTZ",34.9756011963,-78.3646011353,"Clinton",28328,"#ff588c"
"NC","Northeastern Regional Airport","EDE",36.0276985168,-76.5671005249,"Edenton",27932,"#ff588c"
"NC","Billy Mitchell Airport","HNC",35.232799530029,-75.617797851562,"Frisco",27936,"#ff588c"
"NC","Mackall Army Air Field","HFF",35.036288,-79.497755,"Hoffman",28347,"#ff588c"
"NC","Mid-Carolina Regional Airport","SRW",35.645901,-80.520302,"Salisbury",28147,"#ff588c"
"NC","Pine Island Airport","DUF",36.2535018921,-75.7884979248,"Corolla",27927,"#ff588c"
"NC","Simmons Army Air Field","FBG",35.13180161,-78.93669891,"Cumberland",28331,"#ff588c"
"NC","Triangle North Executive Airport","LFN",36.0233,-78.330299,"Louisburg",27549,"#ff588c"
"NC","Albert J Ellis Airport","OAJ",34.8292007446,-77.6120986938,"Richlands",28574,"#ff588c"
"NC","Statesville Regional Airport","SVH",35.765300750732,-80.953903198242,"Statesville",28677,"#ff588c"
"NC","Halifax County Airport","RZZ",36.4394989014,-77.7092971802,"Roanoke Rapids",27870,"#ff588c"
"NC","Concord-Padgett Regional Airport","USA",35.387798,-80.709099,"Concord",28027,"#ff588c"
"NC","Asheville Regional Airport","AVL",35.4361991882324,-82.5418014526367,"Fletcher",28732,"#ff588c"
"NC","Pope Field","POB",35.1708984375,-79.014503479004,"Pope Air Force Base",28308,"#ff588c"
"NC","Lumberton Regional Airport","LBT",34.6099014282,-79.0594024658,"Lumberton",28358,"#ff588c"
"NC","Hickory Regional Airport","HKY",35.74110031,-81.38950348,"Hickory",28601,"#ff588c"
"NC","Wilkes County Airport","IKB",36.2228012085,-81.0982971191,"North Wilkesboro",28659,"#ff588c"
"NC","Moore County Airport","SOP",35.23740005,-79.3911972,"Carthage",28327,"#ff588c"
"NC","Rocky Mount Wilson Regional Airport","RWI",35.8563003540039,-77.8918991088867,"Elm City",27822,"#ff588c"
"NC","Foothills Regional Airport","MRN",35.820202,-81.611397,"Chesterfield",28655,"#ff588c"
"NC","Fayetteville Regional Grannis Field","FAY",34.9911994934082,-78.8803024291992,"Fayetteville",28306,"#ff588c"
"NC","Coastal Carolina Regional Airport","EWN",35.0730018616,-77.0429000854,"New Bern",28560,"#ff588c"
"NC","Dare County Regional Airport","MEO",35.91899872,-75.69550323,"Manteo",27954,"#ff588c"
"NC","Wilgrove Air Park","QWG",35.2137985229,-80.6700973511,"Charlotte",28215,"#ff588c"
"NC","Smith Reynolds Airport","INT",36.1337013244629,-80.2220001220703,"Winston-Salem",27105,"#ff588c"
"NC","Piedmont Triad International Airport","GSO",36.0978012084961,-79.9373016357422,"Greensboro",27410,"#ff588c"
"ND","Pembina Municipal Airport","PMB",48.9425010681,-97.2407989502,"Pembina",58271,"#008654"
"ND","Sloulin Field International Airport","ISN",48.177898407,-103.641998291,"Williston",58801,"#008654"
"ND","Grand Forks International Airport","GFK",47.949299,-97.176102,"Grand Forks",58203,"#008654"
"ND","Minot Air Force Base","MIB",48.4156,-101.358002,"Minot Afb",58705,"#008654"
"ND","Jamestown Regional Airport","JMS",46.92969894,-98.67819977,"Jamestown",58401,"#008654"
"ND","Dickinson Theodore Roosevelt Regional Airport","DIK",46.7974014282,-102.802001953,"Dickinson",58601,"#008654"
"ND","Harry Stern Airport","WAH",46.2440986633,-96.6073989868,"Wahpeton",58075,"#008654"
"ND","Bismarck Municipal Airport","BIS",46.7727012634277,-100.746002197266,"Bismarck",58504,"#008654"
"ND","Devils Lake Regional Airport","DVL",48.11420059,-98.90879822,"Devils Lake",58301,"#008654"
"ND","Tioga Municipal Airport","VEX",48.38050079,-102.8980026,"Tioga",58852,"#008654"
"ND","Hector International Airport","FAR",46.9207000732422,-96.815803527832,"Fargo",58102,"#008654"
"ND","Ashley Municipal Airport","ASY",46.0238990784,-99.3526000977,"Ashley",58413,"#008654"
"ND","Minot International Airport","MOT",48.2593994140625,-101.279998779297,"Minot",58703,"#008654"
"ND","Bowman Regional Airport","BWM",46.1655193,-103.30075,"Buffalo Springs",58623,"#008654"
"ND","Grand Forks Air Force Base","RDR",47.961101532,-97.4011993408,"Mekinock",58258,"#008654"
"NE","Alliance Municipal Airport","AIA",42.0531997681,-102.804000854,"Alliance",69301,"#b2a5ff"
"NE","Brewster Field","HDE",40.452099,-99.336502,"Holdrege",68949,"#b2a5ff"
"NE","Miller Field","VTN",42.85779953,-100.5479965,"Valentine",69201,"#b2a5ff"
"NE","North Platte Regional Airport Lee Bird Field","LBF",41.12620163,-100.6839981,"Maxwell",69151,"#b2a5ff"
"NE","Arapahoe Municipal Airport","AHF",40.3395004272,-99.90650177,"Elwood",68937,"#b2a5ff"
"NE","Broken Bow Municipal Airport","BBW",41.4365005493,-99.6421966553,"Broken Bow",68822,"#b2a5ff"
"NE","The O'Neill Municipal John L Baker Field","ONL",42.469898,-98.688103,"Oneill",68763,"#b2a5ff"
"NE","Eppley Airfield","OMA",41.3032,-95.894096,"Omaha",68110,"#b2a5ff"
"NE","Fremont Municipal Airport","FET",41.44910049,-96.52020264,"Fremont",68025,"#b2a5ff"
"NE","Ainsworth Regional Airport","ANW",42.579201,-99.992995,"Johnstown",69214,"#b2a5ff"
"NE","Garden County Airport/King Rhiley Field","OKS",41.401001,-102.355003,"Oshkosh",69154,"#b2a5ff"
"NE","Chadron Municipal Airport","CDR",42.837600708,-103.095001221,"Chadron",69337,"#b2a5ff"
"NE","Western Neb. Rgnl/William B. Heilig Airport","BFF",41.87400055,-103.5960007,"Scottsbluff",69361,"#b2a5ff"
"NE","Browns Airport","EPG",40.8675003052,-96.1100006104,"Weeping Water",68463,"#b2a5ff"
"NE","Kearney Regional Airport","EAR",40.72700119,-99.00679779,"Kearney",68847,"#b2a5ff"
"NE","Beatrice Municipal Airport","BIE",40.3013000488,-96.7540969849,"Beatrice",68310,"#b2a5ff"
"NE","Mc Cook Ben Nelson Regional Airport","MCK",40.20629883,-100.5920029,"Mc Cook",69001,"#b2a5ff"
"NE","Jim Kelly Field","LXN",40.7910003662,-99.7772979736,"Lexington",68850,"#b2a5ff"
"NE","Hooker County Airport","MHN",42.042155,-101.059113,"Mullen",69152,"#b2a5ff"
"NE","Sidney Municipal-Lloyd W Carr Field","SNY",41.10129929,-102.9850006,"Sidney",69162,"#b2a5ff"
"NE","Searle Field","OGA",41.11949921,-101.7699966,"Big Springs",69122,"#b2a5ff"
"NE","Karl Stefan Memorial Airport","OFK",41.985500335693,-97.435096740723,"Norfolk",68701,"#b2a5ff"
"NE","Scribner State Airport","SCB",41.610298156738,-96.629898071289,"Scribner",68057,"#b2a5ff"
"NE","Hastings Municipal Airport","HSI",40.6053009033,-98.4279022217,"Hastings",68901,"#b2a5ff"
"NE","Offutt Air Force Base","OFF",41.118301391602,-95.912498474121,"Omaha",68113,"#b2a5ff"
"NE","Lincoln Airport","LNK",40.851001739502,-96.7592010498047,"Lincoln",68524,"#b2a5ff"
"NE","Cram Field","BUB",41.7766990662,-99.1496963501,"Burwell",68823,"#b2a5ff"
"NE","Central Nebraska Regional Airport","GRI",40.9674987792969,-98.3096008300781,"Grand Island",68801,"#b2a5ff"
"NE","Imperial Municipal Airport","IML",40.50930023,-101.6210022,"Imperial",69033,"#b2a5ff"
"NE","Fairbury Municipal Airport","FBY",40.1829986572,-97.1692962646,"Fairbury",68352,"#b2a5ff"
"NE","Gordon Municipal Airport","GRN",42.8059997559,-102.175003052,"Gordon",69343,"#b2a5ff"
"NH","Concord Municipal Airport","CON",43.20270157,-71.50229645,"Concord",3301,"#7b3b72"
"NH","Mount Washington Regional Airport","HIE",44.367637,-71.544502,"Whitefield",3598,"#7b3b72"
"NH","Laconia Municipal Airport","LCI",43.5727005005,-71.4188995361,"Gilford",3249,"#7b3b72"
"NH","Boire Field","ASH",42.7817001343,-71.5148010254,"Nashua",3063,"#7b3b72"
"NH","Errol Airport","ERR",44.7924995422,-71.1641998291,"Errol",3579,"#7b3b72"
"NH","Claremont Municipal Airport","CNH",43.3703994751,-72.3686981201,"Claremont",3743,"#7b3b72"
"NH","Berlin Regional Airport","BML",44.57540131,-71.17590332,"Milan",3588,"#7b3b72"
"NH","Jaffrey Airport Silver Ranch Airport","AFN",42.8050994873,-72.0029983521,"Jaffrey",3452,"#7b3b72"
"NH","Lebanon Municipal Airport","LEB",43.6260986328,-72.3041992188,"West Lebanon",3784,"#7b3b72"
"NH","Portsmouth International at Pease Airport","PSM",43.0778999329,-70.8233032227,"Portsmouth",3801,"#7b3b72"
"NH","Manchester-Boston Regional Airport","MHT",42.932598,-71.435699,"Manchester",3103,"#7b3b72"
"NH","Dillant Hopkins Airport","EEN",42.8983993530273,-72.2707977294922,"Keene",3431,"#7b3b72"
"NJ","Monmouth Executive Airport","BLM",40.18690109,-74.12490082,"Farmingdale",7727,"#bdcf6e"
"NJ","South Jersey Regional Airport","LLY",39.9429016113,-74.845703125,"Lumberton",8048,"#bdcf6e"
"NJ","Mc Guire Air Force Base","WRI",40.0155983,-74.59169769,"Trenton",8641,"#bdcf6e"
"NJ","Central Jersey Regional Airport","JVI",40.5243988037,-74.5983963013,"Hillsborough",8844,"#bdcf6e"
"NJ","Newark Liberty International Airport","EWR",40.6925010681152,-74.168701171875,"Newark",7114,"#bdcf6e"
"NJ","Asbury Park Neptune Air Terminal","ARX",40.2193055556,-74.0908333333,"Neptune",7753,"#bdcf6e"
"NJ","Morristown Municipal Airport","MMU",40.7994003295898,-74.4149017333984,"Florham Park",7932,"#bdcf6e"
"NJ","Princeton Airport","PCT",40.3992004395,-74.6588973999,"Princeton",8540,"#bdcf6e"
"NJ","Lakehurst Maxfield Field Airport","NEL",40.03329849,-74.353302,"Ridgeway",8733,"#bdcf6e"
"NJ","Teterboro Airport","TEB",40.8501014709,-74.060798645,"Teterboro",7608,"#bdcf6e"
"NJ","Trenton Mercer Airport","TTN",40.2766990661621,-74.8134994506836,"Trenton",8628,"#bdcf6e"
"NJ","Cape May County Airport","WWD",39.0084991455,-74.9083023071,"Rio Grande",8242,"#bdcf6e"
"NJ","Atlantic City Municipal Bader Field","AIY",39.3600006104,-74.4561004639,"Atlantic City",8401,"#bdcf6e"
"NJ","Millville Municipal Airport","MIV",39.367802,-75.072197,"Millville",8332,"#bdcf6e"
"NJ","Linden Airport","LDJ",40.617401123,-74.2445983887,"Linden",7036,"#bdcf6e"
"NJ","Atlantic City International Airport","ACY",39.4575996398926,-74.5772018432617,"Egg Harbor City",8215,"#bdcf6e"
"NJ","Ocean County Airport","MJX",39.92750168,-74.29239655,"Toms River",8757,"#bdcf6e"
"NJ","Essex County Airport","CDW",40.8751983643,-74.2814025879,"Fairfield",7004,"#bdcf6e"
"NM","Clayton Municipal Airpark","CAO",36.4462013245,-103.166999817,"Clayton",88415,"#ff7abf"
"NM","Holloman Air Force Base","HMN",32.8525009155,-106.107002258,"Holloman Air Force Base",88330,"#ff7abf"
"NM","Artesia Municipal Airport","ATS",32.8525009155,-104.468002319,"Artesia",88210,"#ff7abf"
"NM","Roswell International Air Center Airport","ROW",33.3016014099121,-104.53099822998,"Roswell",88203,"#ff7abf"
"NM","Clovis Municipal Airport","CVN",34.4250984192,-103.07900238,"Texico",88135,"#ff7abf"
"NM","Las Vegas Municipal Airport","LVS",35.6542015076,-105.141998291,"Las Vegas",87701,"#ff7abf"
"NM","Truth Or Consequences Municipal Airport","TCS",33.2369003296,-107.272003174,"Elephant Butte",87935,"#ff7abf"
"NM","Cannon Air Force Base","CVS",34.3828010559,-103.321998596,"Clovis",88101,"#ff7abf"
"NM","Taos Regional Airport","TSM",36.45819855,-105.6719971,"Taos",87571,"#ff7abf"
"NM","Los Alamos Airport","LAM",35.8797988892,-106.268997192,"Los Alamos",87544,"#ff7abf"
"NM","Angel Fire Airport","AXX",36.422000885,-105.290000916,"Angel Fire",87710,"#ff7abf"
"NM","Santa Fe Municipal Airport","SAF",35.617099762,-106.088996887,"Santa Fe",87507,"#ff7abf"
"NM","Lea County Regional Airport","HOB",32.6875,-103.2170029,"Hobbs",88240,"#ff7abf"
"NM","Sierra Blanca Regional Airport","RUI",33.462799072266,-105.53500366211,"Fort Stanton",88323,"#ff7abf"
"NM","Raton Municipal-Crews Field","RTN",36.74150085,-104.5019989,"Raton",87740,"#ff7abf"
"NM","Deming Municipal Airport","DMN",32.262298584,-107.721000671,"Deming",88030,"#ff7abf"
"NM","Cavern City Air Terminal","CNM",32.3375015258789,-104.263000488281,"Carlsbad",88220,"#ff7abf"
"NM","Grants-Milan Municipal Airport","GNT",35.167301178,-107.902000427,"Milan",87021,"#ff7abf"
"NM","Alamogordo White Sands Regional Airport","ALM",32.8399009705,-105.990997314,"Alamogordo",88310,"#ff7abf"
"NM","Condron Army Air Field","WSD",32.34149933,-106.4029999,"White Sands Missile Range",88002,"#ff7abf"
"NM","Grant County Airport","SVC",32.6365013122559,-108.15599822998,"Silver City",88062,"#ff7abf"
"NM","Fort Sumner Municipal Airport","FSU",34.4833984375,-104.217002869,"Fort Sumner",88119,"#ff7abf"
"NM","Industrial Airpark","HBB",32.7668,-103.209,"Hobbs",88240,"#ff7abf"
"NM","Gallup Municipal Airport","GUP",35.511100769,-108.789001465,"Gallup",87301,"#ff7abf"
"NM","Tucumcari Municipal Airport","TCC",35.182800293,-103.602996826,"Tucumcari",88401,"#ff7abf"
"NM","Las Cruces International Airport","LRU",32.2893981933594,-106.921997070312,"Las Cruces",88007,"#ff7abf"
"NM","Lordsburg Municipal Airport","LSB",32.3334999084,-108.692001343,"Lordsburg",88045,"#ff7abf"
"NM","Four Corners Regional Airport","FMN",36.7411994934,-108.230003357,"Farmington",87401,"#ff7abf"
"NM","Ohkay Owingeh Airport","ESO",36.0299987793,-106.04599762,"Espanola",87532,"#ff7abf"
"NM","Albuquerque International Sunport","ABQ",35.040199,-106.609001,"Albuquerque",87106,"#ff7abf"
"NV","Minden-Tahoe Airport","MEV",39.00030136,-119.7509995,"Minden",89423,"#c27b00"
"NV","Henderson Executive Airport","HSH",35.9728012085,-115.134002686,"Henderson",89052,"#c27b00"
"NV","Reno Tahoe International Airport","RNO",39.4990997314453,-119.767997741699,"Reno",89502,"#c27b00"
"NV","Wells Municipal Airport/Harriet Field","LWL",41.117099762,-114.92199707,"Wells",89835,"#c27b00"
"NV","Derby Field","LOL",40.0663986206,-118.565002441,"Lovelock",89419,"#c27b00"
"NV","Winnemucca Municipal Airport","WMC",40.8965988159,-117.805999756,"Winnemucca",89445,"#c27b00"
"NV","Yerington Municipal Airport","EYR",39.0041007996,-119.157997131,"Yerington",89447,"#c27b00"
"NV","Nellis Air Force Base","LSV",36.2361984253,-115.033996582,"Las Vegas",89115,"#c27b00"
"NV","North Las Vegas Airport","VGT",36.21070098877,-115.19400024414,"North Las Vegas",89032,"#c27b00"
"NV","Mesquite Airport","MFH",36.83499908,-114.0550003,"Mesquite",89027,"#c27b00"
"NV","Creech Air Force Base","INS",36.5872001648,-115.672996521,"Indian Springs",89018,"#c27b00"
"NV","Gabbs Airport","GAB",38.9240989685,-117.958999634,"Gabbs",89409,"#c27b00"
"NV","Fallon Naval Air Station","NFL",39.41659927,-118.7009964,"Fallon",89406,"#c27b00"
"NV","Jackpot Airport/Hayden Field","KPT",41.9760017395,-114.657997131,"Jackpot",89825,"#c27b00"
"NV","Desert Rock Airport","DRA",36.6194,-116.032997,"Pahrump",89041,"#c27b00"
"NV","Yucca Airstrip","UCC",36.94580078125,-116.03800201416,"Pahrump",89041,"#c27b00"
"NV","Boulder City Municipal Airport","BLD",35.9474983215,-114.861000061,"Boulder City",89005,"#c27b00"
"NV","Tonopah Airport","TPH",38.06019974,-117.086998,"Tonopah",89049,"#c27b00"
"NV","Hawthorne Industrial Airport","HTH",38.544399,-118.634002,"Hawthorne",89415,"#c27b00"
"NV","McCarran International Airport","LAS",36.08010101,-115.1520004,"Las Vegas",89119,"#c27b00"
"NV","Carson Airport","CSN",39.192199707,-119.73400116,"Carson City",89706,"#c27b00"
"NV","Elko Regional Airport","EKO",40.8249015808105,-115.791999816895,"Elko",89801,"#c27b00"
"NV","Austin Airport","ASQ",39.467998,-117.195,"Ione",89310,"#c27b00"
"NV","Fallon Municipal Airport","FLX",39.4990997314,-118.749000549,"Fallon",89406,"#c27b00"
"NV","Battle Mountain Airport","BAM",40.5989990234,-116.874000549,"Rixies",89820,"#c27b00"
"NV","Eureka Airport","EUE",39.6041984558,-116.004997253,"Eureka",89316,"#c27b00"
"NV","Ely Airport Yelland Field","ELY",39.29970169,-114.8420029,"Ely",89301,"#c27b00"
"NV","Beatty Airport","BTY",36.8610992432,-116.787002563,"Rhyolite",89003,"#c27b00"
"NV","Lathrop Wells Airport / Jackass Aeropark","LTH",36.6342,-116.4135,"Amargosa Valley",89020,"#c27b00"
"NV","Tonopah Test Range Airport","XSD",37.7988014221,-116.78099823,"Mercury",89023,"#c27b00"
"NY","Greater Binghamton/Edwin A Link field","BGM",42.20869827,-75.97979736,"Johnson City",13790,"#08601f"
"NY","West 30th St. Heliport","JRA",40.754501,-74.007103,"New York",10001,"#08601f"
"NY","Flushing Airport","FLU",40.7787017822266,-73.8326034545898,"Whitestone",11357,"#08601f"
"NY","Ogdensburg International Airport","OGS",44.6819000244,-75.4654998779,"Ogdensburg",13669,"#08601f"
"NY","Grumman Bethpage Airport","BPA",40.7494010925,-73.4960021973,"Bethpage",11714,"#08601f"
"NY","Long Island Mac Arthur Airport","ISP",40.79520035,-73.10019684,"Ronkonkoma",11779,"#08601f"
"NY","Lt Warren Eaton Airport","OIC",42.566600799561,-75.524101257324,"Norwich",13815,"#08601f"
"NY","Sidney Municipal Airport","SXY",42.302600860596,-75.416000366211,"Bainbridge",13733,"#08601f"
"NY","Canandaigua Airport","IUA",42.908902,-77.325226,"Canandaigua",14424,"#08601f"
"NY","Downtown-Manhattan/Wall St Heliport","JRB",40.70119858,-74.00900269,"New York",10004,"#08601f"
"NY","Cortland County Chase Field","CTX",42.59260178,-76.21489716,"Cortland",13045,"#08601f"
"NY","John F Kennedy International Airport","JFK",40.63980103,-73.77890015,"Jamaica",11430,"#08601f"
"NY","Sullivan County International Airport","MSV",41.701596,-74.794997,"Swan Lake",12783,"#08601f"
"NY","Griffiss International Airport","RME",43.23379898,-75.40699768,"Rome",13440,"#08601f"
"NY","Francis S Gabreski Airport","FOK",40.8437004089,-72.6317977905,"Westhampton Beach",11978,"#08601f"
"NY","Pan Am Building Heliport","JPB",40.7533,-73.9765,"New York",10017,"#08601f"
"NY","Syracuse Hancock International Airport","SYR",43.111198425293,-76.1063003540039,"Syracuse",13211,"#08601f"
"NY","Buffalo Niagara International Airport","BUF",42.94049835,-78.73220062,"Buffalo",14225,"#08601f"
"NY","Orange County Airport","MGJ",41.50999832,-74.26460266,"Montgomery",12549,"#08601f"
"NY","Brookhaven Airport","WSH",40.8218994141,-72.8694000244,"Shirley",11967,"#08601f"
"NY","Massena International Richards Field","MSS",44.9357986450195,-74.8455963134766,"Massena",13662,"#08601f"
"NY","Calverton Executive Airpark","CTO",40.9151000977,-72.7919006348,"Calverton",11933,"#08601f"
"NY","Ithaca Tompkins Regional Airport","ITH",42.4910011291504,-76.4583969116211,"Ithaca",14850,"#08601f"
"NY","Chautauqua County-Jamestown Airport","JHW",42.15340042,-79.25800323,"Jamestown",14701,"#08601f"
"NY","Chautauqua County-Dunkirk Airport","DKK",42.49330139,-79.27200317,"Dunkirk",14048,"#08601f"
"NY","Adirondack Regional Airport","SLK",44.3852996826172,-74.2061996459961,"Saranac Lake",12983,"#08601f"
"NY","Albany International Airport","ALB",42.7482986450195,-73.8016967773438,"Latham",12110,"#08601f"
"NY","New York Skyports Inc Seaplane Base","QNY",40.734001,-73.9729,"New York",10002,"#08601f"
"NY","Dutchess County Airport","POU",41.6265983581543,-73.8842010498047,"Wappingers Falls",12590,"#08601f"
"NY","Elizabeth Field","FID",41.2513008118,-72.0316009521,"Fishers Island",6390,"#08601f"
"NY","Republic Airport","FRG",40.7288017273,-73.4133987427,"Amityville",11701,"#08601f"
"NY","Dansville Municipal Airport","DSV",42.5708999634,-77.7130966187,"Dansville",14437,"#08601f"
"NY","New York Stewart International Airport","SWF",41.504101,-74.104797,"Newburgh",12550,"#08601f"
"NY","Lake Placid Airport","LKP",44.2644996643,-73.9618988037,"Lake Placid",12946,"#08601f"
"NY","Columbia County Airport","HCC",42.2913017273,-73.7102966309,"Ghent",12075,"#08601f"
"NY","Oneida County Airport","UCA",43.1450996398926,-75.383903503418,"Oriskany",13424,"#08601f"
"NY","Schenectady County Airport","SCH",42.852500915527,-73.928901672363,"Schenectady",12302,"#08601f"
"NY","La Guardia Airport","LGA",40.77719879,-73.87259674,"East Elmhurst",11369,"#08601f"
"NY","Plattsburgh International Airport","PBG",44.6509017944336,-73.4681015014648,"Cliff Haven",12901,"#08601f"
"NY","Cooperstown-Westville Airport","COP",42.6291999817,-74.8909988403,"Cooperstown",13326,"#08601f"
"NY","East Hampton Airport","HTO",40.95959854,-72.25180054,"East Hampton",11937,"#08601f"
"NY","Greater Rochester International Airport","ROC",43.1189002990723,-77.6724014282227,"Rochester",14624,"#08601f"
"NY","Montauk Airport","MTP",41.0765,-71.920797,"Montauk",11954,"#08601f"
"NY","Niagara Falls International Airport","IAG",43.1072998046875,-78.9461975097656,"Niagara Falls",14304,"#08601f"
"NY","Watertown International Airport","ART",43.9919013977051,-76.0216979980469,"Dexter",13634,"#08601f"
"NY","Clinton County Airport","PLB",44.6875,-73.5244979858398,"Morrisonville",12962,"#08601f"
"NY","Deer Park Airport","DPK",40.76,-73.31,"Deer Park",11729,"#08601f"
"NY","Westchester County Airport","HPN",41.0670013427734,-73.7076034545898,"West Harrison",10604,"#08601f"
"NY","Elmira Corning Regional Airport","ELM",42.1599006652832,-76.8916015625,"Horseheads",14845,"#08601f"
"NY","Floyd Bennett Memorial Airport","GFL",43.3412017822,-73.6102981567,"Hudson Falls",12839,"#08601f"
"NY","Zahn's Airport","AYZ",40.71,-73.4,"Amityville",11701,"#08601f"
"NY","Maxson Airfield","AXB",44.312002,-75.90034,"Alexandria Bay",13607,"#08601f"
"NY","Wellsville Municipal Arpt,Tarantine Field","ELZ",42.10950089,-77.98999786,"Wellsville",14895,"#08601f"
"NY","Rouses Point Seaplane Base","RSX",44.99169921875,-73.363502502441,"Rouses Point",12979,"#08601f"
"NY","East 34th Street Heliport","TSS",40.7425994873047,-73.9720993041992,"New York",10016,"#08601f"
"OH","Cuyahoga County Airport","CGF",41.5651016235,-81.4863967896,"Cleveland",44143,"#ff6539"
"OH","James M Cox Dayton International Airport","DAY",39.902400970459,-84.2193984985352,"Vandalia",45377,"#ff6539"
"OH","Akron Fulton International Airport","AKC",41.0374984741,-81.4669036865,"Akron",44306,"#ff6539"
"OH","Rickenbacker International Airport","LCK",39.813801,-82.927803,"Columbus",43217,"#ff6539"
"OH","Butler Co Regional Airport - Hogan Field","HAO",39.3638000488,-84.5220031738,"Fairfield",45014,"#ff6539"
"OH","Greater Portsmouth Regional Airport","PMH",38.8404998779,-82.8472976685,"Wheelersburg",45694,"#ff6539"
"OH","Northeast Ohio Regional Airport","JFN",41.7779998779,-80.6955032349,"Jefferson",44047,"#ff6539"
"OH","Wilmington Airpark","ILN",39.427898407,-83.792098999,"Wilmington",45177,"#ff6539"
"OH","Akron Canton Regional Airport","CAK",40.9160995483398,-81.4421997070312,"Canton",44720,"#ff6539"
"OH","Cleveland Hopkins International Airport","CLE",41.4117012024,-81.8498001099,"Cleveland",44135,"#ff6539"
"OH","Toledo Executive Airport","TDZ",41.56489944,-83.4822998,"Walbridge",43465,"#ff6539"
"OH","Galion Municipal Airport","GQQ",40.7533988953,-82.7238006592,"Galion",44833,"#ff6539"
"OH","Griffing Sandusky Airport","SKY",41.4333992004,-82.6522979736,"Sandusky",44870,"#ff6539"
"OH","Findlay Airport","FDY",41.0135002136,-83.6687011719,"Findlay",45840,"#ff6539"
"OH","Wayne County Airport","BJJ",40.8748016357,-81.8882980347,"Smithville",44677,"#ff6539"
"OH","Burke Lakefront Airport","BKL",41.5175018310547,-81.6832962036133,"Cleveland",44114,"#ff6539"
"OH","Casement Airport","PVZ",41.7336006165,-81.2192001343,"Painesville",44077,"#ff6539"
"OH","Dayton-Wright Brothers Airport","MGY",39.5890007019,-84.224899292,"Springboro",45066,"#ff6539"
"OH","Cincinnati Municipal Airport Lunken Field","LUK",39.10329819,-84.41860199,"Cincinnati",45226,"#ff6539"
"OH","The Ohio State University Airport - Don Scott Field","OSU",40.0798,-83.072998,"Columbus",43235,"#ff6539"
"OH","Willoughby Lost Nation Municipal Airport","LNN",41.6839981079,-81.3897018433,"Mentor",44060,"#ff6539"
"OH","Lima Allen County Airport","AOH",40.706902,-84.026703,"Lima",45804,"#ff6539"
"OH","Springfield-Beckley Municipal Airport","SGH",39.840301513672,-83.840202331543,"Springfield",45502,"#ff6539"
"OH","Ohio University Snyder Field","ATO",39.2109985352,-82.2313995361,"Albany",45710,"#ff6539"
"OH","Wright Field","DWF",39.78,-84.1044444444,"Dayton",45431,"#ff6539"
"OH","Zanesville Municipal Airport","ZZV",39.9444007874,-81.8920974731,"Zanesville",43701,"#ff6539"
"OH","Lawrence County Airpark","HTW",38.4193,-82.494301,"South Point",45680,"#ff6539"
"OH","Harry Clever Field","PHD",40.470901489258,-81.419700622559,"New Philadelphia",44663,"#ff6539"
"OH","Toledo Express Airport","TOL",41.58679962,-83.80780029,"Swanton",43558,"#ff6539"
"OH","Wright-Patterson Air Force Base","FFO",39.8260993958,-84.0483016968,"Dayton",45433,"#ff6539"
"OH","John Glenn Columbus International Airport","CMH",39.998001,-82.891899,"Columbus",43219,"#ff6539"
"OH","Miami University Airport","OXD",39.50230026,-84.78440094,"Oxford",45056,"#ff6539"
"OH","Youngstown Warren Regional Airport","YNG",41.26070023,-80.67910004,"Vienna",44473,"#ff6539"
"OH","Marion Municipal Airport","MNN",40.6161994934,-83.0634994507,"Marion",43302,"#ff6539"
"OH","Neil Armstrong Airport","AXV",40.49340057,-84.29889679,"New Knoxville",45871,"#ff6539"
"OH","Defiance Memorial Airport","DFI",41.3375015259,-84.4288024902,"Defiance",43512,"#ff6539"
"OH","Middletown Regional Airport","MWO",39.530998,-84.395302,"Middletown",45042,"#ff6539"
"OH","Mansfield Lahm Regional Airport","MFD",40.8213996887,-82.5166015625,"Mansfield",44903,"#ff6539"
"OK","El Reno Regional Airport","RQO",35.47269821,-98.00579834,"El Reno",73036,"#007667"
"OK","Guthrie-Edmond Regional Airport","GOK",35.84980011,-97.41560364,"Guthrie",73044,"#007667"
"OK","Gage Airport","GAG",36.295501709,-99.7763977051,"Gage",73843,"#007667"
"OK","Halliburton Field","DUC",34.47090149,-97.9598999,"Duncan",73533,"#007667"
"OK","Hobart Regional Airport","HBR",34.991317,-99.051313,"Hobart",73651,"#007667"
"OK","Tulsa International Airport","TUL",36.1983985900879,-95.8880996704102,"Tulsa",74115,"#007667"
"OK","Antlers Municipal Airport","ATE",34.1926002502,-95.6499023438,"Antlers",74523,"#007667"
"OK","Bartlesville Municipal Airport","BVO",36.76250076,-96.01119995,"Glenpool",74033,"#007667"
"OK","Grand Lake Regional Airport","NRI",36.577598571777,-94.86190032959,"Afton",74331,"#007667"
"OK","Hatbox Field","HAX",35.7458992004,-95.4128036499,"Muskogee",74401,"#007667"
"OK","Elk City Regional Business Airport","ELK",35.43080139,-99.39430237,"Elk City",73644,"#007667"
"OK","Frederick Regional Airport","FDR",34.35200119,-98.98390198,"Frederick",73542,"#007667"
"OK","Downtown Airpark","DWN",35.449183,-97.532989,"Oklahoma City",73108,"#007667"
"OK","Earl Henry Airport","BWL",36.7958984375,-97.3170013428,"Blackwell",74631,"#007667"
"OK","Ponca City Regional Airport","PNC",36.73199844,-97.09980011,"Ponca City",74601,"#007667"
"OK","Guymon Municipal Airport","GUY",36.6851005554,-101.508003235,"Guymon",73942,"#007667"
"OK","Shawnee Regional Airport","SNL",35.357898712158,-96.942802429199,"Shawnee",74801,"#007667"
"OK","Ardmore Municipal Airport","ADM",34.30301,-97.0196342,"Ardmore",73401,"#007667"
"OK","Altus Quartz Mountain Regional Airport","AXS",34.697952,-99.3385,"Altus",73521,"#007667"
"OK","Ardmore Downtown Executive Airport","AHD",34.1469993591,-97.1227035522,"Ardmore",73401,"#007667"
"OK","Clinton Sherman Airport","CSM",35.3398017883,-99.2005004883,"Burns Flat",73624,"#007667"
"OK","Enid Woodring Regional Airport","WDG",36.3791999817,-97.7910995483,"Enid",73701,"#007667"
"OK","Tinker Air Force Base","TIK",35.414699554443,-97.386596679688,"Oklahoma City",73135,"#007667"
"OK","Chickasha Municipal Airport","CHK",35.09740067,-97.96769714,"Chickasha",73018,"#007667"
"OK","Eaker Field","DUA",33.94229889,-96.39450073,"Durant",74701,"#007667"
"OK","Kegelman AF Aux Field","CKA",36.7439002991,-98.1231002808,"Vining",73749,"#007667"
"OK","University of Oklahoma Westheimer Airport","OUN",35.2456,-97.472099,"Norman",73069,"#007667"
"OK","Lawton Fort Sill Regional Airport","LAW",34.5676994324,-98.4166030884,"Lawton",73505,"#007667"
"OK","Vance Air Force Base","END",36.3391990662,-97.9164962769,"Enid",73703,"#007667"
"OK","Stillwater Regional Airport","SWO",36.161201477051,-97.08570098877,"Stillwater",74075,"#007667"
"OK","West Woodward Airport","WWR",36.438,-99.5226667,"Woodward",73802,"#007667"
"OK","Henry Post Army Air Field (Fort Sill)","FSI",34.64979935,-98.40219879,"Fort Sill",73503,"#007667"
"OK","Ada Regional Airport","ADT",34.804298,-96.671303,"Ada",74820,"#007667"
"OK","Wiley Post Airport","PWA",35.53419876,-97.64710236,"Bethany",73008,"#007667"
"OK","Stan Stamper Municipal Airport","HUJ",34.03480148,-95.54190063,"Hugo",74743,"#007667"
"OK","Richard Lloyd Jones Jr Airport","RVS",36.039600372314,-95.984596252441,"Tulsa",74132,"#007667"
"OK","Cushing Municipal Airport","CUH",35.9499015808,-96.7731018066,"Cushing",74023,"#007667"
"OK","Will Rogers World Airport","OKC",35.3931007385254,-97.600700378418,"Oklahoma City",73159,"#007667"
"OK","Okmulgee Regional Airport","OKM",35.668098449707,-95.948699951172,"Okmulgee",74447,"#007667"
"OK","Mc Alester Regional Airport","MLC",34.882401,-95.783501,"McAlester",74501,"#007667"
"OK","Clinton Regional Airport","CLK",35.53829956,-98.93270111,"Clinton",73601,"#007667"
"OK","Stroud Municipal Airport","SUD",35.789600372314,-96.655700683594,"Stroud",74079,"#007667"
"OK","Altus Air Force Base","LTS",34.667098999,-99.2667007446,"Altus",73521,"#007667"
"OR","Ontario Municipal Airport","ONO",44.020500183105,-117.01399993896,"Ontario",97914,"#ad0040"
"OR","Gold Beach Municipal Airport","GOL",42.41339874,-124.4240036,"Gold Beach",97444,"#ad0040"
"OR","Mahlon Sweet Field","EUG",44.1245994567871,-123.21199798584,"Eugene",97402,"#ad0040"
"OR","Rogue Valley International Medford Airport","MFR",42.3741989135742,-122.873001098633,"Medford",97504,"#ad0040"
"OR","Brookings Airport","BOK",42.0746,-124.290001,"Brookings",97415,"#ad0040"
"OR","Newport Municipal Airport","ONP",44.580399,-124.057999,"South Beach",97366,"#ad0040"
"OR","Ashland Municipal Sumner Parker Field","AHM",42.1902999878,-122.661003113,"Ashland",97520,"#ad0040"
"OR","Florence Municipal Airport","FMU",43.98279953,-124.111000061,"Florence",97439,"#ad0040"
"OR","Salem Municipal Airport/McNary Field","SLE",44.90950012,-123.0029984,"Salem",97302,"#ad0040"
"OR","Burns Municipal Airport","BNO",43.5918998718,-118.955001831,"Burns",97720,"#ad0040"
"OR","Crater Lake-Klamath Regional Airport","LMT",42.156101,-121.733002,"Klamath Falls",97603,"#ad0040"
"OR","Prineville Airport","PRZ",44.286998748779,-120.90399932861,"Prineville",97754,"#ad0040"
"OR","Corvallis Municipal Airport","CVO",44.49720001,-123.2900009,"Corvallis",97333,"#ad0040"
"OR","Cascade Locks State Airport","CZK",45.6768989563,-121.878997803,"Cascade Locks",97014,"#ad0040"
"OR","Chiloquin State Airport","CHZ",42.579440493,-121.879062653,"Chiloquin",97624,"#ad0040"
"OR","Lake County Airport","LKV",42.1610984802,-120.399002075,"Lakeview",97630,"#ad0040"
"OR","Sunriver Airport","SUO",43.8763008118,-121.45300293,"Bend",97707,"#ad0040"
"OR","Grants Pass Airport","GTP",42.510101,-123.388,"Grants Pass",97526,"#ad0040"
"OR","Baker City Municipal Airport","BKE",44.8372993469,-117.808998108,"Baker City",97814,"#ad0040"
"OR","Roseburg Regional Airport","RBG",43.2388000488,-123.356002808,"Roseburg",97470,"#ad0040"
"OR","Southwest Oregon Regional Airport","OTH",43.4170989990234,-124.246002197266,"North Bend",97459,"#ad0040"
"OR","Portland Troutdale Airport","TTD",45.54940032959,-122.40100097656,"Troutdale",97060,"#ad0040"
"OR","Portland International Airport","PDX",45.58869934,-122.5979996,"Portland",97218,"#ad0040"
"OR","Madras Municipal Airport","MDJ",44.67020035,-121.1549988,"Madras",97741,"#ad0040"
"OR","Rome State Airport","REO",42.5777015686,-117.885002136,"Jordan Valley",97910,"#ad0040"
"OR","Astoria Regional Airport","AST",46.158000946,-123.878997803,"Warrenton",97146,"#ad0040"
"OR","Hermiston Municipal Airport","HES",45.828223,-119.259024,"Hermiston",97838,"#ad0040"
"OR","Eastern Oregon Regional At Pendleton Airport","PDT",45.695098877,-118.841003418,"Pendleton",97801,"#ad0040"
"OR","Grant Co Regional/Ogilvie Field","JDA",44.40420151,-118.9629974,"John Day",97845,"#ad0040"
"OR","La Grande/Union County Airport","LGD",45.2901992798,-118.007003784,"La Grande",97850,"#ad0040"
"OR","Bandon State Airport","BDY",43.08649826,-124.4079971,"Bandon",97411,"#ad0040"
"OR","Tillamook Airport","OTK",45.4182014465,-123.814002991,"Tillamook",97141,"#ad0040"
"OR","Portland Hillsboro Airport","HIO",45.540401,-122.949997,"Hillsboro",97124,"#ad0040"
"OR","Pacific City State Airport","PFC",45.199798584,-123.961997986,"Pacific City",97135,"#ad0040"
"OR","Roberts Field","RDM",44.2541008,-121.1500015,"Redmond",97756,"#ad0040"
"PA","Altoona Blair County Airport","AOO",40.29639816,-78.31999969,"Martinsburg",16662,"#a2d39a"
"PA","Stroudsburg Pocono Airport","ESP",41.0358009338,-75.1605987549,"East Stroudsburg",18301,"#a2d39a"
"PA","Port Meadville Airport","MEJ",41.62649918,-80.21469879,"Meadville",16335,"#a2d39a"
"PA","Arnold Palmer Regional Airport","LBE",40.27590179,-79.40480042,"Latrobe",15650,"#a2d39a"
"PA","Hazleton Municipal Airport","HZL",40.9868011475,-75.9949035645,"Hazleton",18202,"#a2d39a"
"PA","Philadelphia Seaplane Base","PSQ",39.859001159668,-75.299598693848,"Essington",19029,"#a2d39a"
"PA","Lancaster Airport","LNS",40.1217002868652,-76.2960968017578,"Lititz",17543,"#a2d39a"
"PA","Allegheny County Airport","AGC",40.3544006347656,-79.9301986694336,"West Mifflin",15122,"#a2d39a"
"PA","Pocono Mountains Municipal Airport","MPO",41.137503,-75.378897,"Tobyhanna",18466,"#a2d39a"
"PA","Indiana County/Jimmy Stewart Fld/ Airport","IDI",40.63219833,-79.10549927,"Indiana",15701,"#a2d39a"
"PA","Northeast Philadelphia Airport","PNE",40.081902,-75.010597,"Philadelphia",19114,"#a2d39a"
"PA","Wings Field","BBX",40.1375007629,-75.2650985718,"Blue Bell",19422,"#a2d39a"
"PA","Bradford Regional Airport","BFD",41.8031005859375,-78.6400985717773,"Lewis Run",16738,"#a2d39a"
"PA","Beaver County Airport","BFP",40.7724990845,-80.3914031982,"Beaver Falls",15010,"#a2d39a"
"PA","DuBois Regional Airport","DUJ",41.17829895,-78.8986969,"Reynoldsville",15851,"#a2d39a"
"PA","Venango Regional Airport","FKL",41.3778991699,-79.8603973389,"Franklin",16323,"#a2d39a"
"PA","Pittsburgh/Butler Regional Airport","BTP",40.776901,-79.949699,"Butler",16002,"#a2d39a"
"PA","Williamsport Regional Airport","IPT",41.2417984008789,-76.9210968017578,"Montoursville",17754,"#a2d39a"
"PA","Chester County G O Carlson Airport","CTH",39.97900009,-75.8655014,"Coatesville",19320,"#a2d39a"
"PA","Birchwood-Pocono Airport","ESP",41.0643,-75.2521,"East Stroudsburg",18301,"#a2d39a"
"PA","William T. Piper Memorial Airport","LHV",41.13560104,-77.42230225,"Lock Haven",17745,"#a2d39a"
"PA","Wilkes Barre Scranton International Airport","AVP",41.3385009766,-75.7233963013,"Pittston",18641,"#a2d39a"
"PA","Heritage Field","PTW",40.239601,-75.556702,"Pottstown",19464,"#a2d39a"
"PA","Washington County Airport","WSG",40.1365013123,-80.2901992798,"Washington",15301,"#a2d39a"
"PA","Erie International Tom Ridge Field","ERI",42.0831270134,-80.1738667488,"Erie",16505,"#a2d39a"
"PA","Pittsburgh International Airport","PIT",40.49150085,-80.23290253,"Imperial",15126,"#a2d39a"
"PA","Penn Valley Airport","SEG",40.820598602295,-76.863899230957,"Selinsgrove",17870,"#a2d39a"
"PA","Capital City Airport","HAR",40.2170982361,-76.8515014648,"New Cumberland",17070,"#a2d39a"
"PA","Quakertown Airport","UKT",40.435199737549,-75.381896972656,"Quakertown",18951,"#a2d39a"
"PA","Harrisburg International Airport","MDT",40.1935005188,-76.7633972168,"Middletown",17057,"#a2d39a"
"PA","Doylestown Airport","DYL",40.3330001831,-75.1222991943,"Doylestown",18902,"#a2d39a"
"PA","Wilkes Barre Wyoming Valley Airport","WBW",41.2971992493,-75.8511962891,"Wyoming",18644,"#a2d39a"
"PA","Greene County Airport","WAY",39.90010071,-80.13310242,"Waynesburg",15370,"#a2d39a"
"PA","York Airport","THV",39.91699982,-76.8730011,"Thomasville",17364,"#a2d39a"
"PA","Scranton Municipal Airport.","SCR",41.4802,-75.772,"Clarks Summit",18411,"#a2d39a"
"PA","John Murtha Johnstown Cambria County Airport","JST",40.3161010742188,-78.8339004516602,"Johnstown",15904,"#a2d39a"
"PA","Lehigh Valley International Airport","ABE",40.652099609375,-75.440803527832,"Allentown",18109,"#a2d39a"
"PA","Philadelphia International Airport","PHL",39.871898651123,-75.241096496582,"Philadelphia",19113,"#a2d39a"
"PA","Muir Army Air Field (Fort Indiantown Gap) Airport","MUI",40.434799,-76.569397,"Annville",17003,"#a2d39a"
"PA","University Park Airport","SCE",40.8493003845,-77.8487014771,"Bellefonte",16823,"#a2d39a"
"PA","Gettysburg Regional Airport","GTY",39.84090042,-77.27420044,"Gettysburg",17325,"#a2d39a"
"PA","St Marys Municipal Airport","STQ",41.412498474121,-78.502601623535,"Saint Marys",15857,"#a2d39a"
"PA","Splane Memorial Airport","OIL",41.4813,-79.7449,"Oil City",16301,"#a2d39a"
"PA","Mifflin County Airport","RED",40.6773986816,-77.6268005371,"Reedsville",17084,"#a2d39a"
"PA","Reading Regional Carl A Spaatz Field","RDG",40.3785018920898,-75.965202331543,"Reading",19605,"#a2d39a"
"RI","North Central State Airport","SFZ",41.9207992554,-71.4914016724,"Smithfield",2917,"#9f2026"
"RI","Quonset State Airport","NCO",41.597099304199,-71.412101745605,"North Kingstown",2852,"#9f2026"
"RI","Westerly State Airport","WST",41.3496017456,-71.8033981323,"Westerly",2891,"#9f2026"
"RI","Newport State Airport","NPT",41.5323982239,-71.28150177,"Middletown",2842,"#9f2026"
"RI","Block Island State Airport","BID",41.1680984497,-71.577796936,"Block Island",2807,"#9f2026"
"RI","Theodore Francis Green State Airport","PVD",41.732601,-71.420403,"Warwick",2889,"#9f2026"
"SC","Grand Strand Airport","CRE",33.8116989136,-78.7238998413,"North Myrtle Beach",29582,"#4e6500"
"SC","Hilton Head Airport","HHH",32.2243995667,-80.6975021362,"Hilton Head Island",29926,"#4e6500"
"SC","Orangeburg Municipal Airport","OGB",33.456798553467,-80.859497070312,"Orangeburg",29115,"#4e6500"
"SC","Woodward Field","CDN",34.2835998535,-80.5649032593,"Camden",29020,"#4e6500"
"SC","Cheraw Municipal Airport/Lynch Bellinger Field","HCW",34.71289825,-79.95700073,"Cheraw",29520,"#4e6500"
"SC","Anderson Regional Airport","AND",34.4945983887,-82.7093963623,"Anderson",29626,"#4e6500"
"SC","Myrtle Beach International Airport","MYR",33.6796989441,-78.9282989502,"Myrtle Beach",29577,"#4e6500"
"SC","Marlboro County Jetport H.E. Avent Field","BTN",34.62170029,-79.73439789,"Bennettsville",29512,"#4e6500"
"SC","Robert F Swinnie Airport","ADR",33.4516983032,-79.5261993408,"Andrews",29510,"#4e6500"
"SC","Hartsville Regional Airport","HVS",34.4030990601,-80.1192016602,"Hartsville",29550,"#4e6500"
"SC","Beaufort County Airport","BFT",32.4122009277,-80.6343994141,"Ladys Island",29907,"#4e6500"
"SC","Florence Regional Airport","FLO",34.1853981018066,-79.7238998413086,"Florence",29506,"#4e6500"
"SC","Barnwell Regional Airport","BNL",33.25780106,-81.38829803,"Barnwell",29812,"#4e6500"
"SC","Mc Entire Joint National Guard Base","MMT",33.92079926,-80.80130005,"Eastover",29044,"#4e6500"
"SC","Shaw Air Force Base","SSC",33.97269821,-80.47059631,"Sumter",29152,"#4e6500"
"SC","Columbia Metropolitan Airport","CAE",33.9388008117676,-81.119499206543,"West Columbia",29170,"#4e6500"
"SC","Lowcountry Regional Airport","RBW",32.9210014343,-80.6406021118,"Walterboro",29488,"#4e6500"
"SC","Donaldson Field Airport","GDC",34.758301,-82.376404,"Greenville",29605,"#4e6500"
"SC","Spartanburg Downtown Memorial Airport","SPA",34.915699005127,-81.956497192383,"Roebuck",29376,"#4e6500"
"SC","Charleston Air Force Base-International Airport","CHS",32.89860153,-80.04049683,"Charleston Afb",29404,"#4e6500"
"SC","Greenville Downtown Airport","GMU",34.8479003906,-82.3499984741,"Greenville",29607,"#4e6500"
"SC","Aiken Regional Airport","AIK",33.649399,-81.684998,"Aiken",29801,"#4e6500"
"SC","Jim Hamilton L.B. Owens Airport","CUB",33.970500946,-80.9952011108,"Columbia",29205,"#4e6500"
"SC","Rock Hill - York County Airport","RKH",34.9878006,-81.05719757,"Rock Hill",29732,"#4e6500"
"SC","Oconee County Regional Airport","CEU",34.6719017,-82.8864975,"Seneca",29678,"#4e6500"
"SC","Georgetown County Airport","GGE",33.3116989136,-79.3196029663,"Georgetown",29440,"#4e6500"
"SC","Greenwood County Airport","GRD",34.2486991882,-82.1591033936,"Greenwood",29649,"#4e6500"
"SC","Pickens County Airport","LQK",34.8100013733,-82.7029037476,"Liberty",29657,"#4e6500"
"SC","Dillon County Airport","DLL",34.4491004944,-79.368598938,"Dillon",29536,"#4e6500"
"SC","Sumter Airport","SUM",33.994998931885,-80.361297607422,"Sumter",29153,"#4e6500"
"SC","Greenville Spartanburg International Airport","GSP",34.8956985474,-82.2189025879,"Greer",29651,"#4e6500"
"SD","Pine Ridge Airport","XPR",43.0224990845,-102.511001587,"Pine Ridge",57770,"#ce96be"
"SD","Huron Regional Airport","HON",44.3852005004883,-98.2285003662109,"Huron",57350,"#ce96be"
"SD","Joe Foss Field Airport","FSD",43.5820007324,-96.741897583,"Sioux Falls",57104,"#ce96be"
"SD","Mobridge Municipal Airport","MBG",45.54650116,-100.4079971,"Mobridge",57601,"#ce96be"
"SD","Black Hills Airport-Clyde Ice Field","SPF",44.48030090332,-103.78299713135,"Spearfish",57783,"#ce96be"
"SD","Chan Gurney Municipal Airport","YKN",42.916698455811,-97.385902404785,"Yankton",57078,"#ce96be"
"SD","Rapid City Regional Airport","RAP",44.0452995300293,-103.056999206543,"Rapid City",57703,"#ce96be"
"SD","Pierre Regional Airport","PIR",44.38270187,-100.2860031,"Pierre",57501,"#ce96be"
"SD","Brookings Regional Airport","BKX",44.304798,-96.816902,"Brookings",57006,"#ce96be"
"SD","Canton Municipal Airport","CTK",43.308899,-96.570999,"Canton",57013,"#ce96be"
"SD","Madison Municipal Airport","XMD",44.01599884,-97.08589935,"Madison",57042,"#ce96be"
"SD","Mitchell Municipal Airport","MHE",43.7747993469,-98.0385971069,"Mitchell",57301,"#ce96be"
"SD","Britton Municipal Airport","TTO",45.815200805664,-97.743103027344,"Britton",57430,"#ce96be"
"SD","Ellsworth Air Force Base","RCA",44.14500046,-103.1039963,"Ellsworth Afb",57706,"#ce96be"
"SD","Watertown Regional Airport","ATY",44.91400146,-97.15470123,"Watertown",57201,"#ce96be"
"SD","Philip Airport","PHP",44.048599243164,-101.59899902344,"Philip",57567,"#ce96be"
"SD","Lemmon Municipal Airport","LEM",45.9187011719,-102.106002808,"Lemmon",57638,"#ce96be"
"SD","Aberdeen Regional Airport","ABR",45.4491004943848,-98.4217987060547,"Aberdeen",57401,"#ce96be"
"TN","Rockwood Municipal Airport","RKW",35.9222984314,-84.6896972656,"Mount Vernon",37854,"#917c00"
"TN","Memphis International Airport","MEM",35.0424003601074,-89.9766998291016,"Memphis",38118,"#917c00"
"TN","McMinn County Airport","MMI",35.39730072,-84.56259918,"Athens",37303,"#917c00"
"TN","Arnold Air Force Base","TUH",35.39260101,-86.08580017,"Manchester",37355,"#917c00"
"TN","Everett-Stewart Regional Airport","UCY",36.38180161,-88.98539734,"Union City",38261,"#917c00"
"TN","Marion County Brown Field","APT",35.060699,-85.585297,"Jasper",37347,"#917c00"
"TN","Gatlinburg-Pigeon Forge Airport","GKT",35.85779953,-83.5287017822,"Sevierville",37862,"#917c00"
"TN","Greeneville-Greene County Municipal Airport","GCY",36.19300079,-82.81510162,"Greeneville",37745,"#917c00"
"TN","Lovell Field","CHA",35.0353012084961,-85.2037963867188,"Chattanooga",37421,"#917c00"
"TN","Tullahoma Regional Arpt/Wm Northern Field","THA",35.38010025,-86.24639893,"Tullahoma",37388,"#917c00"
"TN","Tri-Cities Regional TN/VA Airport","TRI",36.475201,-82.407401,"Blountville",37617,"#917c00"
"TN","Franklin County Airport","UOS",35.205101013184,-85.898101806641,"Sewanee",37375,"#917c00"
"TN","Centerville Municipal Airport","GHM",35.8373985291,-87.4453964233,"Centerville",37033,"#917c00"
"TN","Maury County Airport","MRC",35.5541000366,-87.1789016724,"Mount Pleasant",38474,"#917c00"
"TN","Fayetteville Municipal Airport","FYM",35.0597000122,-86.5640029907,"Fayetteville",37334,"#917c00"
"TN","Arlington Municipal Airport","LHC",35.2831001281738,-89.6725006103516,"Arlington",38002,"#917c00"
"TN","Nashville International Airport","BNA",36.1245002746582,-86.6781997680664,"Nashville",37217,"#917c00"
"TN","Millington-Memphis Airport","NQA",35.356701,-89.8703,"Millington",38054,"#917c00"
"TN","Crossville Memorial Whitson Field","CSV",35.9513015747,-85.0849990845,"Crossville",38555,"#917c00"
"TN","Warren County Memorial Airport","RNC",35.69869995,-85.84380341,"McMinnville",37110,"#917c00"
"TN","McGhee Tyson Airport","TYS",35.81100082,-83.9940033,"Louisville",37777,"#917c00"
"TN","ClarksvilleMontgomery County Regional Airport","CKV",36.6218986511,-87.4150009155,"Clarksville",37042,"#917c00"
"TN","Smyrna Airport","MQY",36.0089988708,-86.5201034546,"La Vergne",37086,"#917c00"
"TN","Bomar Field Shelbyville Municipal Airport","SYI",35.56010056,-86.44249725,"Shelbyville",37160,"#917c00"
"TN","McKellar-Sipes Regional Airport","MKL",35.599899,-88.915604,"Jackson",38301,"#917c00"
"TN","Henry County Airport","PHT",36.3381996155,-88.3828964233,"Paris",38242,"#917c00"
"TX","Southeast Texas Regional Airport","BPT",29.9507999420166,-94.0206985473633,"Beaumont",77705,"#ff846c"
"TX","Texas Gulf Coast Regional Airport","LJN",29.1086006165,-95.462097168,"Angleton",77515,"#ff846c"
"TX","William P Hobby Airport","HOU",29.64539909,-95.27890015,"Houston",77061,"#ff846c"
"TX","Chase Field Industrial Airport","NIR",28.362444,-97.661917,"Beeville",78102,"#ff846c"
"TX","Jasper County Airport-Bell Field","JAS",30.88570023,-94.03489685,"Jasper",75951,"#ff846c"
"TX","El Paso International Airport","ELP",31.80719948,-106.3779984,"El Paso",79925,"#ff846c"
"TX","Coleman Municipal Airport","COM",31.8411006927,-99.4036026001,"Coleman",76834,"#ff846c"
"TX","Alice International Airport","ALI",27.7409000397,-98.0269012451,"Alice",78332,"#ff846c"
"TX","Kerrville Municipal Louis Schreiner Field","ERV",29.9766998291,-99.0857009888,"Kerrville",78028,"#ff846c"
"TX","Conroe-North Houston Regional Airport","CXO",30.351801,-95.414497,"Conroe",77303,"#ff846c"
"TX","Fort Stockton Pecos County Airport","FST",30.9157009125,-102.916000366,"Fort Stockton",79735,"#ff846c"
"TX","Corpus Christi International Airport","CRP",27.7703990936279,-97.5011978149414,"Corpus Christi",78406,"#ff846c"
"TX","Gainesville Municipal Airport","GLE",33.6514015198,-97.1969985962,"Gainesville",76240,"#ff846c"
"TX","North Texas Regional Airport/Perrin Field","PNX",33.714099884,-96.6736984253,"Pottsboro",75076,"#ff846c"
"TX","Marfa Municipal Airport","MRF",30.371099,-104.017997,"Marfa",79843,"#ff846c"
"TX","Hale County Airport","PVW",34.168098449707,-101.71700286865,"Plainview",79072,"#ff846c"
"TX","Fort Worth Meacham International Airport","FTW",32.819801,-97.362396,"Fort Worth",76106,"#ff846c"
"TX","Del Rio International Airport","DRT",29.3742008209,-100.927001953,"Del Rio",78840,"#ff846c"
"TX","Culberson County Airport","VHN",31.057800292969,-104.78399658203,"Van Horn",79855,"#ff846c"
"TX","Perry Lefors Field","PPA",35.612998962402,-100.99600219727,"Pampa",79066,"#ff846c"
"TX","Wharton Regional Airport","WHT",29.2542991638,-96.1544036865,"Wharton",77488,"#ff846c"
"TX","Lackland Air Force Base","SKF",29.38419914,-98.58110046,"San Antonio",78243,"#ff846c"
"TX","Dallas Executive Airport","RBD",32.6809005737,-96.8682022095,"Dallas",75237,"#ff846c"
"TX","Victoria Regional Airport","VCT",28.8526000976562,-96.9185028076172,"Victoria",77904,"#ff846c"
"TX","Childress Municipal Airport","CDS",34.4337997437,-100.288002014,"Childress",79201,"#ff846c"
"TX","A L Mangham Jr. Regional Airport","OCH",31.57799911,-94.70950317,"Nacogdoches",75964,"#ff846c"
"TX","Alpine Casparis Municipal Airport","ALE",30.3841991425,-103.683998108,"Alpine",79830,"#ff846c"
"TX","Angelina County Airport","LFK",31.2339992523,-94.75,"Diboll",75941,"#ff846c"
"TX","David Wayne Hooks Memorial Airport","DWH",30.0618000031,-95.5528030396,"Spring",77379,"#ff846c"
"TX","NAS Fort Worth JRB/Carswell Field","FWH",32.76919937,-97.4414978,"Fort Worth",76108,"#ff846c"
"TX","Dallas Fort Worth International Airport","DFW",32.896801,-97.038002,"Dallas",75261,"#ff846c"
"TX","Palacios Municipal Airport","PSX",28.727500915527,-96.250999450684,"Palacios",77465,"#ff846c"
"TX","Skylark Field","ILE",31.0858001709,-97.6865005493,"Killeen",76543,"#ff846c"
"TX","Cherokee County Airport","JKV",31.8693008423,-95.2173995972,"Jacksonville",75766,"#ff846c"
"TX","Stephenville Clark Regional Airport","SEP",32.215301513672,-98.177696228027,"Stephenville",76401,"#ff846c"
"TX","Austin Robert Mueller Municipal","AUS",30.2987223546,-97.6997852325,"Austin",78723,"#ff846c"
"TX","Baytown Airport","HPY",29.7861003876,-94.9526977539,"Baytown",77521,"#ff846c"
"TX","Majors Airport","GVT",33.0677986145,-96.0652999878,"Greenville",75402,"#ff846c"
"TX","Eagle Air Park","BZT",28.982200622559,-95.579696655273,"Brazoria",77422,"#ff846c"
"TX","Sugar Land Regional Airport","SGR",29.622299194336,-95.65650177002,"Sugar Land",77498,"#ff846c"
"TX","Bay City Municipal Airport","BBC",28.9733009338,-95.8635025024,"Bay City",77414,"#ff846c"
"TX","Garner Field","UVA",29.2112998962,-99.743598938,"Uvalde",78801,"#ff846c"
"TX","Huntsville Regional Airport","HTV",30.7469005585,-95.5871963501,"Huntsville",77320,"#ff846c"
"TX","TSTC Waco Airport","CNW",31.6378002167,-97.0740966797,"Waco",76705,"#ff846c"
"TX","Addison Airport","ADS",32.9686012268,-96.8364028931,"Addison",75001,"#ff846c"
"TX","Big Spring Mc Mahon-Wrinkle Airport","HCA",32.212601,-101.522003,"Big Spring",79720,"#ff846c"
"TX","Kimble County Airport","JCT",30.5112991333,-99.7634963989,"Junction",76849,"#ff846c"
"TX","Iraan Municipal Airport","IRB",30.9057006836,-101.891998291,"Iraan",79744,"#ff846c"
"TX","Tradewind Airport","TDW",35.1698989868,-101.825996399,"Amarillo",79118,"#ff846c"
"TX","LBJ Ranch Airport","JCY",30.2518005371,-98.6224975586,"Stonewall",78671,"#ff846c"
"TX","Fort Worth Alliance Airport","AFW",32.9875984192,-97.3188018799,"Fort Worth",76177,"#ff846c"
"TX","Ben Bruce Memorial Airpark","EVA",30.3209991455,-94.0735015869,"Evadale",77615,"#ff846c"
"TX","Biggs Army Air Field (Fort Bliss)","BIF",31.84950066,-106.3799973,"El Paso",79918,"#ff846c"
"TX","Dallas Love Field","DAL",32.847099,-96.851799,"Dallas",75235,"#ff846c"
"TX","Valley International Airport","HRL",26.2285003662109,-97.6544036865234,"Harlingen",78550,"#ff846c"
"TX","Tyler Pounds Regional Airport","TYR",32.3540992736816,-95.4023971557617,"Tyler",75704,"#ff846c"
"TX","Maverick County Memorial International Airport","EGP",28.85720062,-100.512001,"Normandy",78875,"#ff846c"
"TX","Clear Lake Metroport","CLC",29.5555,-95.1383,"Webster",77598,"#ff846c"
"TX","Midland International Airport","MAF",31.9424991607666,-102.202003479004,"Midland",79706,"#ff846c"
"TX","Mc Allen Miller International Airport","MFE",26.17580032,-98.23860168,"McAllen",78503,"#ff846c"
"TX","Scholes International At Galveston Airport","GLS",29.2653007507324,-94.8603973388672,"Galveston",77554,"#ff846c"
"TX","Stephens County Airport","BKD",32.71900177,-98.8909988403,"Breckenridge",76424,"#ff846c"
"TX","Crane County Airport","CCG",31.4151000977,-102.362998962,"Crane",79731,"#ff846c"
"TX","Coulter Field","CFD",30.7157001495,-96.3313980103,"Bryan",77808,"#ff846c"
"TX","Draughon Miller Central Texas Regional Airport","TPL",31.1525001525879,-97.4077987670898,"Temple",76501,"#ff846c"
"TX","Cox Field","PRX",33.636600494385,-95.450798034668,"Paris",75461,"#ff846c"
"TX","Easterwood Field","CLL",30.58860016,-96.36380005,"College Station",77845,"#ff846c"
"TX","Parker County Airport","WEA",32.7462997437,-97.6824035645,"Weatherford",76087,"#ff846c"
"TX","Palestine Municipal Airport","PSN",31.779699325562,-95.706298828125,"Palestine",75803,"#ff846c"
"TX","Hood Army Air Field","HLR",31.1387004852,-97.7145004272,"Killeen",76544,"#ff846c"
"TX","Aransas County Airport","RKP",28.0867996216,-97.0446014404,"Rockport",78382,"#ff846c"
"TX","Abilene Regional Airport","ABI",32.4113006592,-99.6819000244,"Abilene",79602,"#ff846c"
"TX","Sheppard Air Force Base-Wichita Falls Municipal Airport","SPS",33.9888,-98.491898,"Wichita Falls",76306,"#ff846c"
"TX","Houston Gulf Airport","SPX",29.50830078125,-95.051399230957,"League City",77573,"#ff846c"
"TX","East Texas Regional Airport","GGG",32.3839988708496,-94.7115020751953,"Longview",75603,"#ff846c"
"TX","Rick Husband Amarillo International Airport","AMA",35.219398,-101.706001,"Amarillo",79111,"#ff846c"
"TX","DLF Airport","DLF",29.359501,-100.778002,"Laughlin A F B",78843,"#ff846c"
"TX","Brownsville South Padre Island International Airport","BRO",25.9067993164062,-97.4259033203125,"Brownsville",78521,"#ff846c"
"TX","Waco Regional Airport","ACT",31.6112995147705,-97.2304992675781,"Waco",76708,"#ff846c"
"TX","Austin Bergstrom International Airport","AUS",30.1944999694824,-97.6698989868164,"Austin",78719,"#ff846c"
"TX","Kickapoo Downtown Airport","KIP",33.85779953,-98.49040222,"Wichita Falls",76302,"#ff846c"
"TX","Eastland Municipal Airport","ETN",32.4135017395,-98.8097991943,"Eastland",76448,"#ff846c"
"TX","Ellington Airport","EFD",29.6072998047,-95.1587982178,"Houston",77034,"#ff846c"
"TX","San Angelo Regional Mathis Field","SJT",31.3577003479004,-100.496002197266,"San Angelo",76904,"#ff846c"
"TX","Reese Airpark","REE",33.590301513672,-102.03700256348,"Lubbock",79416,"#ff846c"
"TX","Lubbock Preston Smith International Airport","LBB",33.663601,-101.822998,"Lubbock",79403,"#ff846c"
"TX","Brownwood Regional Airport","BWD",31.7936000824,-98.9564971924,"Early",76802,"#ff846c"
"TX","Randolph Air Force Base","RND",29.52969933,-98.27890015,"Universal City",78148,"#ff846c"
"TX","Wilbarger County Airport","WIB",34.2257003784,-99.2837982178,"Vernon",76384,"#ff846c"
"TX","Stinson Municipal Airport","SSF",29.336999893188,-98.471099853516,"San Antonio",78221,"#ff846c"
"TX","Harrison County Airport","ASL",32.5205001831,-94.307800293,"Marshall",75672,"#ff846c"
"TX","George Bush Intercontinental Houston Airport","IAH",29.9843997955322,-95.3414001464844,"Houston",77032,"#ff846c"
"TX","Roy Hurd Memorial Airport","MIF",31.582500457764,-102.90899658203,"Monahans",79756,"#ff846c"
"TX","Avenger Field","SWW",32.467399597168,-100.46700286865,"Sweetwater",79556,"#ff846c"
"TX","H H Coffield Regional Airport","RCK",30.6315994263,-96.9897003174,"Rockdale",76567,"#ff846c"
"TX","Pecos Municipal Airport","PEQ",31.382400512695,-103.51100158691,"Pecos",79772,"#ff846c"
"TX","Eagle Lake Airport","ELA",29.6005992889,-96.3218994141,"Eagle Lake",77434,"#ff846c"
"TX","Kingsville Naval Air Station","NQI",27.5072002411,-97.8097000122,"Kingsville",78363,"#ff846c"
"TX","Midland Airpark","MDD",32.0364990234,-102.100997925,"Midland",79705,"#ff846c"
"TX","Hutchinson County Airport","BGD",35.7009010315,-101.393997192,"Borger",79007,"#ff846c"
"TX","Dyess Air Force Base","DYS",32.4207992554,-99.854598999,"Tye",79563,"#ff846c"
"TX","Dalhart Municipal Airport","DHT",36.0225982666,-102.54699707,"Hartley",79044,"#ff846c"
"TX","Sulphur Springs Municipal Airport","SLR",33.159801483154,-95.621101379395,"Sulphur Springs",75482,"#ff846c"
"TX","Falcon State Airport","FAL",26.5856,-99.13985,"Roma",78584,"#ff846c"
"TX","Laredo International Airport","LRD",27.5438003540039,-99.4616012573242,"Laredo",78041,"#ff846c"
"TX","Winston Field","SNK",32.69340133667,-100.94999694824,"Snyder",79549,"#ff846c"
"TX","Ozona Municipal Airport","OZA",30.735300064087,-101.20300292969,"Ozona",76943,"#ff846c"
"TX","Terrell Municipal Airport","TRL",32.709201812744,-96.267402648926,"Terrell",75160,"#ff846c"
"TX","Matagorda Island Air Force Base","MGI",28.323,-96.464,"Port O Connor",77982,"#ff846c"
"TX","San Antonio International Airport","SAT",29.5337009429932,-98.4698028564453,"San Antonio",78216,"#ff846c"
"TX","Dimmit County Airport","CZT",28.5221996307,-99.823600769,"Carrizo Springs",78834,"#ff846c"
"TX","Mineral Wells Airport","MWL",32.7816009521,-98.0602035522,"Mineral Wells",76067,"#ff846c"
"TX","Robert Gray  Army Air Field Airport","GRK",31.067199707,-97.8289031982,"Killeen",76544,"#ff846c"
"TX","Greater Southwest International Airport-Amon Carter Field","GSW",32.8308104547,-97.0491886139,"Fort Worth",76155,"#ff846c"
"TX","Cotulla-La Salle County Airport","COT",28.45669937,-99.22029877,"Cotulla",78014,"#ff846c"
"TX","Ranger Municipal Airport","RGR",32.4525985718,-98.682800293,"Ranger",76470,"#ff846c"
"TX","West Houston Airport","IWS",29.8181991577,-95.6725997925,"Houston",77084,"#ff846c"
"TX","Beaumont Municipal Airport","BMT",30.0706996918,-94.2157974243,"Beaumont",77713,"#ff846c"
"TX","Martindale Army Heliport","MDA",29.4312992096,-98.3777999878,"San Antonio",78219,"#ff846c"
"TX","C David Campbell Field Corsicana Municipal Airport","CRS",32.0280990601,-96.4005966187,"Corsicana",75109,"#ff846c"
"TX","Curtis Field","BBD",31.1793003082,-99.3238983154,"Brady",76825,"#ff846c"
"TX","Winkler County Airport","INK",31.7796001434,-103.200996399,"Wink",79789,"#ff846c"
"UT","Salt Lake City International Airport","SLC",40.7883987426758,-111.977996826172,"Salt Lake City",84116,"#8e8953"
"UT","Skypark Airport","BTF",40.8694000244,-111.927001953,"Woods Cross",84087,"#8e8953"
"UT","Bryce Canyon Airport","BCE",37.706401825,-112.144996643,"Tropic",84776,"#8e8953"
"UT","Green River Municipal Airport","RVR",38.9613990784,-110.226997375,"Green River",84525,"#8e8953"
"UT","Logan-Cache Airport","LGU",41.7911987305,-111.851997375,"Logan",84341,"#8e8953"
"UT","Provo Municipal Airport","PVU",40.219200134277,-111.72299957275,"Provo",84601,"#8e8953"
"UT","Wendover Airport","ENV",40.7187004089,-114.03099823,"Wendover",84083,"#8e8953"
"UT","St George Municipal Airport","SGU",37.036389,-113.510306,"Saint George",84790,"#8e8953"
"UT","Brigham City Regional Airport","BMC",41.552399,-112.061996,"Brigham City",84302,"#8e8953"
"UT","Bullfrog Basin Airport","BFG",37.54579926,-110.7129974,"Hite",84533,"#8e8953"
"UT","Carbon County Regional/Buck Davis Field","PUC",39.61389923,-110.7509995,"Price",84501,"#8e8953"
"UT","Mount Pleasant Airport","MSD",39.526651,-111.475978,"Mount Pleasant",84647,"#8e8953"
"UT","Hanksville Airport","HVE",38.4179992676,-110.70400238,"Hanksville",84734,"#8e8953"
"UT","Hill Air Force Base","HIF",41.12403,-111.973086,"Hill Afb",84056,"#8e8953"
"UT","Blanding Municipal Airport","BDG",37.58330154,-109.4830017,"Blanding",84511,"#8e8953"
"UT","Delta Municipal Airport","DTA",39.3805999756,-112.508003235,"Sutherland",84624,"#8e8953"
"UT","Canyonlands Field","CNY",38.75500107,-109.7549973,"Thompson",84540,"#8e8953"
"UT","Fillmore Municipal Airport","FIL",38.95830154,-112.362999,"Fillmore",84631,"#8e8953"
"UT","Manti-Ephraim Airport","NTJ",39.32910156,-111.6149979,"Ephraim",84627,"#8e8953"
"UT","Monument Valley Airport","GMV",37.0167007446,-110.200996399,"Monument Valley",84536,"#8e8953"
"UT","Salina Gunnison Airport","SBO",39.0290985107,-111.837997437,"Axtell",84621,"#8e8953"
"UT","Vernal Regional Airport","VEL",40.4408989,-109.5100021,"Vernal",84078,"#8e8953"
"UT","Michael AAF (Dugway Proving Ground) Airport","DPG",40.19940186,-112.9369965,"Dugway",84022,"#8e8953"
"UT","Ogden Hinckley Airport","OGD",41.195899963379,-112.0120010376,"Ogden",84405,"#8e8953"
"UT","Cedar City Regional Airport","CDC",37.701000213623,-113.098999023438,"Cedar City",84720,"#8e8953"
"UT","Panguitch Municipal Airport","PNU",37.84519958,-112.3919983,"Panguitch",84759,"#8e8953"
"UT","Nephi Municipal Airport","NPH",39.73880005,-111.8720016,"Nephi",84648,"#8e8953"
"UT","Roosevelt Municipal Airport","ROL",40.278301,-110.051003,"Roosevelt",84066,"#8e8953"
"UT","Monticello Airport","MXC",37.93243,-109.341225,"Monticello",84535,"#8e8953"
"VA","Ronald Reagan Washington National Airport","DCA",38.8521,-77.037697,"Arlington",22202,"#efbe69"
"VA","Lonesome Pine Airport","LNP",36.9874992371,-82.5299987793,"Wise",24293,"#efbe69"
"VA","Richmond International Airport","RIC",37.505199432373,-77.3197021484375,"Richmond",23250,"#efbe69"
"VA","Pentagon Army Heliport","JPN",38.8740997314,-77.0575027466,"Ft Myer",22211,"#efbe69"
"VA","Gordonsville Municipal Airport","GVE",38.15599823,-78.165802002,"Gordonsville",22942,"#efbe69"
"VA","Louisa County Airport/Freeman Field","LOW",38.00979996,-77.9701004,"Louisa",23093,"#efbe69"
"VA","Virginia Highlands Airport","VJI",36.687099456787,-82.033302307129,"Abingdon",24210,"#efbe69"
"VA","Fort Lee Army Airfield","FLE",37.284,-77.3448,"Prince George",23875,"#efbe69"
"VA","Franklin Municipal-John Beverly Rose Airport","FKN",36.6981010437,-76.9038009644,"Franklin",23851,"#efbe69"
"VA","Accomack County Airport","MFV",37.646900177,-75.761100769,"Melfa",23410,"#efbe69"
"VA","Lawrenceville Brunswick Municipal Airport","LVL",36.7728004456,-77.7942962646,"Lawrenceville",23868,"#efbe69"
"VA","Washington Dulles International Airport","IAD",38.94449997,-77.45580292,"Sterling",20166,"#efbe69"
"VA","Dahlgren Naval Surface Warfare Center Airport","DGN",38.33250046,-77.03720093,"Dahlgren",22448,"#efbe69"
"VA","Danville Regional Airport","DAN",36.5728988647461,-79.3360977172852,"Ringgold",24586,"#efbe69"
"VA","Newport News Williamsburg International Airport","PHF",37.13190079,-76.49299622,"Newport News",23602,"#efbe69"
"VA","Oceana Naval Air Station","NTU",36.820702,-76.033501,"Virginia Beach",23451,"#efbe69"
"VA","Front Royal Warren County Airport","FRR",38.9174995422,-78.2535018921,"Front Royal",22630,"#efbe69"
"VA","Norfolk International Airport","ORF",36.8945999145508,-76.2012023925781,"Norfolk",23501,"#efbe69"
"VA","New River Valley Airport","PSK",37.137298583984,-80.678497314453,"Dublin",24084,"#efbe69"
"VA","Felker Army Air Field","FAF",37.1324996948,-76.6088027954,"Fort Eustis",23604,"#efbe69"
"VA","A P Hill AAF (Fort A P Hill) Airport","APH",38.068902,-77.318298,"Bowling Green",22427,"#efbe69"
"VA","Davison Army Air Field","DAA",38.7150001526,-77.1809997559,"Fort Belvoir",22060,"#efbe69"
"VA","Charlottesville Albemarle Airport","CHO",38.138599395752,-78.4529037475586,"Charlottesville",22911,"#efbe69"
"VA","Shenandoah Valley Regional Airport","SHD",38.2638015747,-78.8964004517,"Weyers Cave",24486,"#efbe69"
"VA","Ingalls Field","HSP",37.95140076,-79.83390045,"Healing Springs",24445,"#efbe69"
"VA","Allen C Perkinson Blackstone Army Air Field","BKT",37.0741996765,-77.9574966431,"Blackstone",23824,"#efbe69"
"VA","Norfolk Naval Station (Chambers Field)","NGU",36.937599,-76.289299,"Norfolk",23551,"#efbe69"
"VA","Winchester Regional Airport","WGO",39.14350128,-78.14440155,"Winchester",22602,"#efbe69"
"VA","Lynchburg Regional Preston Glenn Field","LYH",37.3266983032227,-79.2004013061523,"Lynchburg",24502,"#efbe69"
"VA","Langley Air Force Base","LFI",37.082901001,-76.360496521,"Hampton",23665,"#efbe69"
"VA","Manassas Regional Airport/Harry P. Davis Field","MNZ",38.72140121,-77.51540375,"Manassas",20110,"#efbe69"
"VA","Dinwiddie County Airport","PTB",37.183799743652,-77.507400512695,"Petersburg",23803,"#efbe69"
"VA","RoanokeBlacksburg Regional Airport","ROA",37.3255,-79.975403,"Roanoke",24012,"#efbe69"
"VA","Virginia Tech Montgomery Executive Airport","BCB",37.2075996399,-80.4077987671,"Blacksburg",24060,"#efbe69"
"VA","Wallops Flight Facility Airport","WAL",37.9402008057,-75.4664001465,"New Church",23415,"#efbe69"
"VT","Caledonia County Airport","LLX",44.5690994263,-72.0179977417,"Lyndonville",5851,"#a74600"
"VT","Edward F Knapp State Airport","MPV",44.20349884,-72.56230164,"Montpelier",5602,"#a74600"
"VT","Rutland - Southern Vermont Regional Airport","RUT",43.52939987,-72.94960022,"North Clarendon",5759,"#a74600"
"VT","Burlington International Airport","BTV",44.4719009399,-73.1532974243,"South Burlington",5403,"#a74600"
"VT","Hartness State (Springfield) Airport","VSF",43.34360123,-72.51730347,"Perkinsville",5151,"#a74600"
"VT","Morrisville Stowe State Airport","MVL",44.5345993042,-72.6139984131,"Morrisville",5661,"#a74600"
"VT","Northeast Kingdom International Airport","EFK",44.888802,-72.229202,"Newport",5855,"#a74600"
"WA","Port of Poulsbo Marina Moorage Seaplane Base","PUL",47.734001159668,-122.64700317383,"Poulsbo",98370,"#77471b"
"WA","Whidbey Island Naval Air Station (Ault Field)","NUW",48.351799,-122.655998,"Oak Harbor",98277,"#77471b"
"WA","Friday Harbor Seaplane Base","FBS",48.5373001099,-123.010002136,"Friday Harbor",98250,"#77471b"
"WA","Tacoma Narrows Airport","TIW",47.26789856,-122.5780029,"Gig Harbor",98335,"#77471b"
"WA","Sequim Valley Airport","SQV",48.098098754883,-123.18699645996,"Sequim",98382,"#77471b"
"WA","Bellingham International Airport","BLI",48.7928009033203,-122.53800201416,"Bellingham",98226,"#77471b"
"WA","Kenmore Air Harbor Inc Seaplane Base","KEH",47.7547988892,-122.259002686,"Kenmore",98028,"#77471b"
"WA","Anacortes Airport","OTS",48.499,-122.662003,"Anacortes",98221,"#77471b"
"WA","Chehalis Centralia Airport","CLS",46.6769981384,-122.983001709,"Chehalis",98532,"#77471b"
"WA","Bremerton National Airport","PWT",47.490200042725,-122.76499938965,"Port Orchard",98367,"#77471b"
"WA","Stuart Island Airpark","SSW",48.672901153564,-123.17600250244,"Friday Harbor",98250,"#77471b"
"WA","Omak Airport","OMK",48.4644012451,-119.517997742,"Omak",98841,"#77471b"
"WA","Ephrata Municipal Airport","EPH",47.30759811,-119.5159988,"Ephrata",98823,"#77471b"
"WA","McChord Air Force Base","TCM",47.1376991272,-122.475997925,"Tacoma",98438,"#77471b"
"WA","Rosario Seaplane Base","RSJ",48.6456985474,-122.867996216,"Eastsound",98245,"#77471b"
"WA","Quillayute Airport","UIL",47.936599731445,-124.56300354004,"Forks",98331,"#77471b"
"WA","Snohomish County (Paine Field) Airport","PAE",47.90629959,-122.2819977,"Everett",98204,"#77471b"
"WA","Fairchild Air Force Base","SKA",47.6151008606,-117.65599823,"Fairchild Air Force Base",99011,"#77471b"
"WA","Decatur Shores Airport","DTR",48.4998016357,-122.814002991,"Anacortes",98221,"#77471b"
"WA","Grant County International Airport","MWH",47.20769882,-119.3199997,"Moses Lake North",98837,"#77471b"
"WA","Roche Harbor Airport","RCE",48.6123008728,-123.138999939,"Friday Harbor",98250,"#77471b"
"WA","Deer Harbor SPB","DHB",48.6166666667,-123.002777778,"Deer Harbor",98243,"#77471b"
"WA","Bowers Field","ELN",47.03300095,-120.5309982,"Ellensburg",98926,"#77471b"
"WA","Yakima Air Terminal McAllister Field","YKM",46.56819916,-120.5439987,"Yakima",98902,"#77471b"
"WA","Pullman Moscow Regional Airport","PUW",46.7439,-117.110001,"Pullman",99163,"#77471b"
"WA","Friday Harbor Airport","FRD",48.5219993591,-123.024002075,"Friday Harbor",98250,"#77471b"
"WA","Skagit Regional Airport","MVW",48.4709014893,-122.42099762,"Burlington",98233,"#77471b"
"WA","Pangborn Memorial Airport","EAT",47.3988990784,-120.207000732,"East Wenatchee",98802,"#77471b"
"WA","Gray Army Air Field","GRF",47.07920074,-122.5810013,"Tacoma",98433,"#77471b"
"WA","Kenmore Air Harbor Seaplane Base","LKE",47.6290016174,-122.338996887,"Seattle",98109,"#77471b"
"WA","Vista Field","VSK",46.2186012268,-119.209999084,"Kennewick",99336,"#77471b"
"WA","Seattle Tacoma International Airport","SEA",47.449001,-122.308998,"Seattle",98158,"#77471b"
"WA","William R Fairchild International Airport","CLM",48.1202011108398,-123.5,"Port Angeles",98363,"#77471b"
"WA","Boeing Field King County International Airport","BFI",47.5299987792969,-122.302001953125,"Seattle",98108,"#77471b"
"WA","Felts Field","SFF",47.682800292969,-117.32299804688,"Spokane",99212,"#77471b"
"WA","Olympia Regional Airport","OLM",46.9693985,-122.9029999,"Olympia",98501,"#77471b"
"WA","Columbia Gorge Regional the Dalles Municipal Airport","DLS",45.6184997559,-121.166999817,"Dallesport",98617,"#77471b"
"WA","Center Island Airport","CWS",48.4901008606,-122.832000732,"Anacortes",98221,"#77471b"
"WA","Sanderson Field","SHN",47.233600616455,-123.14800262451,"Shelton",98584,"#77471b"
"WA","Spokane International Airport","GEG",47.6198997497559,-117.533996582031,"Spokane",99224,"#77471b"
"WA","Crane Island Airstrip","CKR",48.5978,-122.9979,"Deer Harbor",98243,"#77471b"
"WA","Westsound/Wsx Seaplane Base","WSX",48.6179008484,-122.95300293,"Orcas",98280,"#77471b"
"WA","Southwest Washington Regional Airport","KLS",46.1180000305,-122.898002625,"Kelso",98626,"#77471b"
"WA","Orcas Island Airport","ESD",48.7081985474,-122.910003662,"Eastsound",98245,"#77471b"
"WA","Lopez Island Airport","LPS",48.4838981628418,-122.938003540039,"Lopez",98261,"#77471b"
"WA","Bowerman Airport","HQM",46.9711990356,-123.93699646,"Hoquiam",98550,"#77471b"
"WA","Waldronaire Airport","WDN",48.7117996216,-123.017997742,"Waldron",98297,"#77471b"
"WA","AJ Eisenberg Airport","ODW",48.251499176,-122.674003601,"Oak Harbor",98277,"#77471b"
"WA","Walla Walla Regional Airport","ALW",46.09489822,-118.288002,"Walla Walla",99362,"#77471b"
"WA","Ed Carlson Memorial Field South Lewis County Airport","TDO",46.4771995544,-122.805999756,"Toledo",98591,"#77471b"
"WA","Easton State Airport","ESW",47.2541999817,-121.185997009,"Ellensburg",98926,"#77471b"
"WA","Blakely Island Airport","BYW",48.5789985657,-122.825996399,"Blakely Island",98222,"#77471b"
"WA","Grand Coulee Dam Airport","GCD",47.922000885,-119.083000183,"Electric City",99123,"#77471b"
"WA","Renton Municipal Airport","RNT",47.4930992126,-122.216003418,"Renton",98057,"#77471b"
"WA","Jefferson County International Airport","TWD",48.0537986755,-122.810997009,"Port Townsend",98368,"#77471b"
"WA","Tri Cities Airport","PSC",46.2647018432617,-119.119003295898,"Pasco",99301,"#77471b"
"WI","Chippewa Valley Regional Airport","EAU",44.8657989501953,-91.4842987060547,"Eau Claire",54703,"#945500"
"WI","Amery Municipal Airport","AHH",45.2811012268,-92.3753967285,"Amery",54001,"#945500"
"WI","Prentice Airport","PRW",45.542999,-90.279297,"Prentice",54556,"#945500"
"WI","John H Batten Airport","RAC",42.7606010437,-87.8152008057,"Racine",53404,"#945500"
"WI","Alexander Field South Wood County Airport","ISW",44.3602981567,-89.8389968872,"Wisconsin Rapids",54495,"#945500"
"WI","Lawrence J Timmerman Airport","MWC",43.110401,-88.034401,"Milwaukee",53225,"#945500"
"WI","Central Wisconsin Airport","CWA",44.7775993347,-89.6668014526,"Mosinee",54455,"#945500"
"WI","Merrill Municipal Airport","RRL",45.1988983154,-89.7128982544,"Merrill",54452,"#945500"
"WI","Kenosha Regional Airport","ENW",42.59569931,-87.92780304,"Kenosha",53144,"#945500"
"WI","Taylor County Airport","MDF",45.10100174,-90.30329895,"Medford",54451,"#945500"
"WI","Grand Geneva Resort Airport","XES",42.614899,-88.389603,"Lake Geneva",53147,"#945500"
"WI","Eagle River Union Airport","EGV",45.9323005676,-89.2683029175,"Eagle River",54521,"#945500"
"WI","hln","RIE",45.41899872,-91.77349854,"Cameron",54822,"#945500"
"WI","Marshfield Municipal Airport","MFI",44.6369018555,-90.1893005371,"Marshfield",54449,"#945500"
"WI","Wausau Downtown Airport","AUW",44.9262008667,-89.6266021729,"Wausau",54403,"#945500"
"WI","Manitowoc County Airport","MTW",44.128799,-87.680602,"Manitowoc",54220,"#945500"
"WI","Sheboygan County Memorial Airport","SBM",43.76959991,-87.85140228,"Sheboygan Falls",53085,"#945500"
"WI","Dane County Regional Truax Field","MSN",43.1399002075195,-89.3375015258789,"Madison",53704,"#945500"
"WI","Austin Straubel International Airport","GRB",44.4850997924805,-88.1296005249023,"Green Bay",54313,"#945500"
"WI","Stevens Point Municipal Airport","STE",44.5452003479,-89.530296325684,"Stevens Point",54482,"#945500"
"WI","Tri-County Regional Airport","LNR",43.2117004395,-90.181602478,"Spring Green",53588,"#945500"
"WI","Door County Cherryland Airport","SUE",44.84370041,-87.42150116,"Sturgeon Bay",54235,"#945500"
"WI","Waukesha County Airport","UES",43.041000366211,-88.237098693848,"Waukesha",53188,"#945500"
"WI","General Mitchell International Airport","MKE",42.9472007751465,-87.896598815918,"Milwaukee",53207,"#945500"
"WI","Dodge County Airport","UNU",43.42660141,-88.70320129,"Juneau",53039,"#945500"
"WI","West Bend Municipal Airport","ETB",43.4221992493,-88.1278991699,"West Bend",53095,"#945500"
"WI","Fond du Lac County Airport","FLD",43.7711982727,-88.4884033203,"Fond Du Lac",54935,"#945500"
"WI","Wittman Regional Airport","OSH",43.9844017028809,-88.556999206543,"Oshkosh",54901,"#945500"
"WI","John F Kennedy Memorial Airport","ASX",46.54850006,-90.91899872,"Ashland",54806,"#945500"
"WI","La Crosse Municipal Airport","LSE",43.879002,-91.256699,"La Crosse",54603,"#945500"
"WI","Grantsburg Municipal Airport","GTG",45.7980995178,-92.6643981934,"Grantsburg",54840,"#945500"
"WI","Sawyer County Airport","HYR",46.0251998901,-91.4442977905,"Hayward",54843,"#945500"
"WI","Clintonville Municipal Airport","CLI",44.6138000488,-88.731300354,"Clintonville",54929,"#945500"
"WI","Lakeland-Noble F. Lee Memorial field","ARV",45.92789841,-89.73090363,"Woodruff",54568,"#945500"
"WI","Richard I Bong Airport","SUW",46.689701080322,-92.094703674316,"Superior",54880,"#945500"
"WI","Volk Field","VOK",43.938999176025,-90.253402709961,"Camp Douglas",54618,"#945500"
"WI","Southern Wisconsin Regional Airport","JVL",42.620300293,-89.0416030884,"Janesville",53546,"#945500"
"WI","Sparta Fort Mc Coy Airport","CMY",43.958302,-90.7379,"Sparta",54656,"#945500"
"WI","L O Simenstad Municipal Airport","OEO",45.310001373291,-92.691902160645,"Osceola",54020,"#945500"
"WI","Park Falls Municipal Airport","PKF",45.955001831055,-90.42440032959,"Park Falls",54552,"#945500"
"WI","Rhinelander Oneida County Airport","RHI",45.6311988830566,-89.4674987792969,"Rhinelander",54501,"#945500"
"WI","Prairie Du Chien Municipal Airport","PCD",43.019298553467,-91.12370300293,"Prairie Du Chien",53821,"#945500"
"WI","Appleton International Airport","ATW",44.2580986023,-88.5190963745,"Appleton",54914,"#945500"
"WV","Greater Cumberland Regional Airport","CBE",39.615398407,-78.7609024048,"Wiley Ford",26767,"#ffad64"
"WV","Yeager Airport","CRW",38.3731002807617,-81.5932006835938,"Charleston",25311,"#ffad64"
"WV","Greenbrier Valley Airport","LWB",37.8582992554,-80.3994979858,"Lewisburg",24901,"#ffad64"
"WV","Morgantown Municipal Walter L. Bill Hart Field","MGW",39.64289856,-79.91629791,"Morgantown",26505,"#ffad64"
"WV","Mid Ohio Valley Regional Airport","PKB",39.345100402832,-81.4392013549805,"Williamstown",26187,"#ffad64"
"WV","Eastern WV Regional Airport/Shepherd Field","MRB",39.40190125,-77.98459625,"Martinsburg",25405,"#ffad64"
"WV","Tri-State/Milton J. Ferguson Field","HTS",38.36669922,-82.55799866,"Huntington",25704,"#ffad64"
"WV","North Central West Virginia Airport","CKB",39.2966003418,-80.2281036377,"Bridgeport",26330,"#ffad64"
"WV","Elkins-Randolph Co-Jennings Randolph Field","EKN",38.88940048,-79.85710144,"Elkins",26241,"#ffad64"
"WV","Mercer County Airport","BLF",37.2957992553711,-81.2077026367188,"Bluefield",24701,"#ffad64"
"WV","Raleigh County Memorial Airport","BKW",37.7873001099,-81.1241989136,"Beaver",25813,"#ffad64"
"WV","Greenbrier Airport","SSU",37.775,-80.336,"White Sulphur Springs",24986,"#ffad64"
"WV","Grant County Airport","PGC",38.9948997498,-79.1458969116,"Petersburg",26847,"#ffad64"
"WV","Glendale Fokker Field","GWV",39.9486999512,-80.7594985962,"Glen Dale",26038,"#ffad64"
"WV","Wheeling Ohio County Airport","HLG",40.1749992371,-80.6463012695,"Wheeling",26003,"#ffad64"
"WY","Casper-Natrona County International Airport","CPR",42.908001,-106.463997,"Casper",82604,"#db9d83"
"WY","Riverton Regional Airport","RIW",43.064201355,-108.459999084,"Riverton",82501,"#db9d83"
"WY","Southwest Wyoming Regional Airport","RKS",41.5942,-109.065001,"Rock Springs",82901,"#db9d83"
"WY","Powell Municipal Airport","POY",44.867198944092,-108.79299926758,"Mantua",82435,"#db9d83"
"WY","Jackson Hole Airport","JAC",43.6072998046875,-110.737998962402,"Jackson",83001,"#db9d83"
"WY","Laramie Regional Airport","LAR",41.3120994567871,-105.675003051758,"Laramie",82070,"#db9d83"
"WY","Evanston-Uinta County Airport-Burns Field","EVW",41.27479935,-111.0350037,"Evanston",82930,"#db9d83"
"WY","Afton Municipal Airport","AFO",42.7112007141,-110.942001343,"Afton",83110,"#db9d83"
"WY","Shively Field","SAA",41.444901,-106.823997,"Rawlins",82301,"#db9d83"
"WY","Johnson County Airport","BYG",44.3810997009,-106.722000122,"Saddlestring",82840,"#db9d83"
"WY","Phifer Airfield","EAN",42.0555,-104.929001,"Wheatland",82201,"#db9d83"
"WY","Cheyenne Regional Jerry Olson Field","CYS",41.15570068,-104.8119965,"Cheyenne",82001,"#db9d83"
"WY","Mondell Field","ECS",43.885399,-104.318001,"Newcastle",82701,"#db9d83"
"WY","Sheridan County Airport","SHR",44.7691993713379,-106.980003356934,"Sheridan",82801,"#db9d83"
"WY","Ralph Wenz Field","PWY",42.79550171,-109.8069992,"Boulder",82923,"#db9d83"
"WY","South Big Horn County Airport","GEY",44.51679993,-108.0830002,"Greybull",82426,"#db9d83"
"WY","Worland Municipal Airport","WRL",43.9656982421875,-107.950996398926,"Worland",82401,"#db9d83"
"WY","Kemmerer Municipal Airport","EMM",41.8241004944,-110.556999207,"Kemmerer",83101,"#db9d83"
"WY","Rawlins Municipal Airport/Harvey Field","RWL",41.80559921,-107.1999969,"Rawlins",82301,"#db9d83"
"WY","Gillette Campbell County Airport","GCC",44.3488998413,-105.539001465,"Gillette",82716,"#db9d83"
"WY","Lusk Municipal Airport","LSK",42.7537994385,-104.404998779,"Lusk",82225,"#db9d83"
"WY","Yellowstone Regional Airport","COD",44.520198822,-109.024002075,"Cody",82414,"#db9d83"
"WY","Miley Memorial Field","BPI",42.58509827,-110.1110001,"Big Piney",83113,"#db9d83"
"WY","Converse County Airport","DGW",42.79719925,-105.3860016,"Douglas",82633,"#db9d83"
"WY","Fort Bridger Airport","FBR",41.3918991089,-110.406997681,"Lyman",82937,"#db9d83"
"WY","Hunt Field","LND",42.8152008057,-108.730003357,"Lander",82520,"#db9d83"
"WY","Torrington Municipal Airport","TOR",42.0644989,-104.1529999,"Torrington",82240,"#db9d83"
"WY","Hot Springs County Airport","THP",43.713602,-108.389687,"Thermopolis",82443,"#db9d83"
